{
"type": "FeatureCollection",
"crs": { "type": "name", "properties": { "name": "urn:ogc:def:crs:OGC:1.3:CRS84" } },
"features": [
{ "type": "Feature", "properties": { "gid": 166889, "osm_id": "306057490", "code": 5122.0, "fclass": "residential", "name": "McNabs Road", "pixel_count": 200, "Var_line": 57.993724822998047, "Edge_contrast": 14.555197715759277, "ROI": 25306.833333333332, "Road_detected": -1, "ROI_norm": 1.2947683868633224, "Pred": 0 }, "geometry": { "type": "LineString", "coordinates": [ [ 144.825704926230316, -37.690598772705059 ], [ 144.825691426222107, -37.690543572706332 ], [ 144.82569412621163, -37.690441672706761 ], [ 144.825705626205831, -37.690369272706441 ], [ 144.825812926151968, -37.689694272703349 ], [ 144.826089226032735, -37.688138472694305 ], [ 144.826220625961611, -37.687263972690815 ], [ 144.826357425894116, -37.686414972686926 ], [ 144.826669225769251, -37.684749072675999 ] ] } },
{ "type": "Feature", "properties": { "gid": 207281, "osm_id": "788141666", "code": 5113.0, "fclass": "primary", "name": "Sunshine Avenue", "pixel_count": 50, "Var_line": 91.967903137207031, "Edge_contrast": 35.485645294189453, "ROI": 6637.1666666666661, "Road_detected": -1, "ROI_norm": -0.46427695115964551, "Pred": 0 }, "geometry": { "type": "LineString", "coordinates": [ [ 144.802421423154072, -37.699473574227014 ], [ 144.802716423082899, -37.698333674214126 ], [ 144.802804923067526, -37.698047174209876 ] ] } },
{ "type": "Feature", "properties": { "gid": 78, "osm_id": null, "code": null, "fclass": "motorway", "name": null, "pixel_count": 75, "Var_line": 43.481117248535156, "Edge_contrast": 36.262962341308594, "ROI": 6877.1666666666679, "Road_detected": -1, "ROI_norm": -0.44166428813447905, "Pred": 0 }, "geometry": { "type": "LineString", "coordinates": [ [ 144.8030919454784, -37.696638660794761 ], [ 144.802957868472305, -37.696955992366291 ], [ 144.802830500951046, -37.697462149458033 ] ] } },
{ "type": "Feature", "properties": { "gid": 99, "osm_id": null, "code": null, "fclass": "primary", "name": null, "pixel_count": 65, "Var_line": 119.89910888671875, "Edge_contrast": 27.285751342773438, "ROI": 3125.333333333333, "Road_detected": -1, "ROI_norm": -0.79515988352303302, "Pred": 0 }, "geometry": { "type": "LineString", "coordinates": [ [ 144.836722089364656, -37.679661514768171 ], [ 144.836653833477556, -37.679589900567485 ], [ 144.836636022267754, -37.679501190061409 ] ] } },
{ "type": "Feature", "properties": { "gid": 132, "osm_id": null, "code": null, "fclass": "tertiary", "name": null, "pixel_count": 80, "Var_line": 122.29071044921875, "Edge_contrast": 9.3410463333129883, "ROI": 3484.5, "Road_detected": -1, "ROI_norm": -0.76131940517634333, "Pred": 0 }, "geometry": { "type": "LineString", "coordinates": [ [ 144.836750943077448, -37.679638667331844 ], [ 144.83665378406846, -37.679612787264894 ], [ 144.836635966676454, -37.679526937596833 ], [ 144.836664925351045, -37.679455455945806 ] ] } },
{ "type": "Feature", "properties": { "gid": 149, "osm_id": null, "code": null, "fclass": "unclassified", "name": null, "pixel_count": 59, "Var_line": 34.001842498779297, "Edge_contrast": 14.175223350524902, "ROI": 2689.1666666666665, "Road_detected": -1, "ROI_norm": -0.83625525792363042, "Pred": 0 }, "geometry": { "type": "LineString", "coordinates": [ [ 144.826103160705884, -37.687885793048515 ], [ 144.824821480553794, -37.687775213855012 ], [ 144.82477822967499, -37.687792315624712 ] ] } },
{ "type": "Feature", "properties": { "gid": 39, "osm_id": null, "code": null, "fclass": "residential", "name": null, "pixel_count": 273, "Var_line": 5.019467830657959, "Edge_contrast": 6.7397913932800293, "ROI": 3578.333333333333, "Road_detected": -1, "ROI_norm": -0.75247848206303181, "Pred": 0 }, "geometry": { "type": "LineString", "coordinates": [ [ 144.817719759357317, -37.664139714591371 ], [ 144.817438644882117, -37.663529922448554 ], [ 144.817178556771211, -37.662413788537506 ], [ 144.817205969262801, -37.662242178475729 ], [ 144.81711981123243, -37.662144777511287 ], [ 144.817149272441185, -37.661870179413654 ], [ 144.817122689516992, -37.661698486878208 ], [ 144.817207696716707, -37.661526964711925 ], [ 144.817152316425648, -37.661355228200563 ], [ 144.817237323172606, -37.661183705991398 ], [ 144.81718038511471, -37.660911836763034 ] ] } },
{ "type": "Feature", "properties": { "gid": 128, "osm_id": null, "code": null, "fclass": "primary", "name": null, "pixel_count": 38, "Var_line": 118.55752563476562, "Edge_contrast": 27.416213989257812, "ROI": 4077.333333333333, "Road_detected": -1, "ROI_norm": -0.7054629868565403, "Pred": 0 }, "geometry": { "type": "LineString", "coordinates": [ [ 144.83672292896776, -37.679272440892554 ], [ 144.836665271192629, -37.679295249050895 ] ] } },
{ "type": "Feature", "properties": { "gid": 215, "osm_id": null, "code": null, "fclass": "unclassified", "name": null, "pixel_count": 200, "Var_line": 20.512428283691406, "Edge_contrast": 12.393301963806152, "ROI": 10113.333333333332, "Road_detected": -1, "ROI_norm": -0.13675451177360898, "Pred": 0 }, "geometry": { "type": "LineString", "coordinates": [ [ 144.817719704232246, -37.664162601412812 ], [ 144.817701973978501, -37.664051000758981 ], [ 144.817574594929852, -37.663879154986553 ], [ 144.817467222260746, -37.663621513651471 ], [ 144.817148442998615, -37.662213481999878 ], [ 144.817150143347817, -37.6615097116511 ], [ 144.817329740796936, -37.659432996234941 ], [ 144.817589834191722, -37.658303349545257 ] ] } },
{ "type": "Feature", "properties": { "gid": 26, "osm_id": null, "code": null, "fclass": "residential", "name": null, "pixel_count": 346, "Var_line": 48.867183685302734, "Edge_contrast": 18.997798919677734, "ROI": 9087.5, "Road_detected": -1, "ROI_norm": -0.23340794296798287, "Pred": 0 }, "geometry": { "type": "LineString", "coordinates": [ [ 144.812252433103083, -37.662368975490416 ], [ 144.812783863274348, -37.661451469549064 ], [ 144.812941552154427, -37.661005420789976 ], [ 144.812889824007328, -37.6608165227616 ], [ 144.812969397937167, -37.660662160247874 ], [ 144.81291946976873, -37.66047326501927 ], [ 144.813006157695241, -37.660353243985767 ], [ 144.812948945566689, -37.660198667785117 ], [ 144.813035802747549, -37.660009986155707 ], [ 144.812978590817949, -37.659855409949571 ], [ 144.81306360533921, -37.659683890608008 ], [ 144.813008235800311, -37.65951215206308 ], [ 144.813084166150645, -37.659374948922462 ], [ 144.813066401457405, -37.65928051252979 ] ] } },
{ "type": "Feature", "properties": { "gid": 80, "osm_id": null, "code": null, "fclass": "residential", "name": null, "pixel_count": 395, "Var_line": 5.5799617767333984, "Edge_contrast": 1.5866024494171143, "ROI": 6137.6666666666661, "Road_detected": -1, "ROI_norm": -0.51133955608077275, "Pred": 0 }, "geometry": { "type": "LineString", "coordinates": [ [ 144.821064163647804, -37.662542674653466 ], [ 144.820858830279576, -37.662605306690324 ], [ 144.820747001516196, -37.662705269612061 ], [ 144.820768315358237, -37.662825457821221 ], [ 144.820697795096123, -37.662962673742982 ], [ 144.820735307815596, -37.663082886199263 ], [ 144.820659468969325, -37.66318576375604 ], [ 144.820707781025703, -37.663305992383108 ], [ 144.820639060090571, -37.663443210940514 ], [ 144.820676572954881, -37.663563423393711 ], [ 144.820600733547252, -37.663666300894953 ], [ 144.820649045817078, -37.663786529524238 ], [ 144.82058032433909, -37.663923748023421 ], [ 144.820619637247063, -37.664043963169632 ], [ 144.820550915481931, -37.66418118163881 ], [ 144.82062763997817, -37.664464522001339 ] ] } },
{ "type": "Feature", "properties": { "gid": 135, "osm_id": null, "code": null, "fclass": "trunk", "name": null, "pixel_count": 50, "Var_line": 137.95957946777344, "Edge_contrast": 64.178871154785156, "ROI": 3914.5, "Road_detected": -1, "ROI_norm": -0.7208050505895871, "Pred": 0 }, "geometry": { "type": "LineString", "coordinates": [ [ 144.832797036703369, -37.67008941474365 ], [ 144.832566833761376, -37.669997545745687 ] ] } },
{ "type": "Feature", "properties": { "gid": 140, "osm_id": null, "code": null, "fclass": "trunk", "name": null, "pixel_count": 50, "Var_line": 0.0, "Edge_contrast": 40.509838104248047, "ROI": 3307.833333333333, "Road_detected": -1, "ROI_norm": -0.77796483768097957, "Pred": 0 }, "geometry": { "type": "LineString", "coordinates": [ [ 144.822005825096852, -37.66622886910433 ], [ 144.822150359024818, -37.666000214966871 ] ] } },
{ "type": "Feature", "properties": { "gid": 141, "osm_id": null, "code": null, "fclass": "trunk", "name": null, "pixel_count": 100, "Var_line": 5.3039474487304688, "Edge_contrast": 7.2644972801208496, "ROI": 3067.5, "Road_detected": -1, "ROI_norm": -0.80060890718256972, "Pred": 0 }, "geometry": { "type": "LineString", "coordinates": [ [ 144.806891638309338, -37.69794938301127 ], [ 144.80684084600739, -37.698095203326702 ], [ 144.806898205770523, -37.698198285565631 ], [ 144.807178876026086, -37.698293144889035 ] ] } },
{ "type": "Feature", "properties": { "gid": 144, "osm_id": null, "code": null, "fclass": "trunk", "name": null, "pixel_count": 50, "Var_line": 156.90965270996094, "Edge_contrast": 11.333388328552246, "ROI": 4966.0, "Road_detected": -1, "ROI_norm": -0.62173332071057741, "Pred": 0 }, "geometry": { "type": "LineString", "coordinates": [ [ 144.79951613382201, -37.697868608473584 ], [ 144.799804064557947, -37.697937749801127 ] ] } },
{ "type": "Feature", "properties": { "gid": 149, "osm_id": null, "code": null, "fclass": "primary", "name": null, "pixel_count": 50, "Var_line": 0.0, "Edge_contrast": 11.284618377685547, "ROI": 1152.0, "Road_detected": -1, "ROI_norm": -0.98108622395217793, "Pred": 0 }, "geometry": { "type": "LineString", "coordinates": [ [ 144.841596115059843, -37.690516362631094 ], [ 144.841769157345823, -37.690425044636143 ] ] } },
{ "type": "Feature", "properties": { "gid": 150, "osm_id": null, "code": null, "fclass": "primary", "name": null, "pixel_count": 75, "Var_line": 93.794219970703125, "Edge_contrast": 18.563070297241211, "ROI": 4883.8333333333321, "Road_detected": -1, "ROI_norm": -0.62947501714905463, "Pred": 0 }, "geometry": { "type": "LineString", "coordinates": [ [ 144.832739485915454, -37.670066447535916 ], [ 144.832757239755324, -37.670178045711872 ], [ 144.832911582501566, -37.670387103611702 ] ] } },
{ "type": "Feature", "properties": { "gid": 154, "osm_id": null, "code": null, "fclass": "primary", "name": null, "pixel_count": 30, "Var_line": 99.893257141113281, "Edge_contrast": 1.6723805665969849, "ROI": 3950.5, "Road_detected": -1, "ROI_norm": -0.71741315113581217, "Pred": 0 }, "geometry": { "type": "LineString", "coordinates": [ [ 144.830722670537966, -37.670406916655985 ], [ 144.830722721734901, -37.670384029882023 ] ] } },
{ "type": "Feature", "properties": { "gid": 156, "osm_id": null, "code": null, "fclass": "primary", "name": null, "pixel_count": 50, "Var_line": 79.759284973144531, "Edge_contrast": 1.6621679067611694, "ROI": 4642.5, "Road_detected": -1, "ROI_norm": -0.65221330607991623, "Pred": 0 }, "geometry": { "type": "LineString", "coordinates": [ [ 144.830722670537966, -37.670406916655985 ], [ 144.83063596077767, -37.670544115143144 ] ] } },
{ "type": "Feature", "properties": { "gid": 157, "osm_id": null, "code": null, "fclass": "primary", "name": null, "pixel_count": 50, "Var_line": 144.29045104980469, "Edge_contrast": 23.844930648803711, "ROI": 4408.666666666667, "Road_detected": -1, "ROI_norm": -0.67424494929124124, "Pred": 0 }, "geometry": { "type": "LineString", "coordinates": [ [ 144.799803882847357, -37.698006409364318 ], [ 144.79951613382201, -37.697868608473584 ] ] } },
{ "type": "Feature", "properties": { "gid": 158, "osm_id": null, "code": null, "fclass": "primary", "name": null, "pixel_count": 30, "Var_line": 76.907691955566406, "Edge_contrast": 29.836929321289062, "ROI": 3833.8333333333326, "Road_detected": -1, "ROI_norm": -0.72840541788415702, "Pred": 0 }, "geometry": { "type": "LineString", "coordinates": [ [ 144.830751522533319, -37.670384070585548 ], [ 144.830751573721528, -37.670361183811437 ] ] } },
{ "type": "Feature", "properties": { "gid": 159, "osm_id": null, "code": null, "fclass": "primary", "name": null, "pixel_count": 30, "Var_line": 82.117515563964844, "Edge_contrast": 9.8321170806884766, "ROI": 2998.5, "Road_detected": -1, "ROI_norm": -0.807110047802305, "Pred": 0 }, "geometry": { "type": "LineString", "coordinates": [ [ 144.830751522533319, -37.670384070585548 ], [ 144.830722721734901, -37.670384029882023 ] ] } },
{ "type": "Feature", "properties": { "gid": 160, "osm_id": null, "code": null, "fclass": "primary", "name": null, "pixel_count": 30, "Var_line": 76.907691955566406, "Edge_contrast": 29.836929321289062, "ROI": 3833.8333333333326, "Road_detected": -1, "ROI_norm": -0.72840541788415702, "Pred": 0 }, "geometry": { "type": "LineString", "coordinates": [ [ 144.830751522533319, -37.670384070585548 ], [ 144.830751573721528, -37.670361183811437 ] ] } },
{ "type": "Feature", "properties": { "gid": 161, "osm_id": null, "code": null, "fclass": "primary", "name": null, "pixel_count": 38, "Var_line": 68.53277587890625, "Edge_contrast": 17.400524139404297, "ROI": 1773.6666666666665, "Road_detected": -1, "ROI_norm": -0.92251314542171259, "Pred": 0 }, "geometry": { "type": "LineString", "coordinates": [ [ 144.831298227480119, -37.670613710369736 ], [ 144.83126952865743, -37.670567896252678 ] ] } },
{ "type": "Feature", "properties": { "gid": 166, "osm_id": null, "code": null, "fclass": "tertiary", "name": null, "pixel_count": 58, "Var_line": 105.12324523925781, "Edge_contrast": 44.686687469482422, "ROI": 4625.6666666666661, "Road_detected": -1, "ROI_norm": -0.65379933313932015, "Pred": 0 }, "geometry": { "type": "LineString", "coordinates": [ [ 144.831269324530467, -37.670659443341904 ], [ 144.831289255905205, -37.670600823882253 ], [ 144.831240778829198, -37.670544968900934 ] ] } },
{ "type": "Feature", "properties": { "gid": 168, "osm_id": null, "code": null, "fclass": "tertiary", "name": null, "pixel_count": 50, "Var_line": 0.0, "Edge_contrast": 23.435125350952148, "ROI": 1900.6666666666665, "Road_detected": -1, "ROI_norm": -0.91054727790422874, "Pred": 0 }, "geometry": { "type": "LineString", "coordinates": [ [ 144.841826869915792, -37.690379347510763 ], [ 144.841567258661627, -37.690539211140589 ] ] } },
{ "type": "Feature", "properties": { "gid": 173, "osm_id": null, "code": null, "fclass": "tertiary", "name": null, "pixel_count": 92, "Var_line": 92.602310180664062, "Edge_contrast": 10.541454315185547, "ROI": 3601.6666666666665, "Road_detected": -1, "ROI_norm": -0.75028002871336286, "Pred": 0 }, "geometry": { "type": "LineString", "coordinates": [ [ 144.832882731157241, -37.670409950202469 ], [ 144.832899102180704, -37.670332729940995 ], [ 144.832744715317716, -37.670143697950749 ], [ 144.832768387750122, -37.670020714198841 ] ] } },
{ "type": "Feature", "properties": { "gid": 207, "osm_id": null, "code": null, "fclass": "unclassified", "name": null, "pixel_count": 125, "Var_line": 33.839401245117188, "Edge_contrast": 5.6314034461975098, "ROI": 8242.6666666666642, "Road_detected": -1, "ROI_norm": -0.31300765746421055, "Pred": 0 }, "geometry": { "type": "LineString", "coordinates": [ [ 144.813066401457405, -37.65928051252979 ], [ 144.812918409000019, -37.660902393430412 ], [ 144.812854481367935, -37.661279927946076 ], [ 144.812745854349231, -37.661537236109304 ], [ 144.812252433103083, -37.662368975490416 ] ] } },
{ "type": "Feature", "properties": { "gid": 223, "osm_id": null, "code": null, "fclass": "unclassified", "name": null, "pixel_count": 167, "Var_line": 2.817436695098877, "Edge_contrast": 7.167149543762207, "ROI": 7990.9999999999991, "Road_detected": -1, "ROI_norm": -0.33671954716421115, "Pred": 0 }, "geometry": { "type": "LineString", "coordinates": [ [ 144.821265586156585, -37.662611636201355 ], [ 144.820909311110853, -37.662569621386716 ], [ 144.820828246128372, -37.662599539205836 ], [ 144.820757814268973, -37.662699564067559 ], [ 144.820571012849513, -37.664055333778514 ], [ 144.820575964891503, -37.664244158156244 ], [ 144.820656438518199, -37.664464565132576 ] ] } }
]
}
