{
"type": "FeatureCollection",
"crs": { "type": "name", "properties": { "name": "urn:ogc:def:crs:OGC:1.3:CRS84" } },
"features": [
{ "type": "Feature", "properties": { "gid": 6, "fclass": "residential", "length": 265.13781010955154, "status": "disappeared" }, "geometry": { "type": "LineString", "coordinates": [ [ 144.831009809738418, -37.67079639850882 ], [ 144.831279668800505, -37.670864009073448 ], [ 144.833975504902213, -37.671166735803837 ] ] } },
{ "type": "Feature", "properties": { "gid": 10, "fclass": "residential", "length": 401.20850443387138, "status": "disappeared" }, "geometry": { "type": "LineString", "coordinates": [ [ 144.818260774941649, -37.654711115440627 ], [ 144.818206599112841, -37.654788276775257 ], [ 144.818197270876936, -37.654925584515674 ], [ 144.81806314542203, -37.655320181231744 ], [ 144.818078806294778, -37.655543353071813 ], [ 144.817884421491982, -37.656298327765327 ], [ 144.817824163282694, -37.656658705887125 ], [ 144.817820132445007, -37.657585621832631 ], [ 144.81778192453757, -37.657757215899217 ], [ 144.817682524847584, -37.657928716791915 ], [ 144.817618740688374, -37.658257619664752 ] ] } },
{ "type": "Feature", "properties": { "gid": 24, "fclass": "residential", "length": 335.64442486757827, "status": "disappeared" }, "geometry": { "type": "LineString", "coordinates": [ [ 144.831298254602359, -37.657682612313607 ], [ 144.831755377844729, -37.658498603065212 ], [ 144.831918702397246, -37.658703384506403 ], [ 144.832350185103195, -37.658912832739055 ], [ 144.832544428108122, -37.658973182752383 ], [ 144.834000858933138, -37.659608892709571 ] ] } },
{ "type": "Feature", "properties": { "gid": 61, "fclass": "residential", "length": 84.503365279067594, "status": "disappeared" }, "geometry": { "type": "LineString", "coordinates": [ [ 144.831846801706661, -37.657042549083769 ], [ 144.831724171822913, -37.6571539507407 ], [ 144.831550785985456, -37.657428350446573 ], [ 144.831298305616627, -37.657659725431209 ] ] } },
{ "type": "Feature", "properties": { "gid": 62, "fclass": "residential", "length": 221.16293275104118, "status": "disappeared" }, "geometry": { "type": "LineString", "coordinates": [ [ 144.825834119051422, -37.667104199222713 ], [ 144.825788366941254, -37.666649255967727 ], [ 144.825725562662228, -37.66656476921866 ], [ 144.825490180368433, -37.666385622693575 ], [ 144.825379058475306, -37.666179478765308 ], [ 144.825375696226189, -37.666076482880086 ], [ 144.825484128482969, -37.665887824127751 ], [ 144.825830507599335, -37.665545025054755 ], [ 144.825953317663561, -37.665364969336721 ] ] } },
{ "type": "Feature", "properties": { "gid": 90, "fclass": "trunk", "length": 33.896904178068858, "status": "disappeared" }, "geometry": { "type": "LineString", "coordinates": [ [ 144.833004399274841, -37.667480602123547 ], [ 144.833378946482384, -37.667412463196165 ] ] } },
{ "type": "Feature", "properties": { "gid": 110, "fclass": "primary", "length": 23.007088326120304, "status": "disappeared" }, "geometry": { "type": "LineString", "coordinates": [ [ 144.810592073683694, -37.658406920157404 ], [ 144.810851296945799, -37.658384442942946 ] ] } },
{ "type": "Feature", "properties": { "gid": 111, "fclass": "primary", "length": 27.363290928519078, "status": "disappeared" }, "geometry": { "type": "LineString", "coordinates": [ [ 144.82688499457106, -37.686124649143977 ], [ 144.826596716865822, -37.686215779046989 ] ] } },
{ "type": "Feature", "properties": { "gid": 120, "fclass": "tertiary", "length": 28.142547663960098, "status": "disappeared" }, "geometry": { "type": "LineString", "coordinates": [ [ 144.833061897689078, -37.667526456025648 ], [ 144.833143177579814, -37.667399261079645 ], [ 144.833263899086262, -37.667343642465262 ] ] } },
{ "type": "Feature", "properties": { "gid": 132, "fclass": "tertiary", "length": 23.423938892647172, "status": "disappeared" }, "geometry": { "type": "LineString", "coordinates": [ [ 144.810851354143637, -37.658361556075725 ], [ 144.810592073683694, -37.658406920157404 ] ] } },
{ "type": "Feature", "properties": { "gid": 138, "fclass": "tertiary", "length": 34.871344011899367, "status": "disappeared" }, "geometry": { "type": "LineString", "coordinates": [ [ 144.826942712850069, -37.686078959115065 ], [ 144.826845342677899, -37.686143187289112 ], [ 144.826715669507735, -37.686161595235006 ], [ 144.826596716865822, -37.686215779046989 ] ] } }
]
}
