{
"type": "FeatureCollection",
"crs": { "type": "name", "properties": { "name": "urn:ogc:def:crs:OGC:1.3:CRS84" } },
"features": [
{ "type": "Feature", "properties": { "gid": 2373, "osm_id": "47108359", "code": 5122.0, "fclass": "residential", "name": "Pascoe Vale Road", "pixel_count": 50, "Var_line": 55.743606567382812, "Edge_contrast": 27.357660293579102, "ROI": 6179.5, "Road_detected": -1, "ROI_norm": -0.50467322395265624, "Pred": 0 }, "geometry": { "type": "LineString", "coordinates": [ [ 144.924484740070056, -37.660564766176364 ], [ 144.924649740102268, -37.6605997661649 ] ] } },
{ "type": "Feature", "properties": { "gid": 2394, "osm_id": "196467131", "code": 5122.0, "fclass": "residential", "name": "Kraft Court", "pixel_count": 100, "Var_line": 12.108587265014648, "Edge_contrast": 38.064525604248047, "ROI": 10940.833333333336, "Road_detected": -1, "ROI_norm": -0.052263123393694599, "Pred": 0 }, "geometry": { "type": "LineString", "coordinates": [ [ 144.928858042659186, -37.677555365772463 ], [ 144.926144842153832, -37.677216765959578 ], [ 144.924318441813625, -37.676988766085536 ], [ 144.924082641760663, -37.676875466102345 ] ] } },
{ "type": "Feature", "properties": { "gid": 2395, "osm_id": "196468301", "code": 5122.0, "fclass": "residential", "name": "Bradman Drive", "pixel_count": 163, "Var_line": 49.140228271484375, "Edge_contrast": 23.607641220092773, "ROI": 10351.166666666668, "Road_detected": -1, "ROI_norm": -0.10829178958585396, "Pred": 0 }, "geometry": { "type": "LineString", "coordinates": [ [ 144.911246137989224, -37.662469367066862 ], [ 144.911266437994954, -37.662490167065357 ], [ 144.911294838001794, -37.662507867063304 ], [ 144.911345538011773, -37.662519067059769 ], [ 144.911420538025567, -37.662527167054606 ], [ 144.911722838081062, -37.662557667033809 ], [ 144.911927738119033, -37.662581767019653 ], [ 144.911994638131802, -37.662592967015122 ], [ 144.912025138137068, -37.662592967013012 ], [ 144.912055538141971, -37.662589767010957 ], [ 144.912083938145855, -37.662580167009111 ], [ 144.912144838154802, -37.662565667005033 ] ] } },
{ "type": "Feature", "properties": { "gid": 6869, "osm_id": "29202632", "code": 5122.0, "fclass": "residential", "name": "Heather Court", "pixel_count": 96, "Var_line": 38.417922973632812, "Edge_contrast": 24.549692153930664, "ROI": 16761.333333333336, "Road_detected": -1, "ROI_norm": 0.50078637050929509, "Pred": 0 }, "geometry": { "type": "LineString", "coordinates": [ [ 144.916460542672496, -37.697529166493503 ], [ 144.91877904310897, -37.697857966333466 ], [ 144.920154543361264, -37.697992066238889 ], [ 144.920187243355343, -37.697884866237288 ] ] } },
{ "type": "Feature", "properties": { "gid": 7959, "osm_id": "573325884", "code": 5113.0, "fclass": "primary", "name": "Camp Road", "pixel_count": 50, "Var_line": 56.132583618164062, "Edge_contrast": 43.057125091552734, "ROI": 2293.166666666667, "Road_detected": -1, "ROI_norm": -0.87394299169397049, "Pred": 0 }, "geometry": { "type": "LineString", "coordinates": [ [ 144.920424842041683, -37.685335666299103 ], [ 144.920257042010462, -37.685314866310662 ] ] } },
{ "type": "Feature", "properties": { "gid": 7982, "osm_id": "753354847", "code": 5113.0, "fclass": "primary", "name": "Pascoe Vale Road", "pixel_count": 50, "Var_line": 134.71115112304688, "Edge_contrast": 88.62213134765625, "ROI": 6783.0, "Road_detected": -1, "ROI_norm": -0.44733014868928467, "Pred": 0 }, "geometry": { "type": "LineString", "coordinates": [ [ 144.916924341496639, -37.685891866534249 ], [ 144.916973241484811, -37.685703866532073 ] ] } },
{ "type": "Feature", "properties": { "gid": 8045, "osm_id": "198432459", "code": 5115.0, "fclass": "tertiary", "name": "Pearcedale Parade", "pixel_count": 148, "Var_line": 43.828445434570312, "Edge_contrast": 8.1820030212402344, "ROI": 25003.5, "Road_detected": -1, "ROI_norm": 1.2839366331437922, "Pred": 0 }, "geometry": { "type": "LineString", "coordinates": [ [ 144.916605340904141, -37.680911866586911 ], [ 144.916678640907122, -37.680821966582513 ], [ 144.917149540927056, -37.680252366553958 ], [ 144.91754144094358, -37.679778266530199 ], [ 144.918296240974485, -37.678855766484496 ], [ 144.918854640995903, -37.678159766450761 ] ] } },
{ "type": "Feature", "properties": { "gid": 8049, "osm_id": "305663268", "code": 5122.0, "fclass": "residential", "name": null, "pixel_count": 110, "Var_line": 58.199989318847656, "Edge_contrast": 36.768463134765625, "ROI": 1819.3333333333333, "Road_detected": -1, "ROI_norm": -0.91896546144646019, "Pred": 0 }, "geometry": { "type": "LineString", "coordinates": [ [ 144.93024584503388, -37.697321865554898 ], [ 144.930262645034787, -37.697303465553844 ], [ 144.930286245037507, -37.697290565552322 ], [ 144.93031384504161, -37.697284565550476 ], [ 144.930342445046705, -37.697286165548512 ], [ 144.930365945051619, -37.697293765546867 ], [ 144.930385545056396, -37.697306565545453 ], [ 144.930399545060595, -37.697323365544392 ], [ 144.930406645063925, -37.697342665543772 ], [ 144.930406345066046, -37.69736276554368 ], [ 144.930396645066736, -37.697384565544212 ], [ 144.930378245065469, -37.697402465545345 ], [ 144.930353345062457, -37.69741446554697 ], [ 144.930324745058016, -37.697419065548885 ], [ 144.930295845052655, -37.697415765550886 ], [ 144.930270045047024, -37.697404965552749 ], [ 144.930250445041793, -37.697387865554184 ], [ 144.930239145037604, -37.697366565555043 ], [ 144.930237645034822, -37.697343565555308 ], [ 144.93024584503388, -37.697321865554898 ] ] } },
{ "type": "Feature", "properties": { "gid": 20902, "osm_id": "198430632", "code": 5113.0, "fclass": "primary", "name": "Dimboola Road", "pixel_count": 173, "Var_line": 58.77496337890625, "Edge_contrast": 22.787025451660156, "ROI": 16380.833333333334, "Road_detected": -1, "ROI_norm": 0.46463220292402091, "Pred": 0 }, "geometry": { "type": "LineString", "coordinates": [ [ 144.915537640859753, -37.682210666651628 ], [ 144.915649940886027, -37.682274266643581 ], [ 144.916037040974032, -37.68246986661601 ], [ 144.916472141073029, -37.682690166585004 ], [ 144.917236541246865, -37.68307716653046 ], [ 144.917453641296163, -37.683185866514982 ], [ 144.917667041344544, -37.683292766499775 ] ] } },
{ "type": "Feature", "properties": { "gid": 20954, "osm_id": "242674990", "code": 5122.0, "fclass": "residential", "name": "Opera Boulevard", "pixel_count": 113, "Var_line": 17.544105529785156, "Edge_contrast": 11.81733512878418, "ROI": 7763.0, "Road_detected": -1, "ROI_norm": -0.35421297593351975, "Pred": 0 }, "geometry": { "type": "LineString", "coordinates": [ [ 144.924156940201186, -37.66230536618788 ], [ 144.92401074017053, -37.662255066198163 ], [ 144.923894740140156, -37.662159066206684 ], [ 144.923846440127477, -37.662119066210209 ], [ 144.923592640068676, -37.661980166228375 ] ] } },
{ "type": "Feature", "properties": { "gid": 20956, "osm_id": "242675000", "code": 5122.0, "fclass": "residential", "name": "Verdi Street", "pixel_count": 182, "Var_line": 44.101211547851562, "Edge_contrast": 14.465327262878418, "ROI": 10299.0, "Road_detected": -1, "ROI_norm": -0.11324853704717286, "Pred": 0 }, "geometry": { "type": "LineString", "coordinates": [ [ 144.924344240379071, -37.663654166166758 ], [ 144.924435440348304, -37.663222766163187 ], [ 144.92444104034638, -37.663196266162956 ], [ 144.924443740345396, -37.663182966162893 ], [ 144.924522740312455, -37.66275116616017 ], [ 144.924546440302578, -37.662621466159365 ], [ 144.924559540292705, -37.662509166159147 ], [ 144.924580040283814, -37.662393866158496 ], [ 144.924563240276655, -37.662354066159821 ], [ 144.924540140270551, -37.662334866161572 ] ] } },
{ "type": "Feature", "properties": { "gid": 21583, "osm_id": "585064455", "code": 5122.0, "fclass": "residential", "name": "Opera Boulevard", "pixel_count": 50, "Var_line": 65.923980712890625, "Edge_contrast": 14.491147994995117, "ROI": 7781.6666666666661, "Road_detected": -1, "ROI_norm": -0.35243931550007668, "Pred": 0 }, "geometry": { "type": "LineString", "coordinates": [ [ 144.923411140028321, -37.661896766241284 ], [ 144.923592640068676, -37.661980166228375 ] ] } },
{ "type": "Feature", "properties": { "gid": 21809, "osm_id": "632205524", "code": 5122.0, "fclass": "residential", "name": "Fern Close", "pixel_count": 76, "Var_line": 77.513557434082031, "Edge_contrast": 6.4928469657897949, "ROI": 2756.5, "Road_detected": -1, "ROI_norm": -0.82991820593529242, "Pred": 0 }, "geometry": { "type": "LineString", "coordinates": [ [ 144.919113640656377, -37.674598566455259 ], [ 144.918887440645193, -37.674856666469076 ], [ 144.918836540642332, -37.674911866472186 ], [ 144.918817740642766, -37.674946166473262 ] ] } },
{ "type": "Feature", "properties": { "gid": 21820, "osm_id": "25291117", "code": 5115.0, "fclass": "tertiary", "name": "Dimboola Road", "pixel_count": 71, "Var_line": 36.299076080322266, "Edge_contrast": 36.364067077636719, "ROI": 4538.3333333333339, "Road_detected": -1, "ROI_norm": -0.66061281581082243, "Pred": 0 }, "geometry": { "type": "LineString", "coordinates": [ [ 144.910438739452871, -37.677337167029371 ], [ 144.910155439373881, -37.677058667050382 ], [ 144.910068239352682, -37.677001567056728 ] ] } },
{ "type": "Feature", "properties": { "gid": 21823, "osm_id": "25291160", "code": 5122.0, "fclass": "residential", "name": "Ripplebrook Drive", "pixel_count": 75, "Var_line": 24.024232864379883, "Edge_contrast": 38.627330780029297, "ROI": 5702.0, "Road_detected": -1, "ROI_norm": -0.55004409129028664, "Pred": 0 }, "geometry": { "type": "LineString", "coordinates": [ [ 144.909434439259542, -37.677153767098943 ], [ 144.909691939286461, -37.676990667082407 ], [ 144.909950239314981, -37.676840967065758 ] ] } },
{ "type": "Feature", "properties": { "gid": 21857, "osm_id": "201494362", "code": 5115.0, "fclass": "tertiary", "name": "Kenny Street", "pixel_count": 103, "Var_line": 21.145725250244141, "Edge_contrast": 25.443464279174805, "ROI": 6082.5, "Road_detected": -1, "ROI_norm": -0.51388992370501252, "Pred": 0 }, "geometry": { "type": "LineString", "coordinates": [ [ 144.899429837372907, -37.675689967789381 ], [ 144.899513937388832, -37.675702467783601 ], [ 144.899859537454091, -37.675754067759769 ], [ 144.899964337473023, -37.675761467752551 ], [ 144.900050837484173, -37.675726667746893 ] ] } },
{ "type": "Feature", "properties": { "gid": 21907, "osm_id": "243432044", "code": 5122.0, "fclass": "residential", "name": "Chisholm Avenue", "pixel_count": 113, "Var_line": 62.113975524902344, "Edge_contrast": 38.386325836181641, "ROI": 4432.833333333333, "Road_detected": -1, "ROI_norm": -0.67063716451055033, "Pred": 0 }, "geometry": { "type": "LineString", "coordinates": [ [ 144.898271836582722, -37.67021376790229 ], [ 144.898400736610796, -37.670267267893223 ], [ 144.898456236622849, -37.670290367889244 ], [ 144.898654036665306, -37.670366967875374 ], [ 144.898922936720425, -37.67044776785648 ] ] } },
{ "type": "Feature", "properties": { "gid": 21908, "osm_id": "311895568", "code": 5122.0, "fclass": "residential", "name": "Cob Close", "pixel_count": 338, "Var_line": 64.05816650390625, "Edge_contrast": 4.2503542900085449, "ROI": 14062.000000000002, "Road_detected": -1, "ROI_norm": 0.2443024028303207, "Pred": 0 }, "geometry": { "type": "LineString", "coordinates": [ [ 144.919529240863795, -37.675855066419111 ], [ 144.919136140792006, -37.675819366446156 ], [ 144.918900640750991, -37.675816466462216 ], [ 144.918632340692426, -37.675703266481207 ], [ 144.9184883406582, -37.675616766491537 ], [ 144.918405740646222, -37.675637866497048 ], [ 144.918304440627594, -37.675627366503996 ], [ 144.918251140614302, -37.675589366507872 ], [ 144.918216540603083, -37.675540866510538 ], [ 144.918232540600826, -37.675494466509704 ], [ 144.918299140603011, -37.675407966505723 ], [ 144.918416440612788, -37.675310866498343 ], [ 144.918453740616286, -37.675283466495969 ], [ 144.918517740627806, -37.675287666491599 ], [ 144.918600340645469, -37.675319366485773 ], [ 144.918674940663152, -37.675363666480386 ], [ 144.918682940670436, -37.675418466479471 ], [ 144.918603040665317, -37.675498666484494 ], [ 144.9184883406582, -37.675616766491537 ] ] } },
{ "type": "Feature", "properties": { "gid": 25260, "osm_id": "585064460", "code": 5113.0, "fclass": "primary", "name": "Pascoe Vale Road", "pixel_count": 681, "Var_line": 116.69138336181641, "Edge_contrast": 12.389508247375488, "ROI": 22392.833333333336, "Road_detected": -1, "ROI_norm": 1.035877552523673, "Pred": 0 }, "geometry": { "type": "LineString", "coordinates": [ [ 144.923075539937429, -37.661591066266048 ], [ 144.923242239950866, -37.66144946625559 ], [ 144.923643839987591, -37.661146566230094 ], [ 144.923913540017054, -37.660987966212687 ], [ 144.924349340067721, -37.66076006618438 ], [ 144.924649740102268, -37.6605997661649 ], [ 144.924873640125867, -37.660459666150558 ], [ 144.925270640161273, -37.660152766125371 ], [ 144.925426940173423, -37.660015066115541 ], [ 144.925589040182359, -37.659838466105555 ], [ 144.925842940187067, -37.659475566090542 ], [ 144.925990040184104, -37.659212866082214 ], [ 144.926145240174037, -37.658871366073669 ], [ 144.926350340164674, -37.658456066062271 ], [ 144.926432140159051, -37.658273166057839 ], [ 144.926535740151962, -37.65804166605222 ], [ 144.926712340142416, -37.657670466042447 ], [ 144.926748240140427, -37.657594866040526 ], [ 144.926776640138911, -37.65753516603899 ], [ 144.926838440135526, -37.657404866035542 ], [ 144.926948840132724, -37.657202166029236 ], [ 144.927005640131682, -37.657101766026003 ], [ 144.927046340130914, -37.65702926602367 ], [ 144.927060140130607, -37.657004766022908 ], [ 144.927117840130109, -37.656907566019562 ], [ 144.927176840129789, -37.656809866016168 ], [ 144.927285440129566, -37.656634166009852 ], [ 144.927610540130104, -37.656119165990873 ], [ 144.92791104013088, -37.655645665973331 ], [ 144.928539340132545, -37.654655765936646 ], [ 144.928641640132696, -37.654493465930656 ], [ 144.928740940132826, -37.654335865924928 ], [ 144.928982540133177, -37.65395236591079 ], [ 144.929240240133993, -37.653547365895754 ], [ 144.929994740136266, -37.652361365851647 ], [ 144.930038540136451, -37.652293165849137 ], [ 144.930310140137692, -37.651869865833184 ], [ 144.930342940137592, -37.651816465831281 ], [ 144.930375140137443, -37.651763965829431 ], [ 144.930650140137828, -37.65132776581337 ], [ 144.9309318401383, -37.650880965796951 ], [ 144.931047240137787, -37.650691965790287 ], [ 144.931131740134731, -37.650528465785513 ], [ 144.931237640128955, -37.65030546577966 ], [ 144.931302040122915, -37.650146165776263 ], [ 144.931354340113927, -37.649979465773747 ], [ 144.931403940101035, -37.649780865771568 ], [ 144.931446840085528, -37.649568565769982 ], [ 144.931475040067824, -37.649359365769357 ], [ 144.931488440045968, -37.6491352657699 ], [ 144.93148714002217, -37.648916565771323 ], [ 144.931471039996921, -37.648708465773694 ], [ 144.931440139967748, -37.648487565777167 ], [ 144.931399939939723, -37.648292165781093 ], [ 144.931342239906968, -37.648080865786376 ], [ 144.931275239874253, -37.647884465792167 ], [ 144.931225539852335, -37.647761265796326 ], [ 144.931163939827513, -37.64762956580136 ], [ 144.93109813980152, -37.647493665806685 ], [ 144.931025739775379, -37.647367265812413 ], [ 144.930927539740594, -37.647201865820136 ], [ 144.930904639732461, -37.647163365821967 ], [ 144.930854739715272, -37.647083665825853 ], [ 144.930571639617511, -37.646630765847966 ], [ 144.929740139330477, -37.645300265912958 ], [ 144.929205839146135, -37.644446065954725 ], [ 144.929100439109533, -37.644275565962978 ], [ 144.929006039075261, -37.644108465970447 ], [ 144.928944339052009, -37.643991565975398 ], [ 144.928928939045818, -37.643959065976652 ], [ 144.928874639024031, -37.643843965981063 ] ] } },
{ "type": "Feature", "properties": { "gid": 25330, "osm_id": "33910726", "code": 5115.0, "fclass": "tertiary", "name": "Thorpdale Avenue", "pixel_count": 125, "Var_line": 18.497106552124023, "Edge_contrast": 25.405296325683594, "ROI": 16469.833333333332, "Road_detected": -1, "ROI_norm": 0.47308876249061571, "Pred": 0 }, "geometry": { "type": "LineString", "coordinates": [ [ 144.929153640303866, -37.65526086589103 ], [ 144.930347040523117, -37.655383065808813 ], [ 144.930632440575891, -37.655415765789151 ], [ 144.931295340695357, -37.655462065743635 ], [ 144.931586940748304, -37.655486265723596 ], [ 144.932199940859675, -37.655537165681473 ], [ 144.932227040864547, -37.655539365679601 ], [ 144.932294840876864, -37.655544765674954 ], [ 144.932345640885018, -37.655539365671515 ], [ 144.933160741005508, -37.655352165617053 ], [ 144.933651941077159, -37.655230165584307 ], [ 144.934433541193954, -37.655062165532037 ], [ 144.934591941218798, -37.655038765521383 ] ] } },
{ "type": "Feature", "properties": { "gid": 25368, "osm_id": "185058181", "code": 5122.0, "fclass": "residential", "name": "Shelbourne Court", "pixel_count": 75, "Var_line": 60.848613739013672, "Edge_contrast": 23.003435134887695, "ROI": 8524.0, "Road_detected": -1, "ROI_norm": -0.28190464076297161, "Pred": 0 }, "geometry": { "type": "LineString", "coordinates": [ [ 144.924615139916511, -37.658933166177633 ], [ 144.924926539985563, -37.659074566155518 ], [ 144.925738940158453, -37.65937696609825 ] ] } },
{ "type": "Feature", "properties": { "gid": 61600, "osm_id": "571085797", "code": 5113.0, "fclass": "primary", "name": "Camp Road", "pixel_count": 50, "Var_line": 53.785545349121094, "Edge_contrast": 9.4571018218994141, "ROI": 7986.666666666667, "Road_detected": -1, "ROI_norm": -0.33296072323994208, "Pred": 0 }, "geometry": { "type": "LineString", "coordinates": [ [ 144.919351641839086, -37.685177166373222 ], [ 144.919942941951973, -37.685275966332348 ] ] } },
{ "type": "Feature", "properties": { "gid": 61621, "osm_id": "17368412", "code": 5113.0, "fclass": "primary", "name": "Johnstone Street", "pixel_count": 50, "Var_line": 85.942863464355469, "Edge_contrast": 17.42474365234375, "ROI": 3258.6666666666674, "Road_detected": -1, "ROI_norm": -0.78220357302489785, "Pred": 0 }, "geometry": { "type": "LineString", "coordinates": [ [ 144.90383253871903, -37.681118867455844 ], [ 144.903466238651021, -37.681075667481068 ] ] } },
{ "type": "Feature", "properties": { "gid": 61675, "osm_id": "28010404", "code": 5115.0, "fclass": "tertiary", "name": "Graham Street", "pixel_count": 175, "Var_line": 32.829605102539062, "Edge_contrast": 39.012371063232422, "ROI": 20250.833333333336, "Road_detected": -1, "ROI_norm": 0.83235001778607254, "Pred": 0 }, "geometry": { "type": "LineString", "coordinates": [ [ 144.916556041940225, -37.690591866530134 ], [ 144.917653742137901, -37.690665166454856 ], [ 144.918795342344794, -37.690753466376492 ], [ 144.919481942471549, -37.690828166329212 ], [ 144.919915942552365, -37.690881566299318 ], [ 144.920961642747329, -37.691012966227177 ], [ 144.921884542918775, -37.691123266163622 ] ] } },
{ "type": "Feature", "properties": { "gid": 61721, "osm_id": "179122753", "code": 5113.0, "fclass": "primary", "name": "Dimboola Road", "pixel_count": 94, "Var_line": 65.353271484375, "Edge_contrast": 4.558441162109375, "ROI": 8893.3333333333321, "Road_detected": -1, "ROI_norm": -0.24681150218698958, "Pred": 0 }, "geometry": { "type": "LineString", "coordinates": [ [ 144.917667041344544, -37.683292766499775 ], [ 144.918155541455633, -37.683539666464917 ], [ 144.918247941476352, -37.683583766458376 ], [ 144.918364741509833, -37.68370676644966 ] ] } },
{ "type": "Feature", "properties": { "gid": 61724, "osm_id": "186980791", "code": 5115.0, "fclass": "tertiary", "name": "Dimboola Road", "pixel_count": 175, "Var_line": 35.368316650390625, "Edge_contrast": 37.48651123046875, "ROI": 20041.833333333332, "Road_detected": -1, "ROI_norm": 0.81249135543305695, "Pred": 0 }, "geometry": { "type": "LineString", "coordinates": [ [ 144.912296139967765, -37.679135166891648 ], [ 144.911915039876504, -37.678899566919092 ], [ 144.911362039746621, -37.678581166958764 ], [ 144.911123439683706, -37.678380366976242 ], [ 144.910869039598396, -37.677996766995975 ], [ 144.910581939502976, -37.677572267018157 ], [ 144.910438739452871, -37.677337167029371 ] ] } },
{ "type": "Feature", "properties": { "gid": 61747, "osm_id": "187875135", "code": 5122.0, "fclass": "residential", "name": "Gerbert Street", "pixel_count": 50, "Var_line": 52.030143737792969, "Edge_contrast": 35.995185852050781, "ROI": 3404.3333333333335, "Road_detected": -1, "ROI_norm": -0.76836268714249334, "Pred": 0 }, "geometry": { "type": "LineString", "coordinates": [ [ 144.931011044118605, -37.687624465562983 ], [ 144.930849844091483, -37.687631365573928 ] ] } },
{ "type": "Feature", "properties": { "gid": 61756, "osm_id": "196467625", "code": 5115.0, "fclass": "tertiary", "name": null, "pixel_count": 109, "Var_line": 34.808803558349609, "Edge_contrast": 34.028079986572266, "ROI": 5697.5, "Road_detected": -1, "ROI_norm": -0.55047167014477738, "Pred": 0 }, "geometry": { "type": "LineString", "coordinates": [ [ 144.898910937496112, -37.677665167812449 ], [ 144.898895137490541, -37.677638867813691 ], [ 144.898893537487737, -37.677615067813939 ], [ 144.898898137486896, -37.67759986781374 ], [ 144.898913137487227, -37.677579267812852 ], [ 144.898934237489357, -37.677564867811483 ], [ 144.898971637494753, -37.677555067808981 ], [ 144.899007437501325, -37.677558367806533 ], [ 144.899040537508768, -37.677574567804164 ], [ 144.899058037513925, -37.677594267802924 ], [ 144.899065437517322, -37.677614067802232 ], [ 144.899061237520044, -37.677646167802337 ], [ 144.899037737518995, -37.677674167803751 ], [ 144.899012337515984, -37.677686867805463 ], [ 144.898992437513044, -37.677691167806735 ], [ 144.898948837505088, -37.677687467809704 ], [ 144.898923037499316, -37.677675267811544 ], [ 144.898910937496112, -37.677665167812449 ] ] } },
{ "type": "Feature", "properties": { "gid": 61770, "osm_id": "202379025", "code": 5121.0, "fclass": "unclassified", "name": "Tanderrum Way", "pixel_count": 455, "Var_line": 15.450111389160156, "Edge_contrast": 3.9503734111785889, "ROI": 10111.833333333334, "Road_detected": -1, "ROI_norm": -0.1310326501432143, "Pred": 0 }, "geometry": { "type": "LineString", "coordinates": [ [ 144.91405994049893, -37.681233466758414 ], [ 144.914103640499832, -37.681171566755822 ], [ 144.914354940530586, -37.681054366739431 ], [ 144.914483540544552, -37.680977466731136 ], [ 144.914554340551632, -37.680929766726614 ], [ 144.914772840573477, -37.680782466712657 ], [ 144.91482554057913, -37.680750066709265 ], [ 144.914905740588836, -37.680711466704018 ], [ 144.914984440598801, -37.680678166698861 ], [ 144.915092940613363, -37.680638766691736 ], [ 144.915223640631496, -37.680598066683075 ], [ 144.915337240649137, -37.680579566675426 ], [ 144.915435640665208, -37.680570666668785 ], [ 144.915551140684443, -37.680563966660969 ], [ 144.915687640708569, -37.680568666651624 ], [ 144.91580404073008, -37.680581966643608 ], [ 144.91591184075088, -37.68060216663612 ], [ 144.916026440773891, -37.68063166662818 ], [ 144.916121240794183, -37.680668066621472 ], [ 144.916230340818316, -37.680716766613727 ], [ 144.916522140885093, -37.680868566592899 ], [ 144.916605340904141, -37.680911866586911 ] ] } },
{ "type": "Feature", "properties": { "gid": 61771, "osm_id": "202379027", "code": 5121.0, "fclass": "unclassified", "name": "Tanderrum Way", "pixel_count": 438, "Var_line": 17.80036735534668, "Edge_contrast": 2.2213435173034668, "ROI": 11207.333333333332, "Road_detected": -1, "ROI_norm": -0.026940953455520084, "Pred": 0 }, "geometry": { "type": "LineString", "coordinates": [ [ 144.916563540902445, -37.680963066589477 ], [ 144.916193240816995, -37.680764066615957 ], [ 144.916088640793873, -37.680717366623369 ], [ 144.916000140774912, -37.680683466629631 ], [ 144.915892840753401, -37.68065586663711 ], [ 144.915790840733735, -37.680636766644135 ], [ 144.915681040713366, -37.680624166651732 ], [ 144.915552140690636, -37.680619766660527 ], [ 144.915442240672292, -37.680626066667983 ], [ 144.915348340657033, -37.6806345666743 ], [ 144.915243740640733, -37.680651566681362 ], [ 144.91512044062361, -37.680689966689521 ], [ 144.915015740609618, -37.680727966696423 ], [ 144.914940640600094, -37.680759866701344 ], [ 144.914865540590995, -37.680795966706235 ], [ 144.914817240585847, -37.680825666709318 ], [ 144.914599940564074, -37.680972166723258 ], [ 144.914527540556861, -37.681020966727878 ], [ 144.914396140542578, -37.681099466736342 ], [ 144.914209740520107, -37.681189766748503 ], [ 144.914145940512441, -37.681220666752665 ], [ 144.91405994049893, -37.681233466758414 ] ] } },
{ "type": "Feature", "properties": { "gid": 61781, "osm_id": "674564086", "code": 5111.0, "fclass": "motorway", "name": "Western Ring Road", "pixel_count": 225, "Var_line": 26.77012825012207, "Edge_contrast": 27.61552619934082, "ROI": 21375.666666666668, "Road_detected": -1, "ROI_norm": 0.93922889515489172, "Pred": 0 }, "geometry": { "type": "LineString", "coordinates": [ [ 144.906379840520088, -37.693736667203915 ], [ 144.90600394045444, -37.693730667229531 ], [ 144.90554584037713, -37.693748167260679 ], [ 144.905207840321566, -37.693774967283495 ], [ 144.904803140257229, -37.693827167310744 ], [ 144.904432040201954, -37.693909667335504 ], [ 144.904082640151813, -37.694005267358698 ], [ 144.903618940085636, -37.694134867389479 ], [ 144.903140740023275, -37.694323367420878 ] ] } },
{ "type": "Feature", "properties": { "gid": 79554, "osm_id": "187784272", "code": 5122.0, "fclass": "residential", "name": "Walsh Street", "pixel_count": 50, "Var_line": 81.469894409179688, "Edge_contrast": 39.82965087890625, "ROI": 2637.5, "Road_detected": -1, "ROI_norm": -0.84122529119849243, "Pred": 0 }, "geometry": { "type": "LineString", "coordinates": [ [ 144.922701442756676, -37.688313766125418 ], [ 144.922710442770267, -37.688424866124073 ] ] } },
{ "type": "Feature", "properties": { "gid": 79558, "osm_id": "187875147", "code": 5122.0, "fclass": "residential", "name": "Gerbert Street", "pixel_count": 50, "Var_line": 53.091941833496094, "Edge_contrast": 33.482818603515625, "ROI": 1597.8333333333335, "Road_detected": -1, "ROI_norm": -0.94001184283972739, "Pred": 0 }, "geometry": { "type": "LineString", "coordinates": [ [ 144.930730444068558, -37.687610165582193 ], [ 144.930589244039879, -37.68757056559209 ] ] } },
{ "type": "Feature", "properties": { "gid": 81032, "osm_id": "761355982", "code": 5113.0, "fclass": "primary", "name": "Broadmeadows Road Deviation", "pixel_count": 45, "Var_line": 34.888221740722656, "Edge_contrast": 1.7200379371643066, "ROI": 2390.5, "Road_detected": -1, "ROI_norm": -0.86469461943387405, "Pred": 0 }, "geometry": { "type": "LineString", "coordinates": [ [ 144.892834036803947, -37.680988368205426 ], [ 144.892702436780297, -37.680979768214442 ] ] } },
{ "type": "Feature", "properties": { "gid": 81141, "osm_id": "173110035", "code": 5115.0, "fclass": "tertiary", "name": null, "pixel_count": 110, "Var_line": 33.437450408935547, "Edge_contrast": 37.358428955078125, "ROI": 4995.1666666666661, "Road_detected": -1, "ROI_norm": -0.61720564395307564, "Pred": 0 }, "geometry": { "type": "LineString", "coordinates": [ [ 144.895071438455119, -37.69272056798021 ], [ 144.895071338451345, -37.692685867980437 ], [ 144.895091038451568, -37.692656267979288 ], [ 144.895119938454712, -37.692639067977431 ], [ 144.895155138460098, -37.692632467975066 ], [ 144.895188938466418, -37.692636867972745 ], [ 144.895220038473497, -37.692652367970524 ], [ 144.895238138478788, -37.692672167969143 ], [ 144.895246438482644, -37.692695067968479 ], [ 144.895244338484986, -37.69272026796844 ], [ 144.895230538485151, -37.692743867969241 ], [ 144.895206738482983, -37.69276196797076 ], [ 144.895179238479216, -37.692771467972541 ], [ 144.89514253847301, -37.692772467975054 ], [ 144.895106538465512, -37.692760667977559 ], [ 144.895084438459776, -37.692742967979179 ], [ 144.895071438455119, -37.69272056798021 ] ] } },
{ "type": "Feature", "properties": { "gid": 81173, "osm_id": "245398976", "code": 5122.0, "fclass": "residential", "name": "Lyndhurst Road", "pixel_count": 50, "Var_line": 53.169940948486328, "Edge_contrast": 33.225471496582031, "ROI": 6742.0, "Road_detected": -1, "ROI_norm": -0.45122586714131158, "Pred": 0 }, "geometry": { "type": "LineString", "coordinates": [ [ 144.891131836593132, -37.681762468316471 ], [ 144.891388636720279, -37.682530368294245 ] ] } },
{ "type": "Feature", "properties": { "gid": 88633, "osm_id": "334483481", "code": 5122.0, "fclass": "residential", "name": "The Crest", "pixel_count": 50, "Var_line": 55.870445251464844, "Edge_contrast": 23.643518447875977, "ROI": 5141.0000000000009, "Road_detected": -1, "ROI_norm": -0.603348921816801, "Pred": 0 }, "geometry": { "type": "LineString", "coordinates": [ [ 144.888118935116836, -37.672890668576635 ], [ 144.888413035192229, -37.673118668555212 ] ] } },
{ "type": "Feature", "properties": { "gid": 163029, "osm_id": "17368660", "code": 5113.0, "fclass": "primary", "name": "Broadmeadows Road Deviation", "pixel_count": 100, "Var_line": 51.171066284179688, "Edge_contrast": 23.327043533325195, "ROI": 8730.6666666666661, "Road_detected": -1, "ROI_norm": -0.26226768596413691, "Pred": 0 }, "geometry": { "type": "LineString", "coordinates": [ [ 144.900156138053035, -37.680835567707938 ], [ 144.899848238000772, -37.680844167728864 ], [ 144.899666937969982, -37.680849167741187 ], [ 144.899455237931676, -37.680833567755734 ] ] } },
{ "type": "Feature", "properties": { "gid": 163032, "osm_id": "25291101", "code": 5115.0, "fclass": "tertiary", "name": "Dimboola Road", "pixel_count": 125, "Var_line": 33.817466735839844, "Edge_contrast": 31.366851806640625, "ROI": 9821.5, "Road_detected": -1, "ROI_norm": -0.1586194043848034, "Pred": 0 }, "geometry": { "type": "LineString", "coordinates": [ [ 144.913947440457292, -37.681027566767334 ], [ 144.913382740256196, -37.680067966811862 ], [ 144.913108040171352, -37.67972156683269 ], [ 144.912807640089341, -37.679442966854886 ], [ 144.912555840027153, -37.679269566873117 ] ] } },
{ "type": "Feature", "properties": { "gid": 163109, "osm_id": "798006337", "code": 5113.0, "fclass": "primary", "name": "Johnstone Street", "pixel_count": 75, "Var_line": 38.289344787597656, "Edge_contrast": 15.376535415649414, "ROI": 7352.6666666666679, "Road_detected": -1, "ROI_norm": -0.39320183296152866, "Pred": 0 }, "geometry": { "type": "LineString", "coordinates": [ [ 144.908590239591177, -37.681581567128909 ], [ 144.90920063970654, -37.68167306708672 ], [ 144.909445839752891, -37.681709767069826 ] ] } },
{ "type": "Feature", "properties": { "gid": 165508, "osm_id": "187784266", "code": 5122.0, "fclass": "residential", "name": "Jacana Avenue", "pixel_count": 50, "Var_line": 55.747344970703125, "Edge_contrast": 21.767246246337891, "ROI": 1736.8333333333333, "Road_detected": -1, "ROI_norm": -0.92680440711212397, "Pred": 0 }, "geometry": { "type": "LineString", "coordinates": [ [ 144.923975243003895, -37.688564466036965 ], [ 144.924137843037357, -37.688613566025573 ] ] } },
{ "type": "Feature", "properties": { "gid": 165514, "osm_id": "187875108", "code": 5115.0, "fclass": "tertiary", "name": "Graham Street", "pixel_count": 100, "Var_line": 44.571857452392578, "Edge_contrast": 28.250192642211914, "ROI": 10789.833333333334, "Road_detected": -1, "ROI_norm": -0.066610769399940192, "Pred": 0 }, "geometry": { "type": "LineString", "coordinates": [ [ 144.922266942989779, -37.691168566137257 ], [ 144.923319843185624, -37.691296466064593 ], [ 144.924527043410365, -37.691444965981411 ], [ 144.925455943583273, -37.691559065917403 ] ] } },
{ "type": "Feature", "properties": { "gid": 165521, "osm_id": "187875143", "code": 5122.0, "fclass": "residential", "name": "Holberry Street", "pixel_count": 50, "Var_line": 82.756271362304688, "Edge_contrast": 27.985479354858398, "ROI": 2576.6666666666665, "Road_detected": -1, "ROI_norm": -0.84700552386105277, "Pred": 0 }, "geometry": { "type": "LineString", "coordinates": [ [ 144.930829944068705, -37.687451665576397 ], [ 144.930850844083636, -37.687556965574316 ] ] } },
{ "type": "Feature", "properties": { "gid": 172839, "osm_id": "33910766", "code": 5122.0, "fclass": "residential", "name": "Ventnor Crescent", "pixel_count": 25, "Var_line": 10.681130409240723, "Edge_contrast": 16.52208137512207, "ROI": 4735.166666666667, "Road_detected": -1, "ROI_norm": -0.6419101999903194, "Pred": 0 }, "geometry": { "type": "LineString", "coordinates": [ [ 144.931295340695357, -37.655462065743635 ], [ 144.931619340635365, -37.654388065728213 ], [ 144.931634140632553, -37.654337965727521 ], [ 144.932331640761703, -37.654419065679434 ], [ 144.932506940794156, -37.654439465667366 ], [ 144.932676940825786, -37.654460565655668 ], [ 144.933496640978291, -37.654562165599096 ], [ 144.933651941077159, -37.655230165584307 ] ] } },
{ "type": "Feature", "properties": { "gid": 186428, "osm_id": "25291143", "code": 5115.0, "fclass": "tertiary", "name": "Riggall Street", "pixel_count": 99, "Var_line": 25.957681655883789, "Edge_contrast": 29.92845344543457, "ROI": 8867.8333333333321, "Road_detected": -1, "ROI_norm": -0.24923444902910388, "Pred": 0 }, "geometry": { "type": "LineString", "coordinates": [ [ 144.920240040856555, -37.674649966378155 ], [ 144.920343840884271, -37.674740466370515 ], [ 144.920518340921973, -37.674810466358167 ], [ 144.921002241018783, -37.674933166324415 ] ] } },
{ "type": "Feature", "properties": { "gid": 186514, "osm_id": "152429848", "code": 5122.0, "fclass": "residential", "name": "Taradale Court", "pixel_count": 58, "Var_line": 67.855323791503906, "Edge_contrast": 28.333526611328125, "ROI": 7753.333333333333, "Road_detected": -1, "ROI_norm": -0.35513147865798139, "Pred": 0 }, "geometry": { "type": "LineString", "coordinates": [ [ 144.926967739878165, -37.654812766042845 ], [ 144.927035439892762, -37.654839566038042 ], [ 144.927945340088769, -37.655200265973747 ], [ 144.928001140100776, -37.65522236596982 ] ] } },
{ "type": "Feature", "properties": { "gid": 186602, "osm_id": "225053963", "code": 5115.0, "fclass": "tertiary", "name": "Barry Road", "pixel_count": 97, "Var_line": 14.126582145690918, "Edge_contrast": 43.382266998291016, "ROI": 4109.6666666666661, "Road_detected": -1, "ROI_norm": -0.70134366076453469, "Pred": 0 }, "geometry": { "type": "LineString", "coordinates": [ [ 144.920226239639959, -37.663395366449073 ], [ 144.920086539612896, -37.663367766458791 ], [ 144.919189939438922, -37.663190666521047 ], [ 144.918998439402117, -37.66315566653428 ] ] } },
{ "type": "Feature", "properties": { "gid": 186614, "osm_id": "242674995", "code": 5122.0, "fclass": "residential", "name": "Soprano Street", "pixel_count": 50, "Var_line": 0.0, "Edge_contrast": 23.382686614990234, "ROI": 4680.5, "Road_detected": -1, "ROI_norm": -0.64710449125968861, "Pred": 0 }, "geometry": { "type": "LineString", "coordinates": [ [ 144.924949740440894, -37.663257866127893 ], [ 144.92444104034638, -37.663196266162956 ] ] } },
{ "type": "Feature", "properties": { "gid": 192663, "osm_id": "569714115", "code": 5115.0, "fclass": "tertiary", "name": "North Circular Road", "pixel_count": 75, "Var_line": 22.011154174804688, "Edge_contrast": 54.298015594482422, "ROI": 5665.666666666667, "Road_detected": -1, "ROI_norm": -0.55349639463395273, "Pred": 0 }, "geometry": { "type": "LineString", "coordinates": [ [ 144.892669236869949, -37.681865068211167 ], [ 144.892404836860067, -37.68219776822712 ], [ 144.89238093686896, -37.682318568227991 ] ] } },
{ "type": "Feature", "properties": { "gid": 192763, "osm_id": "24821074", "code": 5115.0, "fclass": "tertiary", "name": "North Circular Road", "pixel_count": 98, "Var_line": 24.208972930908203, "Edge_contrast": 7.2147345542907715, "ROI": 4957.833333333333, "Road_detected": -1, "ROI_norm": -0.62075296481996189, "Pred": 0 }, "geometry": { "type": "LineString", "coordinates": [ [ 144.891388636720279, -37.682530368294245 ], [ 144.89177693677766, -37.682439968268355 ], [ 144.891982736809297, -37.682403668254544 ], [ 144.892100536822454, -37.682336568246988 ] ] } },
{ "type": "Feature", "properties": { "gid": 192788, "osm_id": "25291158", "code": 5122.0, "fclass": "residential", "name": "Ripplebrook Drive", "pixel_count": 75, "Var_line": 38.584957122802734, "Edge_contrast": 36.315929412841797, "ROI": 3551.333333333333, "Road_detected": -1, "ROI_norm": -0.75439511122912872, "Pred": 0 }, "geometry": { "type": "LineString", "coordinates": [ [ 144.910151539339836, -37.676749267052571 ], [ 144.910387239376576, -37.676712167036783 ], [ 144.910653239415211, -37.676644267019057 ] ] } },
{ "type": "Feature", "properties": { "gid": 192870, "osm_id": "697701977", "code": 5115.0, "fclass": "tertiary", "name": "Raleigh Street", "pixel_count": 73, "Var_line": 33.560211181640625, "Edge_contrast": 10.76933765411377, "ROI": 1999.9999999999998, "Road_detected": -1, "ROI_norm": -0.90179896225134981, "Pred": 0 }, "geometry": { "type": "LineString", "coordinates": [ [ 144.895415136840484, -37.677186968053384 ], [ 144.895321536824241, -37.677186568059845 ], [ 144.895271936816073, -37.677190268063136 ], [ 144.895223036808318, -37.6771965680664 ], [ 144.895162336798961, -37.677207368070462 ] ] } },
{ "type": "Feature", "properties": { "gid": 211575, "osm_id": "58982991", "code": 5115.0, "fclass": "tertiary", "name": null, "pixel_count": 96, "Var_line": 44.980876922607422, "Edge_contrast": 41.415843963623047, "ROI": 4049.1666666666665, "Road_detected": -1, "ROI_norm": -0.70709222091935497, "Pred": 0 }, "geometry": { "type": "LineString", "coordinates": [ [ 144.887974835449739, -37.676212868565777 ], [ 144.888002535454177, -37.676209568563934 ], [ 144.888031935459878, -37.6762154685619 ], [ 144.888054735465289, -37.676229068560239 ], [ 144.888068435469535, -37.676246468559178 ], [ 144.88807093547166, -37.676262368558938 ], [ 144.888073035473525, -37.676276168558701 ], [ 144.888065235474272, -37.676295568559091 ], [ 144.888041535472439, -37.676316768560589 ], [ 144.888018035469287, -37.676325268562117 ], [ 144.88799323546516, -37.676326868563841 ], [ 144.887968235460278, -37.676321668565528 ], [ 144.887944135454603, -37.676307468567309 ], [ 144.88793053545038, -37.676290168568308 ], [ 144.887925235447284, -37.676269968568782 ], [ 144.887928935445757, -37.676249768568653 ], [ 144.887941235445965, -37.676231768567945 ], [ 144.887952335446897, -37.67622286856718 ], [ 144.887974835449739, -37.676212868565777 ] ] } },
{ "type": "Feature", "properties": { "gid": 211617, "osm_id": "59282607", "code": 5122.0, "fclass": "residential", "name": "Alanbrae Terrace", "pixel_count": 78, "Var_line": 37.0196533203125, "Edge_contrast": 22.765623092651367, "ROI": 4233.666666666667, "Road_detected": -1, "ROI_norm": -0.68956148788523375, "Pred": 0 }, "geometry": { "type": "LineString", "coordinates": [ [ 144.891309235519685, -37.671512668368131 ], [ 144.891390635534719, -37.671521668362516 ], [ 144.891480335550227, -37.671521568356489 ], [ 144.891604235569787, -37.671504568348112 ] ] } },
{ "type": "Feature", "properties": { "gid": 211851, "osm_id": "59339614", "code": 5122.0, "fclass": "residential", "name": "Cliveden Court", "pixel_count": 75, "Var_line": 64.163856506347656, "Edge_contrast": 40.904014587402344, "ROI": 3283.8333333333335, "Road_detected": -1, "ROI_norm": -0.7798122986905236, "Pred": 0 }, "geometry": { "type": "LineString", "coordinates": [ [ 144.891202734283553, -37.660204768445688 ], [ 144.891378134315318, -37.660217968433678 ], [ 144.891540634344665, -37.660230268422545 ] ] } },
{ "type": "Feature", "properties": { "gid": 255550, "osm_id": "33810177", "code": 5122.0, "fclass": "residential", "name": "Riggall Street", "pixel_count": 92, "Var_line": 60.850151062011719, "Edge_contrast": 40.248287200927734, "ROI": 2613.5, "Road_detected": -1, "ROI_norm": -0.84350571175577649, "Pred": 0 }, "geometry": { "type": "LineString", "coordinates": [ [ 144.929476342581523, -37.675846665740892 ], [ 144.929575642608171, -37.675934365733561 ], [ 144.929693442634004, -37.675985065725236 ], [ 144.92979464265548, -37.6760219657181 ] ] } },
{ "type": "Feature", "properties": { "gid": 255524, "osm_id": "25686823", "code": 5122.0, "fclass": "residential", "name": "Railway Crescent", "pixel_count": 111, "Var_line": 89.188812255859375, "Edge_contrast": 41.469345092773438, "ROI": 8968.6666666666661, "Road_detected": -1, "ROI_norm": -0.23965351543773686, "Pred": 0 }, "geometry": { "type": "LineString", "coordinates": [ [ 144.920286241998667, -37.685159066309645 ], [ 144.920301441992564, -37.685077766309114 ], [ 144.920413041947569, -37.684482466305212 ], [ 144.920394341936088, -37.684405866306896 ], [ 144.920313741912622, -37.684317966312996 ] ] } },
{ "type": "Feature", "properties": { "gid": 39, "osm_id": null, "code": null, "fclass": "residential", "name": null, "pixel_count": 50, "Var_line": 104.05674743652344, "Edge_contrast": 12.30419921875, "ROI": 9054.1666666666661, "Road_detected": -1, "ROI_norm": -0.23152951720241247, "Pred": 0 }, "geometry": { "type": "LineString", "coordinates": [ [ 144.921522603794244, -37.679312243340704 ], [ 144.921291860434593, -37.679609619563045 ] ] } },
{ "type": "Feature", "properties": { "gid": 237, "osm_id": null, "code": null, "fclass": "residential", "name": null, "pixel_count": 75, "Var_line": 71.494888305664062, "Edge_contrast": 32.794414520263672, "ROI": 8241.8333333333321, "Road_detected": -1, "ROI_norm": -0.30871541856492923, "Pred": 0 }, "geometry": { "type": "LineString", "coordinates": [ [ 144.92077510762465, -37.677961433173969 ], [ 144.921563515997775, -37.678052068642828 ], [ 144.921754363049018, -37.6780307371357 ] ] } },
{ "type": "Feature", "properties": { "gid": 240, "osm_id": null, "code": null, "fclass": "residential", "name": null, "pixel_count": 75, "Var_line": 76.645828247070312, "Edge_contrast": 25.279613494873047, "ROI": 9021.8333333333321, "Road_detected": -1, "ROI_norm": -0.23460175045319795, "Pred": 0 }, "geometry": { "type": "LineString", "coordinates": [ [ 144.919446189395558, -37.681668198288328 ], [ 144.919292864613936, -37.681947026984929 ], [ 144.91912891711263, -37.682057058744107 ] ] } },
{ "type": "Feature", "properties": { "gid": 321, "osm_id": null, "code": null, "fclass": "residential", "name": null, "pixel_count": 50, "Var_line": 82.711891174316406, "Edge_contrast": 23.410335540771484, "ROI": 2734.6666666666665, "Road_detected": -1, "ROI_norm": -0.83199275519226623, "Pred": 0 }, "geometry": { "type": "LineString", "coordinates": [ [ 144.919681465234333, -37.677113894805821 ], [ 144.919653099286364, -37.676701914057276 ] ] } },
{ "type": "Feature", "properties": { "gid": 489, "osm_id": null, "code": null, "fclass": "residential", "name": null, "pixel_count": 92, "Var_line": 75.046684265136719, "Edge_contrast": 11.583970069885254, "ROI": 7131.666666666667, "Road_detected": -1, "ROI_norm": -0.41420070559318595, "Pred": 0 }, "geometry": { "type": "LineString", "coordinates": [ [ 144.913943446881518, -37.682511179965864 ], [ 144.913784896297784, -37.682616917011799 ], [ 144.913417095955936, -37.683080107655456 ], [ 144.913395409840177, -37.683151612948187 ] ] } },
{ "type": "Feature", "properties": { "gid": 492, "osm_id": null, "code": null, "fclass": "residential", "name": null, "pixel_count": 75, "Var_line": 40.860877990722656, "Edge_contrast": 12.694765090942383, "ROI": 6178.3333333333339, "Road_detected": -1, "ROI_norm": -0.50478407772974643, "Pred": 0 }, "geometry": { "type": "LineString", "coordinates": [ [ 144.914404929572413, -37.681985116111505 ], [ 144.914610121765122, -37.68202531431956 ], [ 144.91515348105429, -37.682328949438734 ] ] } },
{ "type": "Feature", "properties": { "gid": 591, "osm_id": null, "code": null, "fclass": "residential", "name": null, "pixel_count": 88, "Var_line": 25.472755432128906, "Edge_contrast": 14.76512622833252, "ROI": 4886.8333333333321, "Road_detected": -1, "ROI_norm": -0.62749920896859401, "Pred": 0 }, "geometry": { "type": "LineString", "coordinates": [ [ 144.919421235394395, -37.678052077045969 ], [ 144.919170743027706, -37.67829508000667 ], [ 144.919111189825543, -37.678430929882559 ], [ 144.919132733125537, -37.678486730880365 ] ] } },
{ "type": "Feature", "properties": { "gid": 1465, "osm_id": null, "code": null, "fclass": "trunk", "name": null, "pixel_count": 41, "Var_line": 89.076896667480469, "Edge_contrast": 41.165756225585938, "ROI": 2544.0, "Road_detected": -1, "ROI_norm": -0.85010942961957825, "Pred": 0 }, "geometry": { "type": "LineString", "coordinates": [ [ 144.910951387315123, -37.654884583897513 ], [ 144.911008923363454, -37.65493040057531 ] ] } },
{ "type": "Feature", "properties": { "gid": 1473, "osm_id": null, "code": null, "fclass": "trunk", "name": null, "pixel_count": 46, "Var_line": 98.02288818359375, "Edge_contrast": 19.852659225463867, "ROI": 4502.666666666667, "Road_detected": -1, "ROI_norm": -0.66400177413900852, "Pred": 0 }, "geometry": { "type": "LineString", "coordinates": [ [ 144.917694279947426, -37.676883678161808 ], [ 144.91766557625516, -37.676792111380578 ] ] } },
{ "type": "Feature", "properties": { "gid": 1619, "osm_id": null, "code": null, "fclass": "trunk", "name": null, "pixel_count": 94, "Var_line": 99.111801147460938, "Edge_contrast": 26.879241943359375, "ROI": 8356.6666666666679, "Road_detected": -1, "ROI_norm": -0.29780423964847968, "Pred": 0 }, "geometry": { "type": "LineString", "coordinates": [ [ 144.930930808289162, -37.691127569173723 ], [ 144.931011864158251, -37.691093285921781 ], [ 144.931051786422103, -37.690752870147676 ], [ 144.931132927775394, -37.690624179463029 ] ] } },
{ "type": "Feature", "properties": { "gid": 1755, "osm_id": null, "code": null, "fclass": "primary", "name": null, "pixel_count": 50, "Var_line": 91.056388854980469, "Edge_contrast": 2.1091132164001465, "ROI": 4475.5, "Road_detected": -1, "ROI_norm": -0.66658308351982309, "Pred": 0 }, "geometry": { "type": "LineString", "coordinates": [ [ 144.910067629857082, -37.695874141270885 ], [ 144.909808280460794, -37.695919719512567 ] ] } },
{ "type": "Feature", "properties": { "gid": 1763, "osm_id": null, "code": null, "fclass": "primary", "name": null, "pixel_count": 42, "Var_line": 100.07011413574219, "Edge_contrast": 8.3012113571166992, "ROI": 2872.6666666666665, "Road_detected": -1, "ROI_norm": -0.81888033698788298, "Pred": 0 }, "geometry": { "type": "LineString", "coordinates": [ [ 144.888681681349851, -37.682078406664047 ], [ 144.888768130823848, -37.682055600246208 ] ] } },
{ "type": "Feature", "properties": { "gid": 1766, "osm_id": null, "code": null, "fclass": "primary", "name": null, "pixel_count": 50, "Var_line": 84.941184997558594, "Edge_contrast": 10.732982635498047, "ROI": 1724.6666666666667, "Road_detected": -1, "ROI_norm": -0.9279604536446362, "Pred": 0 }, "geometry": { "type": "LineString", "coordinates": [ [ 144.93001799021286, -37.681331540374401 ], [ 144.929874134894249, -37.681148362457172 ] ] } },
{ "type": "Feature", "properties": { "gid": 1767, "osm_id": null, "code": null, "fclass": "primary", "name": null, "pixel_count": 50, "Var_line": 88.723411560058594, "Edge_contrast": 18.355020523071289, "ROI": 3596.8333333333339, "Road_detected": -1, "ROI_norm": -0.75007181392261091, "Pred": 0 }, "geometry": { "type": "LineString", "coordinates": [ [ 144.914071306594423, -37.696746770318853 ], [ 144.9142441199198, -37.696792667321048 ] ] } },
{ "type": "Feature", "properties": { "gid": 1830, "osm_id": null, "code": null, "fclass": "primary", "name": null, "pixel_count": 30, "Var_line": 103.39282989501953, "Edge_contrast": 26.193233489990234, "ROI": 5280.5, "Road_detected": -1, "ROI_norm": -0.59009397732758762, "Pred": 0 }, "geometry": { "type": "LineString", "coordinates": [ [ 144.888768130823848, -37.682055600246208 ], [ 144.888796936091012, -37.682055626991108 ] ] } },
{ "type": "Feature", "properties": { "gid": 1923, "osm_id": null, "code": null, "fclass": "primary", "name": null, "pixel_count": 73, "Var_line": 94.442161560058594, "Edge_contrast": 23.225292205810547, "ROI": 5792.5, "Road_detected": -1, "ROI_norm": -0.54144500543886143, "Pred": 0 }, "geometry": { "type": "LineString", "coordinates": [ [ 144.919631637361903, -37.669790087912148 ], [ 144.91975052178239, -37.669712924600262 ], [ 144.919890939744278, -37.669698714340896 ] ] } },
{ "type": "Feature", "properties": { "gid": 1995, "osm_id": null, "code": null, "fclass": "primary", "name": null, "pixel_count": 65, "Var_line": 112.8875732421875, "Edge_contrast": 10.497272491455078, "ROI": 5429.8333333333339, "Road_detected": -1, "ROI_norm": -0.57590469386004239, "Pred": 0 }, "geometry": { "type": "LineString", "coordinates": [ [ 144.920218483563445, -37.659514276943582 ], [ 144.920234600296965, -37.659591531002931 ], [ 144.920333501714651, -37.659674561888757 ] ] } },
{ "type": "Feature", "properties": { "gid": 2051, "osm_id": null, "code": null, "fclass": "primary", "name": null, "pixel_count": 35, "Var_line": 136.51388549804688, "Edge_contrast": 56.130012512207031, "ROI": 4642.5, "Road_detected": -1, "ROI_norm": -0.65071515714205497, "Pred": 0 }, "geometry": { "type": "LineString", "coordinates": [ [ 144.928285720268576, -37.685518782741333 ], [ 144.92828576365639, -37.685473009393895 ] ] } },
{ "type": "Feature", "properties": { "gid": 2161, "osm_id": null, "code": null, "fclass": "primary", "name": null, "pixel_count": 30, "Var_line": 126.86387634277344, "Edge_contrast": 36.212856292724609, "ROI": 2486.333333333333, "Road_detected": -1, "ROI_norm": -0.85558877345860784, "Pred": 0 }, "geometry": { "type": "LineString", "coordinates": [ [ 144.894611966262914, -37.684669969491893 ], [ 144.894640772527396, -37.684669994831523 ] ] } },
{ "type": "Feature", "properties": { "gid": 2209, "osm_id": null, "code": null, "fclass": "primary", "name": null, "pixel_count": 72, "Var_line": 108.53263092041016, "Edge_contrast": 41.181114196777344, "ROI": 6631.6666666666661, "Road_detected": -1, "ROI_norm": -0.46170946720327022, "Pred": 0 }, "geometry": { "type": "LineString", "coordinates": [ [ 144.892566656535138, -37.68471392601819 ], [ 144.89252904944837, -37.684572280814592 ], [ 144.892422885470666, -37.684530703371635 ] ] } },
{ "type": "Feature", "properties": { "gid": 2267, "osm_id": null, "code": null, "fclass": "primary", "name": null, "pixel_count": 30, "Var_line": 92.3642578125, "Edge_contrast": 32.164981842041016, "ROI": 2886.3333333333335, "Road_detected": -1, "ROI_norm": -0.81758176417054051, "Pred": 0 }, "geometry": { "type": "LineString", "coordinates": [ [ 144.888796969728901, -37.682032740296769 ], [ 144.888796936091012, -37.682055626991108 ] ] } },
{ "type": "Feature", "properties": { "gid": 2309, "osm_id": null, "code": null, "fclass": "primary", "name": null, "pixel_count": 92, "Var_line": 83.026748657226562, "Edge_contrast": 26.124588012695312, "ROI": 6770.5, "Road_detected": -1, "ROI_norm": -0.44851786772953678, "Pred": 0 }, "geometry": { "type": "LineString", "coordinates": [ [ 144.911422287835649, -37.695394531829429 ], [ 144.911350288772297, -37.695371591972034 ], [ 144.911231592131628, -37.695247058171034 ], [ 144.911076751916625, -37.695234069629635 ] ] } },
{ "type": "Feature", "properties": { "gid": 2376, "osm_id": null, "code": null, "fclass": "primary", "name": null, "pixel_count": 75, "Var_line": 59.006755828857422, "Edge_contrast": 14.904292106628418, "ROI": 5902.8333333333339, "Road_detected": -1, "ROI_norm": -0.53096140537690284, "Pred": 0 }, "geometry": { "type": "LineString", "coordinates": [ [ 144.900007116749435, -37.678334971058362 ], [ 144.899835537149954, -37.678755371783232 ], [ 144.899891144318303, -37.678907042992506 ] ] } },
{ "type": "Feature", "properties": { "gid": 2384, "osm_id": null, "code": null, "fclass": "primary", "name": null, "pixel_count": 35, "Var_line": 61.518798828125, "Edge_contrast": 42.721446990966797, "ROI": 2352.666666666667, "Road_detected": -1, "ROI_norm": -0.86828944906237049, "Pred": 0 }, "geometry": { "type": "LineString", "coordinates": [ [ 144.893714695929134, -37.687713106298204 ], [ 144.893657081083404, -37.687713055166711 ] ] } },
{ "type": "Feature", "properties": { "gid": 2440, "osm_id": null, "code": null, "fclass": "primary", "name": null, "pixel_count": 138, "Var_line": 92.554290771484375, "Edge_contrast": 22.103725433349609, "ROI": 9229.6666666666679, "Road_detected": -1, "ROI_norm": -0.21485394187727275, "Pred": 0 }, "geometry": { "type": "LineString", "coordinates": [ [ 144.912167743085178, -37.698507656937672 ], [ 144.91234073001317, -37.69840622444066 ], [ 144.912396709669224, -37.698270376326768 ], [ 144.91244964562037, -37.697652477321576 ], [ 144.912401160870104, -37.697536578547179 ], [ 144.912341752750962, -37.697523661392374 ] ] } },
{ "type": "Feature", "properties": { "gid": 2461, "osm_id": null, "code": null, "fclass": "primary", "name": null, "pixel_count": 86, "Var_line": 107.36965179443359, "Edge_contrast": 24.978076934814453, "ROI": 4507.333333333333, "Road_detected": -1, "ROI_norm": -0.66355835903064775, "Pred": 0 }, "geometry": { "type": "LineString", "coordinates": [ [ 144.928778534879029, -37.682223391860759 ], [ 144.928897429506605, -37.682146219829654 ], [ 144.929025282604471, -37.682114826418733 ], [ 144.929095479440491, -37.682132033027713 ] ] } },
{ "type": "Feature", "properties": { "gid": 2516, "osm_id": null, "code": null, "fclass": "primary", "name": null, "pixel_count": 46, "Var_line": 57.299068450927734, "Edge_contrast": 23.628423690795898, "ROI": 4887.166666666667, "Road_detected": -1, "ROI_norm": -0.62746753646085374, "Pred": 0 }, "geometry": { "type": "LineString", "coordinates": [ [ 144.894554353733952, -37.684669918791883 ], [ 144.89443909674398, -37.684692703981895 ] ] } },
{ "type": "Feature", "properties": { "gid": 2526, "osm_id": null, "code": null, "fclass": "primary", "name": null, "pixel_count": 58, "Var_line": 120.93925476074219, "Edge_contrast": 33.942646026611328, "ROI": 4898.166666666667, "Road_detected": -1, "ROI_norm": -0.62642234370543193, "Pred": 0 }, "geometry": { "type": "LineString", "coordinates": [ [ 144.88831655889436, -37.695260787795412 ], [ 144.888296838416323, -37.6952021224688 ], [ 144.888345538091471, -37.695146381748238 ] ] } },
{ "type": "Feature", "properties": { "gid": 2586, "osm_id": null, "code": null, "fclass": "tertiary", "name": null, "pixel_count": 75, "Var_line": 85.467514038085938, "Edge_contrast": 7.1124510765075684, "ROI": 3680.5, "Road_detected": -1, "ROI_norm": -0.74212201447985693, "Pred": 0 }, "geometry": { "type": "LineString", "coordinates": [ [ 144.90091972939922, -37.685293293661495 ], [ 144.90081545209091, -37.685181634729517 ], [ 144.900833609869892, -37.685064355446251 ] ] } },
{ "type": "Feature", "properties": { "gid": 2662, "osm_id": null, "code": null, "fclass": "tertiary", "name": null, "pixel_count": 126, "Var_line": 107.86376190185547, "Edge_contrast": 31.855278015136719, "ROI": 8277.3333333333339, "Road_detected": -1, "ROI_norm": -0.30534229649061312, "Pred": 0 }, "geometry": { "type": "LineString", "coordinates": [ [ 144.910347566050319, -37.678457590785797 ], [ 144.910331450307581, -37.678384627202185 ], [ 144.910138978975027, -37.678254314556654 ], [ 144.910101377893511, -37.678082635689172 ], [ 144.91002043365495, -37.678026788445564 ], [ 144.909944828944447, -37.678022440359804 ] ] } },
{ "type": "Feature", "properties": { "gid": 2705, "osm_id": null, "code": null, "fclass": "tertiary", "name": null, "pixel_count": 50, "Var_line": 38.918117523193359, "Edge_contrast": 10.49168586730957, "ROI": 3483.3333333333335, "Road_detected": -1, "ROI_norm": -0.76085630280810002, "Pred": 0 }, "geometry": { "type": "LineString", "coordinates": [ [ 144.92167264284268, -37.673499102897225 ], [ 144.921788087479314, -37.673270310416925 ] ] } },
{ "type": "Feature", "properties": { "gid": 2731, "osm_id": null, "code": null, "fclass": "tertiary", "name": null, "pixel_count": 67, "Var_line": 108.58087158203125, "Edge_contrast": 40.407913208007812, "ROI": 3073.5, "Road_detected": -1, "ROI_norm": -0.79979765107449907, "Pred": 0 }, "geometry": { "type": "LineString", "coordinates": [ [ 144.891666320645811, -37.669722283188442 ], [ 144.8916157352553, -37.669850975840241 ], [ 144.891637225111623, -37.669928238334791 ] ] } },
{ "type": "Feature", "properties": { "gid": 2769, "osm_id": null, "code": null, "fclass": "tertiary", "name": null, "pixel_count": 50, "Var_line": 44.728748321533203, "Edge_contrast": 36.760177612304688, "ROI": 3308.666666666667, "Road_detected": -1, "ROI_norm": -0.77745269686388951, "Pred": 0 }, "geometry": { "type": "LineString", "coordinates": [ [ 144.925942688845851, -37.665994941480108 ], [ 144.925856067120264, -37.666223756419591 ] ] } },
{ "type": "Feature", "properties": { "gid": 2790, "osm_id": null, "code": null, "fclass": "tertiary", "name": null, "pixel_count": 72, "Var_line": 101.48880767822266, "Edge_contrast": 15.229304313659668, "ROI": 5405.0, "Road_detected": -1, "ROI_norm": -0.57826429568667659, "Pred": 0 }, "geometry": { "type": "LineString", "coordinates": [ [ 144.91021336674234, -37.694455280983135 ], [ 144.910132189092337, -37.694581096484342 ], [ 144.91001150619789, -37.694615335814703 ] ] } },
{ "type": "Feature", "properties": { "gid": 2932, "osm_id": null, "code": null, "fclass": "tertiary", "name": null, "pixel_count": 30, "Var_line": 128.73731994628906, "Edge_contrast": 77.286270141601562, "ROI": 3889.5, "Road_detected": -1, "ROI_norm": -0.72226335212684178, "Pred": 0 }, "geometry": { "type": "LineString", "coordinates": [ [ 144.929723477138424, -37.657277314335467 ], [ 144.929694681289845, -37.65727729743211 ] ] } },
{ "type": "Feature", "properties": { "gid": 2934, "osm_id": null, "code": null, "fclass": "tertiary", "name": null, "pixel_count": 34, "Var_line": 127.21737670898438, "Edge_contrast": 8.2571582794189453, "ROI": 2741.833333333333, "Road_detected": -1, "ROI_norm": -0.83131179627585483, "Pred": 0 }, "geometry": { "type": "LineString", "coordinates": [ [ 144.931505781121444, -37.692455323914288 ], [ 144.931476992612744, -37.692432420825746 ] ] } },
{ "type": "Feature", "properties": { "gid": 2980, "osm_id": null, "code": null, "fclass": "tertiary", "name": null, "pixel_count": 75, "Var_line": 28.146936416625977, "Edge_contrast": 10.898932456970215, "ROI": 2946.8333333333335, "Road_detected": -1, "ROI_norm": -0.81183320401572034, "Pred": 0 }, "geometry": { "type": "LineString", "coordinates": [ [ 144.926867336428984, -37.662814235052515 ], [ 144.92681526324597, -37.662686894959215 ], [ 144.926665928164681, -37.662631016826481 ] ] } },
{ "type": "Feature", "properties": { "gid": 3089, "osm_id": null, "code": null, "fclass": "tertiary", "name": null, "pixel_count": 40, "Var_line": 117.35527801513672, "Edge_contrast": 27.695087432861328, "ROI": 3634.8333333333335, "Road_detected": -1, "ROI_norm": -0.74646114804024455, "Pred": 0 }, "geometry": { "type": "LineString", "coordinates": [ [ 144.888652876074104, -37.682078379891372 ], [ 144.888739291901402, -37.682078460188556 ] ] } },
{ "type": "Feature", "properties": { "gid": 3206, "osm_id": null, "code": null, "fclass": "tertiary", "name": null, "pixel_count": 138, "Var_line": 92.554290771484375, "Edge_contrast": 22.103725433349609, "ROI": 9229.6666666666679, "Road_detected": -1, "ROI_norm": -0.21485394187727275, "Pred": 0 }, "geometry": { "type": "LineString", "coordinates": [ [ 144.912167743085178, -37.698507656937672 ], [ 144.91234073001317, -37.69840622444066 ], [ 144.912396709669224, -37.698270376326768 ], [ 144.91244964562037, -37.697652477321576 ], [ 144.912401160870104, -37.697536578547179 ], [ 144.912341752750962, -37.697523661392374 ] ] } },
{ "type": "Feature", "properties": { "gid": 3230, "osm_id": null, "code": null, "fclass": "tertiary", "name": null, "pixel_count": 50, "Var_line": 84.623046875, "Edge_contrast": 2.0299303531646729, "ROI": 4407.166666666667, "Road_detected": -1, "ROI_norm": -0.67307594760653455, "Pred": 0 }, "geometry": { "type": "LineString", "coordinates": [ [ 144.910067657065753, -37.695851254690986 ], [ 144.909808280460794, -37.695919719512567 ] ] } },
{ "type": "Feature", "properties": { "gid": 3252, "osm_id": null, "code": null, "fclass": "tertiary", "name": null, "pixel_count": 66, "Var_line": 81.396186828613281, "Edge_contrast": 35.269302368164062, "ROI": 5995.333333333333, "Road_detected": -1, "ROI_norm": -0.5221722844790373, "Pred": 0 }, "geometry": { "type": "LineString", "coordinates": [ [ 144.911979567713502, -37.662140498068489 ], [ 144.911874886251923, -37.662389316000166 ], [ 144.911806434827241, -37.662437900244896 ] ] } },
{ "type": "Feature", "properties": { "gid": 3904, "osm_id": null, "code": null, "fclass": "unclassified", "name": null, "pixel_count": 147, "Var_line": 64.857688903808594, "Edge_contrast": 42.7967529296875, "ROI": 6493.166666666667, "Road_detected": -1, "ROI_norm": -0.47486939416926344, "Pred": 0 }, "geometry": { "type": "LineString", "coordinates": [ [ 144.905503937116123, -37.682115745334563 ], [ 144.9053958564472, -37.682164294304414 ], [ 144.905338095488702, -37.682284403951037 ], [ 144.905415273851077, -37.68247328034456 ], [ 144.905550063605943, -37.682662202114159 ], [ 144.905560604993212, -37.682871051700509 ] ] } },
{ "type": "Feature", "properties": { "gid": 3972, "osm_id": null, "code": null, "fclass": "unclassified", "name": null, "pixel_count": 50, "Var_line": 76.00067138671875, "Edge_contrast": 24.298593521118164, "ROI": 5547.5, "Road_detected": -1, "ROI_norm": -0.5647242986278026, "Pred": 0 }, "geometry": { "type": "LineString", "coordinates": [ [ 144.891763747751355, -37.682149891398112 ], [ 144.891504270282468, -37.682309863720384 ] ] } },
{ "type": "Feature", "properties": { "gid": 3985, "osm_id": null, "code": null, "fclass": "unclassified", "name": null, "pixel_count": 132, "Var_line": 78.050704956054688, "Edge_contrast": 3.3862051963806152, "ROI": 12585.833333333334, "Road_detected": -1, "ROI_norm": 0.10404070230348213, "Pred": 0 }, "geometry": { "type": "LineString", "coordinates": [ [ 144.914433941884255, -37.681802043074647 ], [ 144.914412231206342, -37.68189643528811 ], [ 144.91411660755881, -37.682222359445774 ], [ 144.91350359144505, -37.683011510011312 ], [ 144.913408079451727, -37.683092974912597 ], [ 144.913337850885767, -37.683105797899586 ] ] } },
{ "type": "Feature", "properties": { "gid": 4476, "osm_id": null, "code": null, "fclass": "unclassified", "name": null, "pixel_count": 136, "Var_line": 85.387924194335938, "Edge_contrast": 29.862636566162109, "ROI": 4953.666666666667, "Road_detected": -1, "ROI_norm": -0.62114887116671258, "Pred": 0 }, "geometry": { "type": "LineString", "coordinates": [ [ 144.913197656077188, -37.679764234567685 ], [ 144.91329491027571, -37.679729974896588 ], [ 144.913509330960977, -37.679565631470446 ], [ 144.913611969240293, -37.679545679640384 ], [ 144.913946559158887, -37.67977478788405 ], [ 144.913975114740083, -37.679993662827904 ] ] } },
{ "type": "Feature", "properties": { "gid": 10, "osm_id": null, "code": null, "fclass": "residential", "name": null, "pixel_count": 85, "Var_line": 86.030799865722656, "Edge_contrast": 9.9977569580078125, "ROI": 7620.8333333333339, "Road_detected": -1, "ROI_norm": -0.36772130048465362, "Pred": 0 }, "geometry": { "type": "LineString", "coordinates": [ [ 144.915009325615017, -37.682443280825765 ], [ 144.914933693689278, -37.682458961756417 ], [ 144.914804112748385, -37.682420248331155 ], [ 144.914692465964094, -37.682443055587932 ] ] } },
{ "type": "Feature", "properties": { "gid": 289, "osm_id": null, "code": null, "fclass": "residential", "name": null, "pixel_count": 125, "Var_line": 91.126190185546875, "Edge_contrast": 30.189685821533203, "ROI": 8399.8333333333339, "Road_detected": -1, "ROI_norm": -0.29370264989614248, "Pred": 0 }, "geometry": { "type": "LineString", "coordinates": [ [ 144.909035707073002, -37.69150201789958 ], [ 144.908852145312494, -37.691423205559694 ], [ 144.908627323305041, -37.691218484950426 ], [ 144.908316244615662, -37.690874947643941 ], [ 144.9082300859383, -37.690654597715444 ] ] } },
{ "type": "Feature", "properties": { "gid": 562, "osm_id": null, "code": null, "fclass": "residential", "name": null, "pixel_count": 88, "Var_line": 64.829910278320312, "Edge_contrast": 12.19483470916748, "ROI": 3260.5, "Road_detected": -1, "ROI_norm": -0.78202937423232766, "Pred": 0 }, "geometry": { "type": "LineString", "coordinates": [ [ 144.920256278895664, -37.678304390160186 ], [ 144.920412987087843, -37.678221529916044 ], [ 144.920450933460046, -37.678087095458068 ], [ 144.920429366737807, -37.678052751004451 ] ] } },
{ "type": "Feature", "properties": { "gid": 1207, "osm_id": null, "code": null, "fclass": "residential", "name": null, "pixel_count": 71, "Var_line": 55.736434936523438, "Edge_contrast": 41.636745452880859, "ROI": 4441.0, "Road_detected": -1, "ROI_norm": -0.66986118807091888, "Pred": 0 }, "geometry": { "type": "LineString", "coordinates": [ [ 144.890356698976717, -37.679104675665748 ], [ 144.890328031673107, -37.679010241573323 ], [ 144.890357395433398, -37.67862405449781 ] ] } },
{ "type": "Feature", "properties": { "gid": 1333, "osm_id": null, "code": null, "fclass": "motorway", "name": null, "pixel_count": 50, "Var_line": 53.448760986328125, "Edge_contrast": 26.192277908325195, "ROI": 3672.333333333333, "Road_detected": -1, "ROI_norm": -0.74289799091948827, "Pred": 0 }, "geometry": { "type": "LineString", "coordinates": [ [ 144.896955190269296, -37.698541312254576 ], [ 144.896609295290801, -37.698655447165564 ] ] } },
{ "type": "Feature", "properties": { "gid": 1374, "osm_id": null, "code": null, "fclass": "motorway", "name": null, "pixel_count": 134, "Var_line": 42.824729919433594, "Edge_contrast": 24.700532913208008, "ROI": 13063.333333333332, "Road_detected": -1, "ROI_norm": 0.14941156964111232, "Pred": 0 }, "geometry": { "type": "LineString", "coordinates": [ [ 144.88756436169021, -37.697365651635181 ], [ 144.887812789514754, -37.697411657699575 ], [ 144.888007023114938, -37.697574906383252 ], [ 144.888143114744253, -37.698089981763232 ], [ 144.888193407792926, -37.698175853404372 ], [ 144.888282678694679, -37.698693745626649 ] ] } },
{ "type": "Feature", "properties": { "gid": 1421, "osm_id": null, "code": null, "fclass": "trunk", "name": null, "pixel_count": 75, "Var_line": 121.16861724853516, "Edge_contrast": 29.459873199462891, "ROI": 6777.666666666667, "Road_detected": -1, "ROI_norm": -0.44783690881312554, "Pred": 0 }, "geometry": { "type": "LineString", "coordinates": [ [ 144.88823465822955, -37.672694416375464 ], [ 144.888050996581569, -37.672728575056965 ], [ 144.887917568295279, -37.672877214502243 ] ] } },
{ "type": "Feature", "properties": { "gid": 1520, "osm_id": null, "code": null, "fclass": "trunk", "name": null, "pixel_count": 196, "Var_line": 152.96479797363281, "Edge_contrast": 48.223518371582031, "ROI": 14664.166666666666, "Road_detected": -1, "ROI_norm": 0.30151878806273186, "Pred": 0 }, "geometry": { "type": "LineString", "coordinates": [ [ 144.899054879689601, -37.67961583030182 ], [ 144.899346379033148, -37.679724787637582 ], [ 144.899670177976333, -37.679913874912621 ], [ 144.89992931591587, -37.679991334437517 ], [ 144.900102003070543, -37.680097329755014 ], [ 144.900296350681032, -37.68016043021543 ], [ 144.9003862707373, -37.680232026086742 ], [ 144.900436524400504, -37.680349362398992 ] ] } },
{ "type": "Feature", "properties": { "gid": 1526, "osm_id": null, "code": null, "fclass": "trunk", "name": null, "pixel_count": 50, "Var_line": 111.59195709228516, "Edge_contrast": 30.252159118652344, "ROI": 4125.166666666667, "Road_detected": -1, "ROI_norm": -0.69987088915462203, "Pred": 0 }, "geometry": { "type": "LineString", "coordinates": [ [ 144.915341110784539, -37.694848086534144 ], [ 144.915485187086659, -37.694825301648443 ] ] } },
{ "type": "Feature", "properties": { "gid": 1550, "osm_id": null, "code": null, "fclass": "trunk", "name": null, "pixel_count": 75, "Var_line": 143.31550598144531, "Edge_contrast": 73.164031982421875, "ROI": 5488.166666666667, "Road_detected": -1, "ROI_norm": -0.57036200500553258, "Pred": 0 }, "geometry": { "type": "LineString", "coordinates": [ [ 144.92900070909522, -37.691034894299968 ], [ 144.928838662861665, -37.691031937323991 ], [ 144.928511047744848, -37.690943056545855 ] ] } },
{ "type": "Feature", "properties": { "gid": 1560, "osm_id": null, "code": null, "fclass": "trunk", "name": null, "pixel_count": 30, "Var_line": 149.76937866210938, "Edge_contrast": 29.812200546264648, "ROI": 4849.333333333333, "Road_detected": -1, "ROI_norm": -0.63106236608935018, "Pred": 0 }, "geometry": { "type": "LineString", "coordinates": [ [ 144.922649642198223, -37.67571975565874 ], [ 144.922649665594065, -37.675696868901703 ] ] } },
{ "type": "Feature", "properties": { "gid": 1561, "osm_id": null, "code": null, "fclass": "trunk", "name": null, "pixel_count": 30, "Var_line": 143.12394714355469, "Edge_contrast": 61.450645446777344, "ROI": 2187.5, "Road_detected": -1, "ROI_norm": -0.8839831766475682, "Pred": 0 }, "geometry": { "type": "LineString", "coordinates": [ [ 144.922649642198223, -37.67571975565874 ], [ 144.922620839332893, -37.675719737054472 ] ] } },
{ "type": "Feature", "properties": { "gid": 1562, "osm_id": null, "code": null, "fclass": "trunk", "name": null, "pixel_count": 30, "Var_line": 149.76937866210938, "Edge_contrast": 8.7771625518798828, "ROI": 5423.333333333333, "Road_detected": -1, "ROI_norm": -0.57652230776097357, "Pred": 0 }, "geometry": { "type": "LineString", "coordinates": [ [ 144.922649642198223, -37.67571975565874 ], [ 144.922649618802382, -37.675742642415592 ] ] } },
{ "type": "Feature", "properties": { "gid": 1566, "osm_id": null, "code": null, "fclass": "trunk", "name": null, "pixel_count": 50, "Var_line": 83.376853942871094, "Edge_contrast": 29.935750961303711, "ROI": 4759.5, "Road_detected": -1, "ROI_norm": -0.63959810692529528, "Pred": 0 }, "geometry": { "type": "LineString", "coordinates": [ [ 144.916944464462176, -37.677729970677483 ], [ 144.916742839059026, -37.677729830698496 ] ] } },
{ "type": "Feature", "properties": { "gid": 1712, "osm_id": null, "code": null, "fclass": "trunk", "name": null, "pixel_count": 34, "Var_line": 143.12394714355469, "Edge_contrast": 50.369850158691406, "ROI": 5405.5, "Road_detected": -1, "ROI_norm": -0.57821678692506651, "Pred": 0 }, "geometry": { "type": "LineString", "coordinates": [ [ 144.922649618802382, -37.675742642415592 ], [ 144.922620839332893, -37.675719737054472 ] ] } },
{ "type": "Feature", "properties": { "gid": 1718, "osm_id": null, "code": null, "fclass": "trunk", "name": null, "pixel_count": 34, "Var_line": 148.81498718261719, "Edge_contrast": 71.404876708984375, "ROI": 6450.666666666667, "Road_detected": -1, "ROI_norm": -0.47890763890612059, "Pred": 0 }, "geometry": { "type": "LineString", "coordinates": [ [ 144.922620839332893, -37.675719737054472 ], [ 144.922649665594065, -37.675696868901703 ] ] } },
{ "type": "Feature", "properties": { "gid": 1772, "osm_id": null, "code": null, "fclass": "primary", "name": null, "pixel_count": 34, "Var_line": 90.80072021484375, "Edge_contrast": 38.506427764892578, "ROI": 3228.5, "Road_detected": -1, "ROI_norm": -0.78506993497537303, "Pred": 0 }, "geometry": { "type": "LineString", "coordinates": [ [ 144.919078625479841, -37.675213887222519 ], [ 144.919049798323528, -37.675236754519972 ] ] } },
{ "type": "Feature", "properties": { "gid": 1804, "osm_id": null, "code": null, "fclass": "primary", "name": null, "pixel_count": 75, "Var_line": 97.016380310058594, "Edge_contrast": 32.003406524658203, "ROI": 7024.3333333333339, "Road_detected": -1, "ROI_norm": -0.42439925308548399, "Pred": 0 }, "geometry": { "type": "LineString", "coordinates": [ [ 144.914390324156471, -37.694893184120623 ], [ 144.914489509465909, -37.694760226543067 ], [ 144.91479384689552, -37.694733265526615 ] ] } },
{ "type": "Feature", "properties": { "gid": 1858, "osm_id": null, "code": null, "fclass": "primary", "name": null, "pixel_count": 30, "Var_line": 10.574203491210938, "Edge_contrast": 21.104104995727539, "ROI": 2918.833333333333, "Road_detected": -1, "ROI_norm": -0.81449369466588506, "Pred": 0 }, "geometry": { "type": "LineString", "coordinates": [ [ 144.923197430935062, -37.67519371235997 ], [ 144.923168628269877, -37.675193693887422 ] ] } },
{ "type": "Feature", "properties": { "gid": 1859, "osm_id": null, "code": null, "fclass": "primary", "name": null, "pixel_count": 34, "Var_line": 12.260627746582031, "Edge_contrast": 29.132827758789062, "ROI": 4138.0, "Road_detected": -1, "ROI_norm": -0.69865149760662992, "Pred": 0 }, "geometry": { "type": "LineString", "coordinates": [ [ 144.923197430935062, -37.67519371235997 ], [ 144.923168605031179, -37.675216580648879 ] ] } },
{ "type": "Feature", "properties": { "gid": 1896, "osm_id": null, "code": null, "fclass": "primary", "name": null, "pixel_count": 69, "Var_line": 91.236946105957031, "Edge_contrast": 0.39194461703300476, "ROI": 6861.833333333333, "Road_detected": -1, "ROI_norm": -0.43983960060876143, "Pred": 0 }, "geometry": { "type": "LineString", "coordinates": [ [ 144.924973115181928, -37.656313181014191 ], [ 144.92492650129887, -37.656132917164093 ], [ 144.924829365085856, -37.656084221479979 ] ] } },
{ "type": "Feature", "properties": { "gid": 1938, "osm_id": null, "code": null, "fclass": "primary", "name": null, "pixel_count": 75, "Var_line": 47.302383422851562, "Edge_contrast": 30.876699447631836, "ROI": 5252.8333333333339, "Road_detected": -1, "ROI_norm": -0.59272279547001216, "Pred": 0 }, "geometry": { "type": "LineString", "coordinates": [ [ 144.898855299120783, -37.678082249655766 ], [ 144.898850254086284, -37.677816186830732 ], [ 144.898711831800256, -37.677670166761246 ] ] } },
{ "type": "Feature", "properties": { "gid": 1968, "osm_id": null, "code": null, "fclass": "primary", "name": null, "pixel_count": 30, "Var_line": 12.377338409423828, "Edge_contrast": 30.546457290649414, "ROI": 1499.3333333333335, "Road_detected": -1, "ROI_norm": -0.94937106887691403, "Pred": 0 }, "geometry": { "type": "LineString", "coordinates": [ [ 144.923168628269877, -37.675193693887422 ], [ 144.923168605031179, -37.675216580648879 ] ] } },
{ "type": "Feature", "properties": { "gid": 1989, "osm_id": null, "code": null, "fclass": "primary", "name": null, "pixel_count": 150, "Var_line": 22.879796981811523, "Edge_contrast": 34.148509979248047, "ROI": 16154.5, "Road_detected": -1, "ROI_norm": 0.44312657016852275, "Pred": 0 }, "geometry": { "type": "LineString", "coordinates": [ [ 144.888114104650811, -37.676310416756849 ], [ 144.888272103387692, -37.676593788071401 ], [ 144.888584946297073, -37.67686013820299 ], [ 144.888736102567719, -37.676901760982425 ], [ 144.889708034815953, -37.677025676277012 ], [ 144.889927566741562, -37.677090247259002 ] ] } },
{ "type": "Feature", "properties": { "gid": 2024, "osm_id": null, "code": null, "fclass": "primary", "name": null, "pixel_count": 50, "Var_line": 143.724853515625, "Edge_contrast": 16.689149856567383, "ROI": 6800.8333333333339, "Road_detected": -1, "ROI_norm": -0.44563566952519162, "Pred": 0 }, "geometry": { "type": "LineString", "coordinates": [ [ 144.919040414103137, -37.657087472613753 ], [ 144.91886759039329, -37.657133129505354 ] ] } },
{ "type": "Feature", "properties": { "gid": 2061, "osm_id": null, "code": null, "fclass": "primary", "name": null, "pixel_count": 75, "Var_line": 86.80126953125, "Edge_contrast": 27.363889694213867, "ROI": 5902.666666666667, "Road_detected": -1, "ROI_norm": -0.53097724163077287, "Pred": 0 }, "geometry": { "type": "LineString", "coordinates": [ [ 144.888254712326329, -37.698121554955819 ], [ 144.888199105908683, -37.697975601089361 ], [ 144.888226306754092, -37.697846889411153 ] ] } },
{ "type": "Feature", "properties": { "gid": 2069, "osm_id": null, "code": null, "fclass": "primary", "name": null, "pixel_count": 30, "Var_line": 60.421127319335938, "Edge_contrast": 14.813377380371094, "ROI": 3870.8333333333335, "Road_detected": -1, "ROI_norm": -0.72403701256028485, "Pred": 0 }, "geometry": { "type": "LineString", "coordinates": [ [ 144.898711862437239, -37.677647280026392 ], [ 144.898711831800256, -37.677670166761246 ] ] } },
{ "type": "Feature", "properties": { "gid": 2156, "osm_id": null, "code": null, "fclass": "primary", "name": null, "pixel_count": 71, "Var_line": 138.94918823242188, "Edge_contrast": 47.63714599609375, "ROI": 4626.1666666666661, "Road_detected": -1, "ROI_norm": -0.65226711002131776, "Pred": 0 }, "geometry": { "type": "LineString", "coordinates": [ [ 144.89632662071179, -37.673662939758984 ], [ 144.896218589389179, -37.673680011295936 ], [ 144.896153619808445, -37.673800110656856 ] ] } },
{ "type": "Feature", "properties": { "gid": 2171, "osm_id": null, "code": null, "fclass": "primary", "name": null, "pixel_count": 34, "Var_line": 63.713748931884766, "Edge_contrast": 28.320085525512695, "ROI": 4008.3333333333335, "Road_detected": -1, "ROI_norm": -0.71097210311751169, "Pred": 0 }, "geometry": { "type": "LineString", "coordinates": [ [ 144.898683058844966, -37.677647255665683 ], [ 144.898711831800256, -37.677670166761246 ] ] } },
{ "type": "Feature", "properties": { "gid": 2235, "osm_id": null, "code": null, "fclass": "primary", "name": null, "pixel_count": 30, "Var_line": 93.318840026855469, "Edge_contrast": 36.471134185791016, "ROI": 2422.0, "Road_detected": -1, "ROI_norm": -0.86170156745243875, "Pred": 0 }, "geometry": { "type": "LineString", "coordinates": [ [ 144.919078601004088, -37.675236773982988 ], [ 144.919049798323528, -37.675236754519972 ] ] } },
{ "type": "Feature", "properties": { "gid": 2236, "osm_id": null, "code": null, "fclass": "primary", "name": null, "pixel_count": 30, "Var_line": 81.308670043945312, "Edge_contrast": 25.760856628417969, "ROI": 1850.9999999999998, "Road_detected": -1, "ROI_norm": -0.91595657321115487, "Pred": 0 }, "geometry": { "type": "LineString", "coordinates": [ [ 144.919078601004088, -37.675236773982988 ], [ 144.919078576528307, -37.675259660743265 ] ] } },
{ "type": "Feature", "properties": { "gid": 2244, "osm_id": null, "code": null, "fclass": "primary", "name": null, "pixel_count": 38, "Var_line": 98.975090026855469, "Edge_contrast": 44.321830749511719, "ROI": 5595.1666666666661, "Road_detected": -1, "ROI_norm": -0.56019513002097465, "Pred": 0 }, "geometry": { "type": "LineString", "coordinates": [ [ 144.91820516888464, -37.683887368368168 ], [ 144.918262805557134, -37.683864521007614 ] ] } },
{ "type": "Feature", "properties": { "gid": 2261, "osm_id": null, "code": null, "fclass": "primary", "name": null, "pixel_count": 50, "Var_line": 96.429267883300781, "Edge_contrast": 10.018082618713379, "ROI": 6213.833333333333, "Road_detected": -1, "ROI_norm": -0.50141095565543048, "Pred": 0 }, "geometry": { "type": "LineString", "coordinates": [ [ 144.898659527533169, -37.673710709975175 ], [ 144.898918929814386, -37.673573608406812 ] ] } },
{ "type": "Feature", "properties": { "gid": 2305, "osm_id": null, "code": null, "fclass": "primary", "name": null, "pixel_count": 72, "Var_line": 49.328948974609375, "Edge_contrast": 22.168472290039062, "ROI": 8658.6666666666679, "Road_detected": -1, "ROI_norm": -0.26910894763598886, "Pred": 0 }, "geometry": { "type": "LineString", "coordinates": [ [ 144.91479384689552, -37.694733265526615 ], [ 144.914855164963228, -37.69464748433488 ], [ 144.915024481969084, -37.694596109674642 ] ] } },
{ "type": "Feature", "properties": { "gid": 2307, "osm_id": null, "code": null, "fclass": "primary", "name": null, "pixel_count": 50, "Var_line": 106.30592346191406, "Edge_contrast": 26.101619720458984, "ROI": 2147.8333333333335, "Road_detected": -1, "ROI_norm": -0.88775220506863484, "Pred": 0 }, "geometry": { "type": "LineString", "coordinates": [ [ 144.919049798323528, -37.675236754519972 ], [ 144.918790549636185, -37.67525946580124 ] ] } },
{ "type": "Feature", "properties": { "gid": 2308, "osm_id": null, "code": null, "fclass": "primary", "name": null, "pixel_count": 34, "Var_line": 94.973503112792969, "Edge_contrast": 23.970796585083008, "ROI": 2464.3333333333335, "Road_detected": -1, "ROI_norm": -0.85767915896945157, "Pred": 0 }, "geometry": { "type": "LineString", "coordinates": [ [ 144.919049798323528, -37.675236754519972 ], [ 144.919078576528307, -37.675259660743265 ] ] } },
{ "type": "Feature", "properties": { "gid": 2318, "osm_id": null, "code": null, "fclass": "primary", "name": null, "pixel_count": 50, "Var_line": 124.11552429199219, "Edge_contrast": 28.892263412475586, "ROI": 5849.5, "Road_detected": -1, "ROI_norm": -0.53602900661531183, "Pred": 0 }, "geometry": { "type": "LineString", "coordinates": [ [ 144.924553415380188, -37.672928782374775 ], [ 144.924783693311014, -37.673066247981545 ] ] } },
{ "type": "Feature", "properties": { "gid": 2331, "osm_id": null, "code": null, "fclass": "primary", "name": null, "pixel_count": 50, "Var_line": 67.482246398925781, "Edge_contrast": 23.263980865478516, "ROI": 5757.333333333333, "Road_detected": -1, "ROI_norm": -0.54478645500543732, "Pred": 0 }, "geometry": { "type": "LineString", "coordinates": [ [ 144.923168605031179, -37.675216580648879 ], [ 144.923197221864683, -37.675399693206131 ] ] } },
{ "type": "Feature", "properties": { "gid": 2376, "osm_id": null, "code": null, "fclass": "primary", "name": null, "pixel_count": 60, "Var_line": 145.58589172363281, "Edge_contrast": 72.809356689453125, "ROI": 3656.1666666666665, "Road_detected": -1, "ROI_norm": -0.74443410754488104, "Pred": 0 }, "geometry": { "type": "LineString", "coordinates": [ [ 144.91457768929186, -37.656535085760403 ], [ 144.914410203471903, -37.656633666077767 ], [ 144.914404760619163, -37.656672283892078 ] ] } },
{ "type": "Feature", "properties": { "gid": 2486, "osm_id": null, "code": null, "fclass": "primary", "name": null, "pixel_count": 40, "Var_line": 134.547607421875, "Edge_contrast": 20.657110214233398, "ROI": 2927.666666666667, "Road_detected": -1, "ROI_norm": -0.81365437321077372, "Pred": 0 }, "geometry": { "type": "LineString", "coordinates": [ [ 144.919078576528307, -37.675259660743265 ], [ 144.91907850310082, -37.675328321022945 ] ] } },
{ "type": "Feature", "properties": { "gid": 2522, "osm_id": null, "code": null, "fclass": "tertiary", "name": null, "pixel_count": 72, "Var_line": 138.76097106933594, "Edge_contrast": 38.253353118896484, "ROI": 5398.1666666666661, "Road_detected": -1, "ROI_norm": -0.57891358209534782, "Pred": 0 }, "geometry": { "type": "LineString", "coordinates": [ [ 144.896326652068552, -37.673640052990329 ], [ 144.896218577618129, -37.673688593834079 ], [ 144.896124786263584, -37.673822972448178 ] ] } },
{ "type": "Feature", "properties": { "gid": 2534, "osm_id": null, "code": null, "fclass": "tertiary", "name": null, "pixel_count": 63, "Var_line": 141.34939575195312, "Edge_contrast": 30.155729293823242, "ROI": 4415.3333333333339, "Road_detected": -1, "ROI_norm": -0.67229997116690321, "Pred": 0 }, "geometry": { "type": "LineString", "coordinates": [ [ 144.919069258822418, -37.657041718248763 ], [ 144.918910794807772, -37.657123145738076 ], [ 144.918867614927024, -37.657110242590669 ] ] } },
{ "type": "Feature", "properties": { "gid": 2605, "osm_id": null, "code": null, "fclass": "tertiary", "name": null, "pixel_count": 30, "Var_line": 10.574203491210938, "Edge_contrast": 21.104104995727539, "ROI": 2918.833333333333, "Road_detected": -1, "ROI_norm": -0.81449369466588506, "Pred": 0 }, "geometry": { "type": "LineString", "coordinates": [ [ 144.923197430935062, -37.67519371235997 ], [ 144.923168628269877, -37.675193693887422 ] ] } },
{ "type": "Feature", "properties": { "gid": 2607, "osm_id": null, "code": null, "fclass": "tertiary", "name": null, "pixel_count": 34, "Var_line": 12.260627746582031, "Edge_contrast": 29.132827758789062, "ROI": 4138.0, "Road_detected": -1, "ROI_norm": -0.69865149760662992, "Pred": 0 }, "geometry": { "type": "LineString", "coordinates": [ [ 144.923197430935062, -37.67519371235997 ], [ 144.923168605031179, -37.675216580648879 ] ] } },
{ "type": "Feature", "properties": { "gid": 2637, "osm_id": null, "code": null, "fclass": "tertiary", "name": null, "pixel_count": 34, "Var_line": 97.927093505859375, "Edge_contrast": 37.81317138671875, "ROI": 3998.5, "Road_detected": -1, "ROI_norm": -0.71190644209584342, "Pred": 0 }, "geometry": { "type": "LineString", "coordinates": [ [ 144.919049822808006, -37.675213867759496 ], [ 144.919020995642967, -37.675236735050021 ] ] } },
{ "type": "Feature", "properties": { "gid": 2638, "osm_id": null, "code": null, "fclass": "tertiary", "name": null, "pixel_count": 30, "Var_line": 100.84000396728516, "Edge_contrast": 36.773757934570312, "ROI": 3280.0000000000005, "Road_detected": -1, "ROI_norm": -0.78017653252953434, "Pred": 0 }, "geometry": { "type": "LineString", "coordinates": [ [ 144.919049822808006, -37.675213867759496 ], [ 144.919049798323528, -37.675236754519972 ] ] } },
{ "type": "Feature", "properties": { "gid": 2702, "osm_id": null, "code": null, "fclass": "tertiary", "name": null, "pixel_count": 30, "Var_line": 12.377338409423828, "Edge_contrast": 30.546457290649414, "ROI": 1499.3333333333335, "Road_detected": -1, "ROI_norm": -0.94937106887691403, "Pred": 0 }, "geometry": { "type": "LineString", "coordinates": [ [ 144.923168628269877, -37.675193693887422 ], [ 144.923168605031179, -37.675216580648879 ] ] } },
{ "type": "Feature", "properties": { "gid": 2803, "osm_id": null, "code": null, "fclass": "tertiary", "name": null, "pixel_count": 75, "Var_line": 59.650463104248047, "Edge_contrast": 40.455513000488281, "ROI": 5827.5, "Road_detected": -1, "ROI_norm": -0.53811939212615545, "Pred": 0 }, "geometry": { "type": "LineString", "coordinates": [ [ 144.922086475587918, -37.663200296965883 ], [ 144.921942139849449, -37.663534923559403 ], [ 144.921711603095218, -37.663680676903581 ] ] } },
{ "type": "Feature", "properties": { "gid": 2813, "osm_id": null, "code": null, "fclass": "tertiary", "name": null, "pixel_count": 171, "Var_line": 24.899564743041992, "Edge_contrast": 27.604934692382812, "ROI": 17656.999999999996, "Road_detected": -1, "ROI_norm": 0.58589039880682536, "Pred": 0 }, "geometry": { "type": "LineString", "coordinates": [ [ 144.888085301571039, -37.676310389847657 ], [ 144.888171596652654, -37.676387713313126 ], [ 144.888272103387692, -37.676593788071401 ], [ 144.888584946297073, -37.67686013820299 ], [ 144.888736102567719, -37.676901760982425 ], [ 144.889708034815953, -37.677025676277012 ], [ 144.889927566741562, -37.677090247259002 ] ] } },
{ "type": "Feature", "properties": { "gid": 2824, "osm_id": null, "code": null, "fclass": "tertiary", "name": null, "pixel_count": 50, "Var_line": 124.25057983398438, "Edge_contrast": 3.8096168041229248, "ROI": 5838.0, "Road_detected": -1, "ROI_norm": -0.53712170813234372, "Pred": 0 }, "geometry": { "type": "LineString", "coordinates": [ [ 144.927213242064738, -37.662471142551901 ], [ 144.927472532149238, -37.66235686544524 ] ] } },
{ "type": "Feature", "properties": { "gid": 2908, "osm_id": null, "code": null, "fclass": "tertiary", "name": null, "pixel_count": 45, "Var_line": 110.79720306396484, "Edge_contrast": 13.117294311523438, "ROI": 2293.666666666667, "Road_detected": -1, "ROI_norm": -0.87389548293236041, "Pred": 0 }, "geometry": { "type": "LineString", "coordinates": [ [ 144.919049675900823, -37.675351188319361 ], [ 144.919049773838992, -37.675259641280242 ] ] } },
{ "type": "Feature", "properties": { "gid": 3028, "osm_id": null, "code": null, "fclass": "tertiary", "name": null, "pixel_count": 30, "Var_line": 102.94284057617188, "Edge_contrast": 35.582164764404297, "ROI": 2211.3333333333335, "Road_detected": -1, "ROI_norm": -0.88171859234415417, "Pred": 0 }, "geometry": { "type": "LineString", "coordinates": [ [ 144.919049798323528, -37.675236754519972 ], [ 144.919020995642967, -37.675236735050021 ] ] } },
{ "type": "Feature", "properties": { "gid": 3029, "osm_id": null, "code": null, "fclass": "tertiary", "name": null, "pixel_count": 30, "Var_line": 109.25936889648438, "Edge_contrast": 28.075870513916016, "ROI": 1864.6666666666667, "Road_detected": -1, "ROI_norm": -0.91465800039381262, "Pred": 0 }, "geometry": { "type": "LineString", "coordinates": [ [ 144.919049798323528, -37.675236754519972 ], [ 144.919049773838992, -37.675259641280242 ] ] } },
{ "type": "Feature", "properties": { "gid": 3044, "osm_id": null, "code": null, "fclass": "tertiary", "name": null, "pixel_count": 125, "Var_line": 120.53118133544922, "Edge_contrast": 33.997245788574219, "ROI": 7418.833333333333, "Road_detected": -1, "ROI_norm": -0.38691484017512767, "Pred": 0 }, "geometry": { "type": "LineString", "coordinates": [ [ 144.9297784164755, -37.691172672509815 ], [ 144.929594744717406, -37.691189729686577 ], [ 144.929421916197413, -37.691163880525558 ], [ 144.929099756421351, -37.691016357565431 ], [ 144.929029646615646, -37.690897591611517 ] ] } },
{ "type": "Feature", "properties": { "gid": 3055, "osm_id": null, "code": null, "fclass": "tertiary", "name": null, "pixel_count": 50, "Var_line": 67.482246398925781, "Edge_contrast": 23.263980865478516, "ROI": 5757.333333333333, "Road_detected": -1, "ROI_norm": -0.54478645500543732, "Pred": 0 }, "geometry": { "type": "LineString", "coordinates": [ [ 144.923168605031179, -37.675216580648879 ], [ 144.923197221864683, -37.675399693206131 ] ] } },
{ "type": "Feature", "properties": { "gid": 3067, "osm_id": null, "code": null, "fclass": "tertiary", "name": null, "pixel_count": 69, "Var_line": 101.69480133056641, "Edge_contrast": 22.015100479125977, "ROI": 4722.5, "Road_detected": -1, "ROI_norm": -0.64311375528444148, "Pred": 0 }, "geometry": { "type": "LineString", "coordinates": [ [ 144.888197292515684, -37.697984181867454 ], [ 144.888215464475536, -37.697872626707685 ], [ 144.888283996914794, -37.697801170039945 ] ] } },
{ "type": "Feature", "properties": { "gid": 3068, "osm_id": null, "code": null, "fclass": "tertiary", "name": null, "pixel_count": 34, "Var_line": 38.058349609375, "Edge_contrast": 12.161548614501953, "ROI": 3227.3333333333335, "Road_detected": -1, "ROI_norm": -0.78518078875246311, "Pred": 0 }, "geometry": { "type": "LineString", "coordinates": [ [ 144.888197292515684, -37.697984181867454 ], [ 144.888168447348079, -37.698007041534169 ] ] } },
{ "type": "Feature", "properties": { "gid": 3186, "osm_id": null, "code": null, "fclass": "tertiary", "name": null, "pixel_count": 90, "Var_line": 96.1375732421875, "Edge_contrast": 32.112949371337891, "ROI": 7291.166666666667, "Road_detected": -1, "ROI_norm": -0.39904541063956911, "Pred": 0 }, "geometry": { "type": "LineString", "coordinates": [ [ 144.924829365085856, -37.656084221479979 ], [ 144.92492650129887, -37.656132917164093 ], [ 144.924965992888445, -37.656235933138149 ], [ 144.924944297005311, -37.656336049891088 ] ] } },
{ "type": "Feature", "properties": { "gid": 3216, "osm_id": null, "code": null, "fclass": "tertiary", "name": null, "pixel_count": 50, "Var_line": 100.64299774169922, "Edge_contrast": 27.492727279663086, "ROI": 3110.666666666667, "Road_detected": -1, "ROI_norm": -0.79626616646148285, "Pred": 0 }, "geometry": { "type": "LineString", "coordinates": [ [ 144.919020995642967, -37.675236735050021 ], [ 144.918790549636185, -37.67525946580124 ] ] } },
{ "type": "Feature", "properties": { "gid": 3217, "osm_id": null, "code": null, "fclass": "tertiary", "name": null, "pixel_count": 34, "Var_line": 103.55397033691406, "Edge_contrast": 28.972888946533203, "ROI": 2204.0000000000005, "Road_detected": -1, "ROI_norm": -0.88241538751443549, "Pred": 0 }, "geometry": { "type": "LineString", "coordinates": [ [ 144.919020995642967, -37.675236735050021 ], [ 144.919049773838992, -37.675259641280242 ] ] } },
{ "type": "Feature", "properties": { "gid": 3226, "osm_id": null, "code": null, "fclass": "tertiary", "name": null, "pixel_count": 30, "Var_line": 34.542217254638672, "Edge_contrast": 11.266944885253906, "ROI": 5061.6666666666661, "Road_detected": -1, "ROI_norm": -0.61088697865893449, "Pred": 0 }, "geometry": { "type": "LineString", "coordinates": [ [ 144.888197258689274, -37.698007068423152 ], [ 144.888168447348079, -37.698007041534169 ] ] } },
{ "type": "Feature", "properties": { "gid": 3431, "osm_id": null, "code": null, "fclass": "unclassified", "name": null, "pixel_count": 75, "Var_line": 77.851806640625, "Edge_contrast": 16.91462516784668, "ROI": 3258.6666666666665, "Road_detected": -1, "ROI_norm": -0.78220357302489796, "Pred": 0 }, "geometry": { "type": "LineString", "coordinates": [ [ 144.890791139548071, -37.677457226008492 ], [ 144.89092454139751, -37.677328609511079 ], [ 144.890993324685411, -37.677068335156534 ] ] } },
{ "type": "Feature", "properties": { "gid": 3530, "osm_id": null, "code": null, "fclass": "unclassified", "name": null, "pixel_count": 50, "Var_line": 45.914497375488281, "Edge_contrast": 39.060016632080078, "ROI": 8122.0, "Road_detected": -1, "ROI_norm": -0.32010168509747933, "Pred": 0 }, "geometry": { "type": "LineString", "coordinates": [ [ 144.903433519571337, -37.679321912676855 ], [ 144.903607598700546, -37.6783379226638 ] ] } },
{ "type": "Feature", "properties": { "gid": 3559, "osm_id": null, "code": null, "fclass": "unclassified", "name": null, "pixel_count": 75, "Var_line": 69.664405822753906, "Edge_contrast": 11.368246078491211, "ROI": 3554.5, "Road_detected": -1, "ROI_norm": -0.75409422240559809, "Pred": 0 }, "geometry": { "type": "LineString", "coordinates": [ [ 144.920169843203212, -37.678327219334115 ], [ 144.92023484188266, -37.678147029473365 ], [ 144.920400538908126, -37.678075618602648 ] ] } },
{ "type": "Feature", "properties": { "gid": 3632, "osm_id": null, "code": null, "fclass": "unclassified", "name": null, "pixel_count": 75, "Var_line": 27.728145599365234, "Edge_contrast": 19.312078475952148, "ROI": 3828.9999999999991, "Road_detected": -1, "ROI_norm": -0.72801191228166195, "Pred": 0 }, "geometry": { "type": "LineString", "coordinates": [ [ 144.914349858098973, -37.679742177256465 ], [ 144.914164191268327, -37.67995231625904 ], [ 144.914003893220382, -37.680016570230244 ] ] } },
{ "type": "Feature", "properties": { "gid": 4360, "osm_id": null, "code": null, "fclass": "unclassified", "name": null, "pixel_count": 75, "Var_line": 61.738243103027344, "Edge_contrast": 10.108376502990723, "ROI": 2737.6666666666665, "Road_detected": -1, "ROI_norm": -0.83170770262260563, "Pred": 0 }, "geometry": { "type": "LineString", "coordinates": [ [ 144.920198622922499, -37.678350125261694 ], [ 144.920371528913392, -37.678271567129379 ], [ 144.920429318601521, -37.678098524476951 ] ] } }
]
}
