{
"type": "FeatureCollection",
"crs": { "type": "name", "properties": { "name": "urn:ogc:def:crs:OGC:1.3:CRS84" } },
"features": [
{ "type": "Feature", "properties": { "gid": 78, "fclass": "residential", "length": 63.652809087893921, "status": "disappeared" }, "geometry": { "type": "LineString", "coordinates": [ [ 144.907510347922766, -37.690264971196626 ], [ 144.907429256038881, -37.690320694770762 ], [ 144.907425509705178, -37.690439416365827 ], [ 144.907567321569758, -37.690791408058274 ] ] } },
{ "type": "Feature", "properties": { "gid": 79, "fclass": "residential", "length": 119.66540723975848, "status": "disappeared" }, "geometry": { "type": "LineString", "coordinates": [ [ 144.907510347922766, -37.690264971196626 ], [ 144.907618292082532, -37.690336575264602 ], [ 144.908046128923132, -37.690903348922532 ], [ 144.908056848718275, -37.690972017081229 ], [ 144.908020754404305, -37.691040649303638 ], [ 144.907826236461119, -37.691089133915462 ] ] } },
{ "type": "Feature", "properties": { "gid": 93, "fclass": "residential", "length": 30.761181230800396, "status": "disappeared" }, "geometry": { "type": "LineString", "coordinates": [ [ 144.920426261828197, -37.681005138367027 ], [ 144.920390138337666, -37.68111668715617 ], [ 144.920224410511423, -37.681210984640025 ] ] } },
{ "type": "Feature", "properties": { "gid": 132, "fclass": "residential", "length": 103.02858803703541, "status": "disappeared" }, "geometry": { "type": "LineString", "coordinates": [ [ 144.918437689160385, -37.681965043204151 ], [ 144.917898655474602, -37.682642693931456 ], [ 144.917860714706023, -37.682765684002547 ] ] } },
{ "type": "Feature", "properties": { "gid": 147, "fclass": "residential", "length": 209.37429413906696, "status": "disappeared" }, "geometry": { "type": "LineString", "coordinates": [ [ 144.92055774242985, -37.692952070144507 ], [ 144.92071979545031, -37.692952177493432 ], [ 144.921447690931103, -37.692512089435674 ], [ 144.921750275440559, -37.692427893014475 ], [ 144.922160786314322, -37.692448186238707 ], [ 144.922419931534648, -37.692582813266043 ], [ 144.922603445850626, -37.692724542959418 ] ] } },
{ "type": "Feature", "properties": { "gid": 228, "fclass": "residential", "length": 60.838203926824988, "status": "disappeared" }, "geometry": { "type": "LineString", "coordinates": [ [ 144.926483781065031, -37.672266265662884 ], [ 144.926703308379047, -37.672353656137851 ], [ 144.927146106584217, -37.672381104378502 ] ] } },
{ "type": "Feature", "properties": { "gid": 415, "fclass": "residential", "length": 275.642125467016, "status": "disappeared" }, "geometry": { "type": "LineString", "coordinates": [ [ 144.913805155772735, -37.677475998371889 ], [ 144.913979557649128, -37.677669230768423 ], [ 144.914177136262253, -37.678062738607125 ], [ 144.914322780344463, -37.678217328456739 ], [ 144.914608475839856, -37.678698154225835 ], [ 144.914636911895883, -37.679024310634965 ], [ 144.914534006383093, -37.679281713125945 ], [ 144.914227572388995, -37.679624795212298 ], [ 144.914148305244339, -37.679673372747366 ] ] } },
{ "type": "Feature", "properties": { "gid": 497, "fclass": "residential", "length": 88.066755803935422, "status": "disappeared" }, "geometry": { "type": "LineString", "coordinates": [ [ 144.910639362197173, -37.675276548538257 ], [ 144.91061049022116, -37.675335174363106 ], [ 144.91053482728114, -37.67538232184976 ], [ 144.910124252407087, -37.675496448353719 ], [ 144.909872091806477, -37.675610692754439 ], [ 144.909774872053958, -37.675619202100123 ] ] } },
{ "type": "Feature", "properties": { "gid": 503, "fclass": "residential", "length": 89.668670801299342, "status": "disappeared" }, "geometry": { "type": "LineString", "coordinates": [ [ 144.9094589447175, -37.67486369999299 ], [ 144.909296932167706, -37.674862146988509 ], [ 144.908655680332544, -37.675189226712632 ], [ 144.908565651279645, -37.675206323103808 ] ] } },
{ "type": "Feature", "properties": { "gid": 521, "fclass": "residential", "length": 69.021264979235127, "status": "disappeared" }, "geometry": { "type": "LineString", "coordinates": [ [ 144.921467299525347, -37.677092192252886 ], [ 144.92068968003656, -37.677023019594479 ] ] } },
{ "type": "Feature", "properties": { "gid": 599, "fclass": "residential", "length": 22.86644951114431, "status": "disappeared" }, "geometry": { "type": "LineString", "coordinates": [ [ 144.88796802229632, -37.658252553615398 ], [ 144.887708856429413, -37.658252310865535 ] ] } },
{ "type": "Feature", "properties": { "gid": 686, "fclass": "residential", "length": 46.87379454521755, "status": "disappeared" }, "geometry": { "type": "LineString", "coordinates": [ [ 144.919590336658615, -37.68155386153007 ], [ 144.919836910489295, -37.681619826124006 ], [ 144.920022509711799, -37.681462603971291 ] ] } },
{ "type": "Feature", "properties": { "gid": 687, "fclass": "residential", "length": 61.209121763471913, "status": "disappeared" }, "geometry": { "type": "LineString", "coordinates": [ [ 144.919996584475683, -37.678739065206813 ], [ 144.919834630095323, -37.678674587948947 ], [ 144.919748322810136, -37.678575831055461 ], [ 144.919842022029769, -37.678494359755568 ], [ 144.920054506866251, -37.678441576157773 ] ] } },
{ "type": "Feature", "properties": { "gid": 699, "fclass": "residential", "length": 100.80187589454204, "status": "disappeared" }, "geometry": { "type": "LineString", "coordinates": [ [ 144.897015596680291, -37.675334269700642 ], [ 144.897199239228343, -37.675315831949767 ], [ 144.897458349199212, -37.675400449064838 ], [ 144.897976703956687, -37.675470982482707 ], [ 144.89805772136495, -37.675463899346781 ], [ 144.898109976448609, -37.675426752793207 ] ] } },
{ "type": "Feature", "properties": { "gid": 796, "fclass": "residential", "length": 26.061858319273771, "status": "disappeared" }, "geometry": { "type": "LineString", "coordinates": [ [ 144.916023764363672, -37.676813858312563 ], [ 144.91599661836571, -37.676942577321675 ], [ 144.915908322326459, -37.677019758188074 ] ] } },
{ "type": "Feature", "properties": { "gid": 1073, "fclass": "residential", "length": 33.561081452073125, "status": "disappeared" }, "geometry": { "type": "LineString", "coordinates": [ [ 144.91912950421758, -37.681507777847614 ], [ 144.918989168342279, -37.681424718647833 ], [ 144.918783941672558, -37.681415997154545 ] ] } },
{ "type": "Feature", "properties": { "gid": 1108, "fclass": "residential", "length": 55.394836878778861, "status": "disappeared" }, "geometry": { "type": "LineString", "coordinates": [ [ 144.918493327243425, -37.683796017972675 ], [ 144.918590494956447, -37.683844718292505 ], [ 144.91860478713653, -37.683947718165683 ], [ 144.91840646515314, -37.684207919465941 ] ] } },
{ "type": "Feature", "properties": { "gid": 1248, "fclass": "residential", "length": 38.460511780159408, "status": "disappeared" }, "geometry": { "type": "LineString", "coordinates": [ [ 144.907797427748193, -37.691089111746656 ], [ 144.907711240673336, -37.69089307849962 ], [ 144.907567293606434, -37.690814294681665 ] ] } },
{ "type": "Feature", "properties": { "gid": 1266, "fclass": "residential", "length": 41.47031722956234, "status": "disappeared" }, "geometry": { "type": "LineString", "coordinates": [ [ 144.919158309285422, -37.681507797291452 ], [ 144.919320427784442, -37.681423511802421 ], [ 144.919561555904863, -37.681530955483943 ] ] } },
{ "type": "Feature", "properties": { "gid": 1274, "fclass": "residential", "length": 50.119582364001047, "status": "disappeared" }, "geometry": { "type": "LineString", "coordinates": [ [ 144.919738902090756, -37.677274140627766 ], [ 144.919744242051024, -37.677331361103441 ], [ 144.91981442021148, -37.677360016553372 ], [ 144.920228512592388, -37.677320241225729 ] ] } },
{ "type": "Feature", "properties": { "gid": 1330, "fclass": "residential", "length": 22.86644951114431, "status": "disappeared" }, "geometry": { "type": "LineString", "coordinates": [ [ 144.915994986492564, -37.676790951368623 ], [ 144.915735757050868, -37.676790769278341 ] ] } },
{ "type": "Feature", "properties": { "gid": 1348, "fclass": "motorway", "length": 847.82834348507674, "status": "disappeared" }, "geometry": { "type": "LineString", "coordinates": [ [ 144.903846939952075, -37.693992608271479 ], [ 144.904808667411913, -37.693834600360098 ], [ 144.905716205090329, -37.693811000979366 ], [ 144.909497238346006, -37.69401989647271 ], [ 144.911765932386885, -37.694090248653296 ], [ 144.912824587495692, -37.69418400052821 ], [ 144.913411485918942, -37.694274542185738 ] ] } },
{ "type": "Feature", "properties": { "gid": 1356, "fclass": "motorway", "length": 50.454484928998809, "status": "disappeared" }, "geometry": { "type": "LineString", "coordinates": [ [ 144.914996186261618, -37.69413835735638 ], [ 144.914576698975509, -37.694087994518632 ], [ 144.914477763736642, -37.69400066871453 ] ] } },
{ "type": "Feature", "properties": { "gid": 1388, "fclass": "trunk", "length": 31.559960628586353, "status": "disappeared" }, "geometry": { "type": "LineString", "coordinates": [ [ 144.897761516490107, -37.656201491520029 ], [ 144.897639379662195, -37.656021152485536 ], [ 144.897560258242095, -37.655972450063814 ] ] } },
{ "type": "Feature", "properties": { "gid": 1397, "fclass": "trunk", "length": 20.319999999832362, "status": "disappeared" }, "geometry": { "type": "LineString", "coordinates": [ [ 144.928905777776805, -37.669429763066496 ], [ 144.928905605762168, -37.669612857556181 ] ] } },
{ "type": "Feature", "properties": { "gid": 1408, "fclass": "trunk", "length": 22.133962738666856, "status": "disappeared" }, "geometry": { "type": "LineString", "coordinates": [ [ 144.896449365037768, -37.689203134791846 ], [ 144.896438667777602, -37.689125883060711 ], [ 144.896363191881619, -37.689019966974584 ] ] } },
{ "type": "Feature", "properties": { "gid": 1409, "fclass": "trunk", "length": 104.55243070402406, "status": "disappeared" }, "geometry": { "type": "LineString", "coordinates": [ [ 144.900963215823708, -37.674078825683864 ], [ 144.901130376497662, -37.674272071079756 ], [ 144.901382322125727, -37.674329495762727 ], [ 144.901722280268615, -37.674537186706729 ], [ 144.901913036895905, -37.674583116650126 ] ] } },
{ "type": "Feature", "properties": { "gid": 1414, "fclass": "trunk", "length": 18.496302449747134, "status": "disappeared" }, "geometry": { "type": "LineString", "coordinates": [ [ 144.929318433017329, -37.659314011760081 ], [ 144.92911689952399, -37.659268118813117 ] ] } },
{ "type": "Feature", "properties": { "gid": 1433, "fclass": "trunk", "length": 35.926092056338071, "status": "disappeared" }, "geometry": { "type": "LineString", "coordinates": [ [ 144.897137862875383, -37.691332186593733 ], [ 144.897425640581559, -37.691561299756366 ] ] } },
{ "type": "Feature", "properties": { "gid": 1467, "fclass": "trunk", "length": 27.939999999944121, "status": "disappeared" }, "geometry": { "type": "LineString", "coordinates": [ [ 144.927735072132833, -37.688997225898589 ], [ 144.927734831655584, -37.689248978962517 ] ] } },
{ "type": "Feature", "properties": { "gid": 1470, "fclass": "trunk", "length": 2.5407166122458875, "status": "disappeared" }, "geometry": { "type": "LineString", "coordinates": [ [ 144.927073597556813, -37.657962337606151 ], [ 144.927044801448204, -37.657962320065614 ] ] } },
{ "type": "Feature", "properties": { "gid": 1471, "fclass": "trunk", "length": 2.5407166122458875, "status": "disappeared" }, "geometry": { "type": "LineString", "coordinates": [ [ 144.927073597556813, -37.657962337606151 ], [ 144.927102393665393, -37.657962355139773 ] ] } },
{ "type": "Feature", "properties": { "gid": 1472, "fclass": "trunk", "length": 3.5926092055679342, "status": "disappeared" }, "geometry": { "type": "LineString", "coordinates": [ [ 144.927073597556813, -37.657962337606151 ], [ 144.927044779386932, -37.657985206974658 ] ] } },
{ "type": "Feature", "properties": { "gid": 1505, "fclass": "trunk", "length": 2.5400000000372529, "status": "disappeared" }, "geometry": { "type": "LineString", "coordinates": [ [ 144.915138079020863, -37.696060932839302 ], [ 144.915138104695558, -37.696038046259915 ] ] } },
{ "type": "Feature", "properties": { "gid": 1506, "fclass": "trunk", "length": 2.5407166122458875, "status": "disappeared" }, "geometry": { "type": "LineString", "coordinates": [ [ 144.915138079020863, -37.696060932839302 ], [ 144.915109268412465, -37.69606091242882 ] ] } },
{ "type": "Feature", "properties": { "gid": 1515, "fclass": "trunk", "length": 20.945724232236241, "status": "disappeared" }, "geometry": { "type": "LineString", "coordinates": [ [ 144.911289120559616, -37.66154492937207 ], [ 144.911231310868658, -37.661727981690809 ] ] } },
{ "type": "Feature", "properties": { "gid": 1521, "fclass": "trunk", "length": 2.5400000000372529, "status": "disappeared" }, "geometry": { "type": "LineString", "coordinates": [ [ 144.927044801448204, -37.657962320065614 ], [ 144.927044779386932, -37.657985206974658 ] ] } },
{ "type": "Feature", "properties": { "gid": 1522, "fclass": "trunk", "length": 21.702524464976197, "status": "disappeared" }, "geometry": { "type": "LineString", "coordinates": [ [ 144.927418733845286, -37.658397398792857 ], [ 144.927505298045105, -37.658214355873262 ] ] } },
{ "type": "Feature", "properties": { "gid": 1523, "fclass": "trunk", "length": 47.046324500091316, "status": "disappeared" }, "geometry": { "type": "LineString", "coordinates": [ [ 144.927418733845286, -37.658397398792857 ], [ 144.92738433240666, -37.658611942792142 ], [ 144.927303153049735, -37.658809293189123 ] ] } },
{ "type": "Feature", "properties": { "gid": 1544, "fclass": "trunk", "length": 22.866449511609972, "status": "disappeared" }, "geometry": { "type": "LineString", "coordinates": [ [ 144.914849972937731, -37.696060728422857 ], [ 144.915109268412465, -37.69606091242882 ] ] } },
{ "type": "Feature", "properties": { "gid": 1550, "fclass": "trunk", "length": 3.5926092055679342, "status": "disappeared" }, "geometry": { "type": "LineString", "coordinates": [ [ 144.915109268412465, -37.69606091242882 ], [ 144.915138104695558, -37.696038046259915 ] ] } },
{ "type": "Feature", "properties": { "gid": 1571, "fclass": "trunk", "length": 15.980976072015425, "status": "disappeared" }, "geometry": { "type": "LineString", "coordinates": [ [ 144.90739847602697, -37.687518485382043 ], [ 144.907393002860317, -37.687577128251384 ], [ 144.907311913771053, -37.687632851802924 ] ] } },
{ "type": "Feature", "properties": { "gid": 1589, "fclass": "trunk", "length": 56.143677811783192, "status": "disappeared" }, "geometry": { "type": "LineString", "coordinates": [ [ 144.909880606437099, -37.659392508615987 ], [ 144.909954394444668, -37.65939542498834 ], [ 144.910015541405585, -37.659434092619634 ], [ 144.910099830863032, -37.659687342398975 ], [ 144.910225731853359, -37.659758958448947 ] ] } },
{ "type": "Feature", "properties": { "gid": 1621, "fclass": "trunk", "length": 72.527739064221194, "status": "disappeared" }, "geometry": { "type": "LineString", "coordinates": [ [ 144.896985846585267, -37.654873383642268 ], [ 144.89707212631825, -37.654950701311577 ], [ 144.897176251518147, -37.655139608140445 ], [ 144.897301783353868, -37.655468715800829 ] ] } },
{ "type": "Feature", "properties": { "gid": 1628, "fclass": "trunk", "length": 29.651033209248112, "status": "disappeared" }, "geometry": { "type": "LineString", "coordinates": [ [ 144.921428372552555, -37.659103112490079 ], [ 144.921352665690137, -37.6592146364953 ], [ 144.921341721280527, -37.659354811645812 ] ] } },
{ "type": "Feature", "properties": { "gid": 1647, "fclass": "trunk", "length": 68.201663284419524, "status": "disappeared" }, "geometry": { "type": "LineString", "coordinates": [ [ 144.910093280346985, -37.674292008217314 ], [ 144.910064610637534, -37.674180413604311 ], [ 144.910118737239628, -37.674077463687382 ], [ 144.910127901034429, -37.673940149827601 ], [ 144.910209195732449, -37.673697038645962 ] ] } },
{ "type": "Feature", "properties": { "gid": 1648, "fclass": "trunk", "length": 3.5926092055679342, "status": "disappeared" }, "geometry": { "type": "LineString", "coordinates": [ [ 144.92911689952399, -37.659268118813117 ], [ 144.929088124361868, -37.6592452148654 ] ] } },
{ "type": "Feature", "properties": { "gid": 1649, "fclass": "trunk", "length": 2.5407166122458875, "status": "disappeared" }, "geometry": { "type": "LineString", "coordinates": [ [ 144.92911689952399, -37.659268118813117 ], [ 144.929088102918143, -37.659268101763985 ] ] } },
{ "type": "Feature", "properties": { "gid": 1662, "fclass": "trunk", "length": 2.5400000000372529, "status": "disappeared" }, "geometry": { "type": "LineString", "coordinates": [ [ 144.929088124361868, -37.6592452148654 ], [ 144.929088102918143, -37.659268101763985 ] ] } },
{ "type": "Feature", "properties": { "gid": 1665, "fclass": "trunk", "length": 32.510106231497488, "status": "disappeared" }, "geometry": { "type": "LineString", "coordinates": [ [ 144.913254667286452, -37.655160918043869 ], [ 144.913236542487198, -37.655272478786571 ], [ 144.913139171946085, -37.655435477693977 ] ] } },
{ "type": "Feature", "properties": { "gid": 1679, "fclass": "trunk", "length": 131.4533437080438, "status": "disappeared" }, "geometry": { "type": "LineString", "coordinates": [ [ 144.91419802813914, -37.661226632382451 ], [ 144.914334358946888, -37.661630111523941 ], [ 144.914312391564721, -37.661956234028032 ], [ 144.914369491561843, -37.662393986631891 ] ] } },
{ "type": "Feature", "properties": { "gid": 1682, "fclass": "trunk", "length": 35.650649936713393, "status": "disappeared" }, "geometry": { "type": "LineString", "coordinates": [ [ 144.927044779386932, -37.657985206974658 ], [ 144.927015674288526, -37.658305606133617 ] ] } },
{ "type": "Feature", "properties": { "gid": 1686, "fclass": "trunk", "length": 48.357317416220766, "status": "disappeared" }, "geometry": { "type": "LineString", "coordinates": [ [ 144.892356557740129, -37.670409510381596 ], [ 144.892172868848633, -37.670467992632595 ], [ 144.891895417423115, -37.670637963268319 ] ] } },
{ "type": "Feature", "properties": { "gid": 1688, "fclass": "trunk", "length": 69.175566530326819, "status": "disappeared" }, "geometry": { "type": "LineString", "coordinates": [ [ 144.925262090246321, -37.684441259938055 ], [ 144.925135562127309, -37.684947549038561 ], [ 144.925059857538059, -37.685036187632178 ] ] } },
{ "type": "Feature", "properties": { "gid": 1692, "fclass": "trunk", "length": 25.13898870178803, "status": "disappeared" }, "geometry": { "type": "LineString", "coordinates": [ [ 144.890110790597333, -37.669926847503646 ], [ 144.890013659088396, -37.669878123829626 ], [ 144.889995854154023, -37.669743647348604 ] ] } },
{ "type": "Feature", "properties": { "gid": 1710, "fclass": "trunk", "length": 8.0342248001037628, "status": "disappeared" }, "geometry": { "type": "LineString", "coordinates": [ [ 144.929001691630702, -37.659290937473273 ], [ 144.929088102918143, -37.659268101763985 ] ] } },
{ "type": "Feature", "properties": { "gid": 1717, "fclass": "primary", "length": 22.723578457173495, "status": "disappeared" }, "geometry": { "type": "LineString", "coordinates": [ [ 144.929958049654459, -37.683849043608795 ], [ 144.929727686989509, -37.683757361886428 ] ] } },
{ "type": "Feature", "properties": { "gid": 1718, "fclass": "primary", "length": 12.955023064648548, "status": "disappeared" }, "geometry": { "type": "LineString", "coordinates": [ [ 144.925992028221941, -37.674440208021188 ], [ 144.926136017776514, -37.674463183688459 ] ] } },
{ "type": "Feature", "properties": { "gid": 1730, "fclass": "primary", "length": 22.814891003270208, "status": "disappeared" }, "geometry": { "type": "LineString", "coordinates": [ [ 144.90931120156651, -37.677976188783511 ], [ 144.909170862414669, -37.677910283022463 ], [ 144.909138544142365, -37.677838737397096 ] ] } },
{ "type": "Feature", "properties": { "gid": 1734, "fclass": "primary", "length": 20.478223577725085, "status": "disappeared" }, "geometry": { "type": "LineString", "coordinates": [ [ 144.925478611772093, -37.669336132307976 ], [ 144.925507592444319, -37.669153055721523 ] ] } },
{ "type": "Feature", "properties": { "gid": 1736, "fclass": "primary", "length": 7.6200000001117587, "status": "disappeared" }, "geometry": { "type": "LineString", "coordinates": [ [ 144.931075477505715, -37.690441053284211 ], [ 144.93107541495155, -37.690509713177299 ] ] } },
{ "type": "Feature", "properties": { "gid": 1737, "fclass": "primary", "length": 12.951650122538268, "status": "disappeared" }, "geometry": { "type": "LineString", "coordinates": [ [ 144.891991543785508, -37.684003920999899 ], [ 144.892020513113806, -37.683889513575238 ] ] } },
{ "type": "Feature", "properties": { "gid": 1738, "fclass": "primary", "length": 3.5926092055679342, "status": "disappeared" }, "geometry": { "type": "LineString", "coordinates": [ [ 144.891991543785508, -37.684003920999899 ], [ 144.891962705094329, -37.684026781701505 ] ] } },
{ "type": "Feature", "properties": { "gid": 1739, "fclass": "primary", "length": 2.5400000000372529, "status": "disappeared" }, "geometry": { "type": "LineString", "coordinates": [ [ 144.891991543785508, -37.684003920999899 ], [ 144.891991511113048, -37.684026807678194 ] ] } },
{ "type": "Feature", "properties": { "gid": 1742, "fclass": "primary", "length": 10.160000000149012, "status": "disappeared" }, "geometry": { "type": "LineString", "coordinates": [ [ 144.914394079571593, -37.691574626574635 ], [ 144.914393975978356, -37.69166617304586 ] ] } },
{ "type": "Feature", "properties": { "gid": 1751, "fclass": "primary", "length": 50.086082551212172, "status": "disappeared" }, "geometry": { "type": "LineString", "coordinates": [ [ 144.931667151222456, -37.673276354140064 ], [ 144.931609772297435, -37.673027427522243 ], [ 144.931696345677864, -37.672841521721693 ] ] } },
{ "type": "Feature", "properties": { "gid": 1752, "fclass": "primary", "length": 31.492548453647061, "status": "disappeared" }, "geometry": { "type": "LineString", "coordinates": [ [ 144.894679099776738, -37.657137184607585 ], [ 144.894639302463162, -37.657283053816066 ], [ 144.894534770040025, -37.657388813870263 ] ] } },
{ "type": "Feature", "properties": { "gid": 1759, "fclass": "primary", "length": 25.526755393097087, "status": "disappeared" }, "geometry": { "type": "LineString", "coordinates": [ [ 144.894125206281245, -37.682563962886519 ], [ 144.894096721168779, -37.682335070499043 ] ] } },
{ "type": "Feature", "properties": { "gid": 1760, "fclass": "primary", "length": 23.50887377172965, "status": "disappeared" }, "geometry": { "type": "LineString", "coordinates": [ [ 144.910458164055541, -37.658019726695372 ], [ 144.910361088943603, -37.65792524549726 ], [ 144.910343196445211, -37.657836545261034 ] ] } },
{ "type": "Feature", "properties": { "gid": 1765, "fclass": "primary", "length": 46.115116902103814, "status": "disappeared" }, "geometry": { "type": "LineString", "coordinates": [ [ 144.889545873046046, -37.682056319928925 ], [ 144.889574816099525, -37.681961938870131 ], [ 144.889546474447542, -37.681644359395186 ] ] } },
{ "type": "Feature", "properties": { "gid": 1791, "fclass": "primary", "length": 27.363290928691978, "status": "disappeared" }, "geometry": { "type": "LineString", "coordinates": [ [ 144.925800856134089, -37.693161411754033 ], [ 144.926088861760036, -37.693253136262172 ] ] } },
{ "type": "Feature", "properties": { "gid": 1808, "fclass": "primary", "length": 25.719935251909853, "status": "disappeared" }, "geometry": { "type": "LineString", "coordinates": [ [ 144.899435663249477, -37.674855703639373 ], [ 144.899277188405875, -37.674901344044848 ], [ 144.899233862673242, -37.674992854738356 ] ] } },
{ "type": "Feature", "properties": { "gid": 1809, "fclass": "primary", "length": 3.5926092055679342, "status": "disappeared" }, "geometry": { "type": "LineString", "coordinates": [ [ 144.891991478440588, -37.684049694356297 ], [ 144.891962705094329, -37.684026781701505 ] ] } },
{ "type": "Feature", "properties": { "gid": 1810, "fclass": "primary", "length": 2.5400000000372529, "status": "disappeared" }, "geometry": { "type": "LineString", "coordinates": [ [ 144.891991478440588, -37.684049694356297 ], [ 144.891991511113048, -37.684026807678194 ] ] } },
{ "type": "Feature", "properties": { "gid": 1817, "fclass": "primary", "length": 59.701505000585719, "status": "disappeared" }, "geometry": { "type": "LineString", "coordinates": [ [ 144.925791174707058, -37.673661933028576 ], [ 144.925607552991863, -37.673670401664275 ], [ 144.925369853958017, -37.673753218398232 ], [ 144.925186127319478, -37.673867537716454 ] ] } },
{ "type": "Feature", "properties": { "gid": 1821, "fclass": "primary", "length": 5.6799331774034174, "status": "disappeared" }, "geometry": { "type": "LineString", "coordinates": [ [ 144.893215310903116, -37.69455576924679 ], [ 144.893186436243695, -37.69460151673826 ] ] } },
{ "type": "Feature", "properties": { "gid": 1823, "fclass": "primary", "length": 27.462407649993679, "status": "disappeared" }, "geometry": { "type": "LineString", "coordinates": [ [ 144.918571961406258, -37.691028259793889 ], [ 144.918413488914581, -37.691051038615797 ], [ 144.918370152386473, -37.691165442294427 ] ] } },
{ "type": "Feature", "properties": { "gid": 1826, "fclass": "primary", "length": 56.323648804372013, "status": "disappeared" }, "geometry": { "type": "LineString", "coordinates": [ [ 144.891004237113719, -37.669492814152285 ], [ 144.890861551974297, -37.669827404122032 ], [ 144.890744371874746, -37.669950313990789 ] ] } },
{ "type": "Feature", "properties": { "gid": 1843, "fclass": "primary", "length": 20.583022149866395, "status": "disappeared" }, "geometry": { "type": "LineString", "coordinates": [ [ 144.925288319995587, -37.687050358401166 ], [ 144.925147899147333, -37.68703596657123 ], [ 144.925086737724826, -37.686981572488115 ] ] } },
{ "type": "Feature", "properties": { "gid": 1844, "fclass": "primary", "length": 22.564300424597945, "status": "disappeared" }, "geometry": { "type": "LineString", "coordinates": [ [ 144.912641916680997, -37.687087577026475 ], [ 144.912490806329828, -37.686977324604555 ], [ 144.912440398786401, -37.686972996519216 ] ] } },
{ "type": "Feature", "properties": { "gid": 1848, "fclass": "primary", "length": 25.91004612975372, "status": "disappeared" }, "geometry": { "type": "LineString", "coordinates": [ [ 144.892585162486341, -37.691969017038261 ], [ 144.892297137222727, -37.69192298516861 ] ] } },
{ "type": "Feature", "properties": { "gid": 1849, "fclass": "primary", "length": 22.719732711071394, "status": "disappeared" }, "geometry": { "type": "LineString", "coordinates": [ [ 144.927917296401517, -37.679156055103263 ], [ 144.928032687249328, -37.678973030550509 ] ] } },
{ "type": "Feature", "properties": { "gid": 1850, "fclass": "primary", "length": 20.479556989315306, "status": "disappeared" }, "geometry": { "type": "LineString", "coordinates": [ [ 144.887989710979696, -37.682512609358014 ], [ 144.88810469581054, -37.682672923871515 ] ] } },
{ "type": "Feature", "properties": { "gid": 1857, "fclass": "primary", "length": 21.707137487262063, "status": "disappeared" }, "geometry": { "type": "LineString", "coordinates": [ [ 144.92223251216538, -37.661209232673095 ], [ 144.922462820565016, -37.661278042702769 ] ] } },
{ "type": "Feature", "properties": { "gid": 1887, "fclass": "primary", "length": 17.779999999795109, "status": "disappeared" }, "geometry": { "type": "LineString", "coordinates": [ [ 144.925023543847686, -37.692611648855333 ], [ 144.925023702627414, -37.692451442571056 ] ] } },
{ "type": "Feature", "properties": { "gid": 1892, "fclass": "primary", "length": 40.638854899626253, "status": "disappeared" }, "geometry": { "type": "LineString", "coordinates": [ [ 144.909819795217857, -37.662093117340881 ], [ 144.910104342176794, -37.661950288208871 ], [ 144.910165638998421, -37.661864508360026 ] ] } },
{ "type": "Feature", "properties": { "gid": 1893, "fclass": "primary", "length": 40.353041266098423, "status": "disappeared" }, "geometry": { "type": "LineString", "coordinates": [ [ 144.926446815121636, -37.68066568568522 ], [ 144.926673624795455, -37.6806944331545 ], [ 144.926792294956812, -37.680848991153447 ] ] } },
{ "type": "Feature", "properties": { "gid": 1912, "fclass": "primary", "length": 47.452075008300454, "status": "disappeared" }, "geometry": { "type": "LineString", "coordinates": [ [ 144.890711108976916, -37.673040003774197 ], [ 144.890855712358416, -37.672628173158166 ] ] } },
{ "type": "Feature", "properties": { "gid": 1929, "fclass": "primary", "length": 2.5407166122458875, "status": "disappeared" }, "geometry": { "type": "LineString", "coordinates": [ [ 144.915584923377423, -37.682901422114284 ], [ 144.915556117779971, -37.682901401811158 ] ] } },
{ "type": "Feature", "properties": { "gid": 1930, "fclass": "primary", "length": 2.5407166127115488, "status": "disappeared" }, "geometry": { "type": "LineString", "coordinates": [ [ 144.915584923377423, -37.682901422114284 ], [ 144.915613728974904, -37.682901442410468 ] ] } },
{ "type": "Feature", "properties": { "gid": 1932, "fclass": "primary", "length": 3.5926092055679342, "status": "disappeared" }, "geometry": { "type": "LineString", "coordinates": [ [ 144.891933866385756, -37.684049642395962 ], [ 144.891962705094329, -37.684026781701505 ] ] } },
{ "type": "Feature", "properties": { "gid": 1938, "fclass": "primary", "length": 21.381589625878362, "status": "disappeared" }, "geometry": { "type": "LineString", "coordinates": [ [ 144.9159616043423, -37.654979752861813 ], [ 144.915977887261619, -37.654902520831278 ], [ 144.916076961864945, -37.654819625113468 ] ] } },
{ "type": "Feature", "properties": { "gid": 1949, "fclass": "primary", "length": 20.319999999832362, "status": "disappeared" }, "geometry": { "type": "LineString", "coordinates": [ [ 144.907877285129956, -37.672825569490954 ], [ 144.907877508032527, -37.672642475255799 ] ] } },
{ "type": "Feature", "properties": { "gid": 1951, "fclass": "primary", "length": 20.950938353164965, "status": "disappeared" }, "geometry": { "type": "LineString", "coordinates": [ [ 144.917364611912632, -37.662258769536074 ], [ 144.917595043681217, -37.662213154546968 ] ] } },
{ "type": "Feature", "properties": { "gid": 1957, "fclass": "primary", "length": 35.931596488690118, "status": "disappeared" }, "geometry": { "type": "LineString", "coordinates": [ [ 144.921354607499751, -37.674666120593137 ], [ 144.921214180594717, -37.674680332542124 ], [ 144.920980055967362, -37.67478030797448 ] ] } },
{ "type": "Feature", "properties": { "gid": 1960, "fclass": "primary", "length": 3.5926092055679342, "status": "disappeared" }, "geometry": { "type": "LineString", "coordinates": [ [ 144.912353699198661, -37.66234675448154 ], [ 144.912382523468352, -37.662323888685776 ] ] } },
{ "type": "Feature", "properties": { "gid": 1961, "fclass": "primary", "length": 2.5407166122458875, "status": "disappeared" }, "geometry": { "type": "LineString", "coordinates": [ [ 144.912353699198661, -37.66234675448154 ], [ 144.91238249697173, -37.662346775554902 ] ] } },
{ "type": "Feature", "properties": { "gid": 1962, "fclass": "primary", "length": 2.5400000000372529, "status": "disappeared" }, "geometry": { "type": "LineString", "coordinates": [ [ 144.912353699198661, -37.66234675448154 ], [ 144.912353672693342, -37.662369641350423 ] ] } },
{ "type": "Feature", "properties": { "gid": 1967, "fclass": "primary", "length": 21.799565955102985, "status": "disappeared" }, "geometry": { "type": "LineString", "coordinates": [ [ 144.896986015018228, -37.675906413730893 ], [ 144.897002310125828, -37.675837767414833 ], [ 144.897158957016529, -37.675815015240126 ] ] } },
{ "type": "Feature", "properties": { "gid": 1968, "fclass": "primary", "length": 18.49187290742184, "status": "disappeared" }, "geometry": { "type": "LineString", "coordinates": [ [ 144.891354985181437, -37.685971601507354 ], [ 144.891412368760086, -37.686131860369635 ] ] } },
{ "type": "Feature", "properties": { "gid": 1971, "fclass": "primary", "length": 23.423938893000763, "status": "disappeared" }, "geometry": { "type": "LineString", "coordinates": [ [ 144.909173089624062, -37.673055427152349 ], [ 144.908913928095444, -37.673009456743188 ] ] } },
{ "type": "Feature", "properties": { "gid": 1972, "fclass": "primary", "length": 42.138931739879929, "status": "disappeared" }, "geometry": { "type": "LineString", "coordinates": [ [ 144.922477036038885, -37.675513663109008 ], [ 144.922315061482891, -37.675473506308407 ], [ 144.922228636996323, -37.675489184880178 ], [ 144.922136769266075, -37.675546342128591 ], [ 144.922131284835245, -37.675627872693042 ] ] } },
{ "type": "Feature", "properties": { "gid": 1980, "fclass": "primary", "length": 29.218397741122217, "status": "disappeared" }, "geometry": { "type": "LineString", "coordinates": [ [ 144.922779315568476, -37.689772280168128 ], [ 144.922696392558436, -37.689869494951544 ], [ 144.922519900993251, -37.689909432571511 ] ] } },
{ "type": "Feature", "properties": { "gid": 1983, "fclass": "primary", "length": 20.482490188439584, "status": "disappeared" }, "geometry": { "type": "LineString", "coordinates": [ [ 144.927734263248425, -37.689844031563517 ], [ 144.927532693232791, -37.689752363202665 ] ] } },
{ "type": "Feature", "properties": { "gid": 1986, "fclass": "primary", "length": 31.755509000070262, "status": "disappeared" }, "geometry": { "type": "LineString", "coordinates": [ [ 144.889695338069487, -37.67832591881087 ], [ 144.889922147559759, -37.67834043168839 ], [ 144.890012047319061, -37.678417757077689 ] ] } },
{ "type": "Feature", "properties": { "gid": 1989, "fclass": "primary", "length": 66.817403829199023, "status": "disappeared" }, "geometry": { "type": "LineString", "coordinates": [ [ 144.894559867343133, -37.660043719101488 ], [ 144.894443849845146, -37.660638676545794 ] ] } },
{ "type": "Feature", "properties": { "gid": 1990, "fclass": "primary", "length": 43.190230058075969, "status": "disappeared" }, "geometry": { "type": "LineString", "coordinates": [ [ 144.890434063803525, -37.685352822001526 ], [ 144.890347725086968, -37.685296956677462 ], [ 144.890320816453084, -37.685229702369504 ], [ 144.890324616325842, -37.685092385658791 ], [ 144.890376948178869, -37.685009469275691 ] ] } },
{ "type": "Feature", "properties": { "gid": 1992, "fclass": "primary", "length": 18.0948301437572, "status": "disappeared" }, "geometry": { "type": "LineString", "coordinates": [ [ 144.904878248427366, -37.675729847312923 ], [ 144.90497007372548, -37.675717046391242 ], [ 144.905022377658952, -37.675638414584633 ] ] } },
{ "type": "Feature", "properties": { "gid": 1996, "fclass": "primary", "length": 25.526755393097087, "status": "disappeared" }, "geometry": { "type": "LineString", "coordinates": [ [ 144.929418977726243, -37.675014445998649 ], [ 144.929389961558655, -37.675243296654997 ] ] } },
{ "type": "Feature", "properties": { "gid": 2002, "fclass": "primary", "length": 17.04268384277599, "status": "disappeared" }, "geometry": { "type": "LineString", "coordinates": [ [ 144.918492143757305, -37.684894578698085 ], [ 144.918319379740694, -37.68482580093842 ] ] } },
{ "type": "Feature", "properties": { "gid": 2003, "fclass": "primary", "length": 29.737346038843512, "status": "disappeared" }, "geometry": { "type": "LineString", "coordinates": [ [ 144.899901317624369, -37.671217092481463 ], [ 144.900218250936177, -37.671125809682593 ] ] } },
{ "type": "Feature", "properties": { "gid": 2004, "fclass": "primary", "length": 19.024270675906635, "status": "disappeared" }, "geometry": { "type": "LineString", "coordinates": [ [ 144.894592630107411, -37.677872593451497 ], [ 144.894689782790749, -37.677915591582995 ], [ 144.894794192200493, -37.677918544180045 ] ] } },
{ "type": "Feature", "properties": { "gid": 2006, "fclass": "primary", "length": 42.04660276750203, "status": "disappeared" }, "geometry": { "type": "LineString", "coordinates": [ [ 144.893400232872011, -37.685996325675461 ], [ 144.893199070108778, -37.685652846120028 ] ] } },
{ "type": "Feature", "properties": { "gid": 2009, "fclass": "primary", "length": 18.317790654883936, "status": "disappeared" }, "geometry": { "type": "LineString", "coordinates": [ [ 144.931308958487875, -37.687122622022009 ], [ 144.931193854541732, -37.686985235928539 ] ] } },
{ "type": "Feature", "properties": { "gid": 2010, "fclass": "primary", "length": 22.719732711071394, "status": "disappeared" }, "geometry": { "type": "LineString", "coordinates": [ [ 144.890033400445532, -37.683544405207577 ], [ 144.890148357944952, -37.683727604377161 ] ] } },
{ "type": "Feature", "properties": { "gid": 2014, "fclass": "primary", "length": 19.220187479372669, "status": "disappeared" }, "geometry": { "type": "LineString", "coordinates": [ [ 144.922509846731913, -37.671600043142604 ], [ 144.922579979646997, -37.671668748919387 ], [ 144.922682560976966, -37.671691701992188 ] ] } },
{ "type": "Feature", "properties": { "gid": 2015, "fclass": "primary", "length": 2.5407166122458875, "status": "disappeared" }, "geometry": { "type": "LineString", "coordinates": [ [ 144.891991511113048, -37.684026807678194 ], [ 144.891962705094329, -37.684026781701505 ] ] } },
{ "type": "Feature", "properties": { "gid": 2017, "fclass": "primary", "length": 17.960613600221354, "status": "disappeared" }, "geometry": { "type": "LineString", "coordinates": [ [ 144.916670562512081, -37.691049838963998 ], [ 144.916699194807336, -37.691210065357069 ] ] } },
{ "type": "Feature", "properties": { "gid": 2025, "fclass": "primary", "length": 22.723578456965292, "status": "disappeared" }, "geometry": { "type": "LineString", "coordinates": [ [ 144.891932787608567, -37.684804902661476 ], [ 144.891702468130347, -37.68471314785382 ] ] } },
{ "type": "Feature", "properties": { "gid": 2029, "fclass": "primary", "length": 26.63896618260339, "status": "disappeared" }, "geometry": { "type": "LineString", "coordinates": [ [ 144.898390222781103, -37.659772387545125 ], [ 144.89855226607736, -37.659726751105495 ], [ 144.898649547128713, -37.659658172737011 ] ] } },
{ "type": "Feature", "properties": { "gid": 2034, "fclass": "primary", "length": 12.955023064648548, "status": "disappeared" }, "geometry": { "type": "LineString", "coordinates": [ [ 144.912085138759693, -37.695211927228655 ], [ 144.911941060697188, -37.695234708022149 ] ] } },
{ "type": "Feature", "properties": { "gid": 2037, "fclass": "primary", "length": 24.834557976258559, "status": "disappeared" }, "geometry": { "type": "LineString", "coordinates": [ [ 144.905247985216505, -37.656482292836387 ], [ 144.905334441611018, -37.656426574301186 ], [ 144.905392191781857, -37.656299311335125 ] ] } },
{ "type": "Feature", "properties": { "gid": 2038, "fclass": "primary", "length": 20.483823321771521, "status": "disappeared" }, "geometry": { "type": "LineString", "coordinates": [ [ 144.914965086735521, -37.696175243166294 ], [ 144.914734627317785, -37.696152192777468 ] ] } },
{ "type": "Feature", "properties": { "gid": 2039, "fclass": "primary", "length": 2.5400000000372529, "status": "disappeared" }, "geometry": { "type": "LineString", "coordinates": [ [ 144.914965086735521, -37.696175243166294 ], [ 144.914965061008388, -37.696198129744424 ] ] } },
{ "type": "Feature", "properties": { "gid": 2041, "fclass": "primary", "length": 17.963046028168989, "status": "disappeared" }, "geometry": { "type": "LineString", "coordinates": [ [ 144.919598167914245, -37.674184331943202 ], [ 144.919742300688455, -37.674069994679613 ] ] } },
{ "type": "Feature", "properties": { "gid": 2043, "fclass": "primary", "length": 20.483823321713782, "status": "disappeared" }, "geometry": { "type": "LineString", "coordinates": [ [ 144.926414248665964, -37.684533520025937 ], [ 144.926644676249026, -37.684556548049628 ] ] } },
{ "type": "Feature", "properties": { "gid": 2047, "fclass": "primary", "length": 23.53223696300352, "status": "disappeared" }, "geometry": { "type": "LineString", "coordinates": [ [ 144.890725533801117, -37.682995757446335 ], [ 144.890603205031283, -37.682929846478444 ], [ 144.890610542926481, -37.682835445468235 ] ] } },
{ "type": "Feature", "properties": { "gid": 2048, "fclass": "primary", "length": 20.319999999832362, "status": "disappeared" }, "geometry": { "type": "LineString", "coordinates": [ [ 144.918319379740694, -37.68482580093842 ], [ 144.918319577408681, -37.684642707511365 ] ] } },
{ "type": "Feature", "properties": { "gid": 2050, "fclass": "primary", "length": 26.19324423837007, "status": "disappeared" }, "geometry": { "type": "LineString", "coordinates": [ [ 144.928081048155519, -37.65839779840514 ], [ 144.927983877062218, -37.65838057481642 ], [ 144.927793063575962, -37.658420512016299 ] ] } },
{ "type": "Feature", "properties": { "gid": 2051, "fclass": "primary", "length": 12.951650122538268, "status": "disappeared" }, "geometry": { "type": "LineString", "coordinates": [ [ 144.921565619205268, -37.665603078204512 ], [ 144.921594536778855, -37.665488662843934 ] ] } },
{ "type": "Feature", "properties": { "gid": 2054, "fclass": "primary", "length": 21.293518716347609, "status": "disappeared" }, "geometry": { "type": "LineString", "coordinates": [ [ 144.931400194627201, -37.681812961053311 ], [ 144.931241806396741, -37.68176852722442 ], [ 144.931198641565942, -37.681721298582289 ] ] } },
{ "type": "Feature", "properties": { "gid": 2055, "fclass": "primary", "length": 25.795426401331095, "status": "disappeared" }, "geometry": { "type": "LineString", "coordinates": [ [ 144.910122789456238, -37.673696973837465 ], [ 144.91020921100872, -37.673684164836878 ], [ 144.910295791930764, -37.673536895985485 ] ] } },
{ "type": "Feature", "properties": { "gid": 2064, "fclass": "primary", "length": 22.86644951114431, "status": "disappeared" }, "geometry": { "type": "LineString", "coordinates": [ [ 144.923661159795159, -37.672333160238487 ], [ 144.923920373984316, -37.672333325176325 ] ] } },
{ "type": "Feature", "properties": { "gid": 2071, "fclass": "primary", "length": 44.936469003387799, "status": "disappeared" }, "geometry": { "type": "LineString", "coordinates": [ [ 144.895918226490835, -37.698357323273456 ], [ 144.895860869384592, -37.698164167890305 ], [ 144.89560158451971, -37.698151068538145 ] ] } },
{ "type": "Feature", "properties": { "gid": 2074, "fclass": "primary", "length": 40.848988947241089, "status": "disappeared" }, "geometry": { "type": "LineString", "coordinates": [ [ 144.926724964294891, -37.661143405154682 ], [ 144.926633164521036, -37.661151931533652 ], [ 144.926544894975422, -37.661231981555552 ], [ 144.926580711270248, -37.661417959535022 ] ] } },
{ "type": "Feature", "properties": { "gid": 2081, "fclass": "primary", "length": 35.658437416710981, "status": "disappeared" }, "geometry": { "type": "LineString", "coordinates": [ [ 144.888797339747214, -37.681780986645613 ], [ 144.888808381327834, -37.681617928954068 ], [ 144.888912997232694, -37.681483566481425 ] ] } },
{ "type": "Feature", "properties": { "gid": 2083, "fclass": "primary", "length": 11.359866355639788, "status": "disappeared" }, "geometry": { "type": "LineString", "coordinates": [ [ 144.896638003843094, -37.677645508352121 ], [ 144.896695486037487, -37.677737104986512 ] ] } },
{ "type": "Feature", "properties": { "gid": 2087, "fclass": "primary", "length": 31.608441727053684, "status": "disappeared" }, "geometry": { "type": "LineString", "coordinates": [ [ 144.927818716717667, -37.661716241746738 ], [ 144.927797044872136, -37.661793471936775 ], [ 144.927827576809534, -37.661862151010752 ], [ 144.92788871853881, -37.661917974636367 ], [ 144.927962508339732, -37.66192231033925 ] ] } },
{ "type": "Feature", "properties": { "gid": 2094, "fclass": "primary", "length": 22.473670614701305, "status": "disappeared" }, "geometry": { "type": "LineString", "coordinates": [ [ 144.925175649053386, -37.684464092671469 ], [ 144.925262122745721, -37.684408360332071 ], [ 144.92531983816346, -37.684303975771918 ] ] } },
{ "type": "Feature", "properties": { "gid": 2095, "fclass": "primary", "length": 5.0800000000745058, "status": "disappeared" }, "geometry": { "type": "LineString", "coordinates": [ [ 144.912382523468352, -37.662323888685776 ], [ 144.912382576461482, -37.662278114946986 ] ] } },
{ "type": "Feature", "properties": { "gid": 2096, "fclass": "primary", "length": 2.5400000000372529, "status": "disappeared" }, "geometry": { "type": "LineString", "coordinates": [ [ 144.912382523468352, -37.662323888685776 ], [ 144.91238249697173, -37.662346775554902 ] ] } },
{ "type": "Feature", "properties": { "gid": 2097, "fclass": "primary", "length": 3.592609205897253, "status": "disappeared" }, "geometry": { "type": "LineString", "coordinates": [ [ 144.912382523468352, -37.662323888685776 ], [ 144.912411294744857, -37.662346796621343 ] ] } },
{ "type": "Feature", "properties": { "gid": 2099, "fclass": "primary", "length": 21.569124258853329, "status": "disappeared" }, "geometry": { "type": "LineString", "coordinates": [ [ 144.920336199848435, -37.657111228617239 ], [ 144.920427999942063, -37.657098415756096 ], [ 144.920509094734342, -37.656996908858332 ] ] } },
{ "type": "Feature", "properties": { "gid": 2103, "fclass": "primary", "length": 21.187113165051251, "status": "disappeared" }, "geometry": { "type": "LineString", "coordinates": [ [ 144.889527259965462, -37.675075842359924 ], [ 144.889462291103598, -37.675187355495403 ], [ 144.889383046168831, -37.675213029967679 ] ] } },
{ "type": "Feature", "properties": { "gid": 2114, "fclass": "primary", "length": 23.928191457313606, "status": "disappeared" }, "geometry": { "type": "LineString", "coordinates": [ [ 144.913241014926399, -37.692191736207057 ], [ 144.913384942681233, -37.692294830191372 ], [ 144.913413686367051, -37.692352067545229 ] ] } },
{ "type": "Feature", "properties": { "gid": 2120, "fclass": "primary", "length": 15.454458015838144, "status": "disappeared" }, "geometry": { "type": "LineString", "coordinates": [ [ 144.893275029723981, -37.693068192006422 ], [ 144.893102205292848, -37.693045151294562 ] ] } },
{ "type": "Feature", "properties": { "gid": 2124, "fclass": "primary", "length": 20.354954014612872, "status": "disappeared" }, "geometry": { "type": "LineString", "coordinates": [ [ 144.895348741143891, -37.693481980672324 ], [ 144.895305627674077, -37.693408991886763 ], [ 144.895204883269088, -37.693344535171036 ] ] } },
{ "type": "Feature", "properties": { "gid": 2130, "fclass": "primary", "length": 7.6221498372033238, "status": "disappeared" }, "geometry": { "type": "LineString", "coordinates": [ [ 144.928025545029271, -37.656200619967059 ], [ 144.928111931345001, -37.656200671860411 ] ] } },
{ "type": "Feature", "properties": { "gid": 2131, "fclass": "primary", "length": 29.737346039281153, "status": "disappeared" }, "geometry": { "type": "LineString", "coordinates": [ [ 144.896714386208174, -37.684992214495288 ], [ 144.896397641302542, -37.684900394177937 ] ] } },
{ "type": "Feature", "properties": { "gid": 2139, "fclass": "primary", "length": 3.5926092055679342, "status": "disappeared" }, "geometry": { "type": "LineString", "coordinates": [ [ 144.912353672693342, -37.662369641350423 ], [ 144.91238249697173, -37.662346775554902 ] ] } },
{ "type": "Feature", "properties": { "gid": 2143, "fclass": "primary", "length": 20.583022149866395, "status": "disappeared" }, "geometry": { "type": "LineString", "coordinates": [ [ 144.924078510331952, -37.686958051071109 ], [ 144.923938089885155, -37.68694365782261 ], [ 144.923876929407101, -37.686889263119859 ] ] } },
{ "type": "Feature", "properties": { "gid": 2147, "fclass": "primary", "length": 20.478223577667311, "status": "disappeared" }, "geometry": { "type": "LineString", "coordinates": [ [ 144.92894401245232, -37.659382450904026 ], [ 144.928915387771099, -37.659199338627317 ] ] } },
{ "type": "Feature", "properties": { "gid": 2153, "fclass": "primary", "length": 2.5407166127115488, "status": "disappeared" }, "geometry": { "type": "LineString", "coordinates": [ [ 144.912411294744857, -37.662346796621343 ], [ 144.91238249697173, -37.662346775554902 ] ] } },
{ "type": "Feature", "properties": { "gid": 2154, "fclass": "primary", "length": 17.960613600221354, "status": "disappeared" }, "geometry": { "type": "LineString", "coordinates": [ [ 144.90239663659068, -37.65693774141279 ], [ 144.90236763421683, -37.65709792632083 ] ] } },
{ "type": "Feature", "properties": { "gid": 2156, "fclass": "primary", "length": 19.84032818811724, "status": "disappeared" }, "geometry": { "type": "LineString", "coordinates": [ [ 144.915613728974904, -37.682901442410468 ], [ 144.915757604065448, -37.683038863946045 ] ] } },
{ "type": "Feature", "properties": { "gid": 2162, "fclass": "primary", "length": 32.863195595530527, "status": "disappeared" }, "geometry": { "type": "LineString", "coordinates": [ [ 144.927377046508894, -37.671831961381578 ], [ 144.927575135447569, -37.671749116663669 ], [ 144.927722728730203, -37.67176351007658 ] ] } },
{ "type": "Feature", "properties": { "gid": 2171, "fclass": "primary", "length": 33.201157099557918, "status": "disappeared" }, "geometry": { "type": "LineString", "coordinates": [ [ 144.894708818897499, -37.656473489493081 ], [ 144.894854423399039, -37.656598065181932 ], [ 144.894881242441727, -37.656725397336764 ] ] } },
{ "type": "Feature", "properties": { "gid": 2180, "fclass": "tertiary", "length": 33.027938025689629, "status": "disappeared" }, "geometry": { "type": "LineString", "coordinates": [ [ 144.900247082216595, -37.671102946882755 ], [ 144.899901317624369, -37.671217092481463 ] ] } },
{ "type": "Feature", "properties": { "gid": 2186, "fclass": "tertiary", "length": 24.879469413170799, "status": "disappeared" }, "geometry": { "type": "LineString", "coordinates": [ [ 144.922261356525752, -37.661163477609016 ], [ 144.922277484509692, -37.661232148765954 ], [ 144.922462820565016, -37.661278042702769 ] ] } },
{ "type": "Feature", "properties": { "gid": 2216, "fclass": "tertiary", "length": 46.1448201036482, "status": "disappeared" }, "geometry": { "type": "LineString", "coordinates": [ [ 144.888768500938227, -37.681803846597376 ], [ 144.888808423370648, -37.681589320581274 ], [ 144.888970674501735, -37.681437846495662 ] ] } },
{ "type": "Feature", "properties": { "gid": 2218, "fclass": "tertiary", "length": 28.546176622703406, "status": "disappeared" }, "geometry": { "type": "LineString", "coordinates": [ [ 144.910458164055541, -37.658019726695372 ], [ 144.910353910252411, -37.657908074928436 ], [ 144.910372046707579, -37.65779079300394 ] ] } },
{ "type": "Feature", "properties": { "gid": 2219, "fclass": "tertiary", "length": 20.625779190185735, "status": "disappeared" }, "geometry": { "type": "LineString", "coordinates": [ [ 144.904878277198435, -37.675706960559822 ], [ 144.90498632023764, -37.675681298692581 ], [ 144.905013382161599, -37.675634116180504 ], [ 144.904993632301654, -37.675592618233445 ] ] } },
{ "type": "Feature", "properties": { "gid": 2224, "fclass": "tertiary", "length": 28.39831973227604, "status": "disappeared" }, "geometry": { "type": "LineString", "coordinates": [ [ 144.907848455498652, -37.672848434112744 ], [ 144.90790636543062, -37.672596723844755 ] ] } },
{ "type": "Feature", "properties": { "gid": 2226, "fclass": "tertiary", "length": 2.5407166122458875, "status": "disappeared" }, "geometry": { "type": "LineString", "coordinates": [ [ 144.887901904393772, -37.683450882649723 ], [ 144.887930710191796, -37.683450909602918 ] ] } },
{ "type": "Feature", "properties": { "gid": 2227, "fclass": "tertiary", "length": 2.5400000000372529, "status": "disappeared" }, "geometry": { "type": "LineString", "coordinates": [ [ 144.887901904393772, -37.683450882649723 ], [ 144.887901870484484, -37.683473769331655 ] ] } },
{ "type": "Feature", "properties": { "gid": 2240, "fclass": "tertiary", "length": 23.007088326583119, "status": "disappeared" }, "geometry": { "type": "LineString", "coordinates": [ [ 144.914993897387376, -37.696175263611416 ], [ 144.914734627317785, -37.696152192777468 ] ] } },
{ "type": "Feature", "properties": { "gid": 2245, "fclass": "tertiary", "length": 40.232802134797957, "status": "disappeared" }, "geometry": { "type": "LineString", "coordinates": [ [ 144.927991327731434, -37.66189944078323 ], [ 144.927894123542814, -37.661912256168762 ], [ 144.927807789380438, -37.66185069563889 ], [ 144.927793488848266, -37.661747696012284 ], [ 144.927847557893955, -37.661670485345802 ] ] } },
{ "type": "Feature", "properties": { "gid": 2246, "fclass": "tertiary", "length": 23.000757398813438, "status": "disappeared" }, "geometry": { "type": "LineString", "coordinates": [ [ 144.918319404449221, -37.684802914260729 ], [ 144.918348433069269, -37.684596953791178 ] ] } },
{ "type": "Feature", "properties": { "gid": 2247, "fclass": "tertiary", "length": 3.5926092052387086, "status": "disappeared" }, "geometry": { "type": "LineString", "coordinates": [ [ 144.918319404449221, -37.684802914260729 ], [ 144.91829057340982, -37.684825781292879 ] ] } },
{ "type": "Feature", "properties": { "gid": 2248, "fclass": "tertiary", "length": 2.5399999995715916, "status": "disappeared" }, "geometry": { "type": "LineString", "coordinates": [ [ 144.918319404449221, -37.684802914260729 ], [ 144.918319379740694, -37.68482580093842 ] ] } },
{ "type": "Feature", "properties": { "gid": 2249, "fclass": "tertiary", "length": 3.5926092052387086, "status": "disappeared" }, "geometry": { "type": "LineString", "coordinates": [ [ 144.918319404449221, -37.684802914260729 ], [ 144.918348186071597, -37.684825820577018 ] ] } },
{ "type": "Feature", "properties": { "gid": 2254, "fclass": "tertiary", "length": 27.003873876327589, "status": "disappeared" }, "geometry": { "type": "LineString", "coordinates": [ [ 144.925377473004687, -37.684281124991742 ], [ 144.925175649053386, -37.684464092671469 ] ] } },
{ "type": "Feature", "properties": { "gid": 2299, "fclass": "tertiary", "length": 18.317790654883936, "status": "disappeared" }, "geometry": { "type": "LineString", "coordinates": [ [ 144.931280172067886, -37.687099718839882 ], [ 144.931165068208884, -37.686962332717556 ] ] } },
{ "type": "Feature", "properties": { "gid": 2301, "fclass": "tertiary", "length": 37.047501919248752, "status": "disappeared" }, "geometry": { "type": "LineString", "coordinates": [ [ 144.894534770040025, -37.657388813870263 ], [ 144.894632087571722, -37.657294490935435 ], [ 144.894707959241089, -37.657091436113227 ] ] } },
{ "type": "Feature", "properties": { "gid": 2302, "fclass": "tertiary", "length": 3.5926092055679342, "status": "disappeared" }, "geometry": { "type": "LineString", "coordinates": [ [ 144.887901870484484, -37.683473769331655 ], [ 144.887930710191796, -37.683450909602918 ] ] } },
{ "type": "Feature", "properties": { "gid": 2303, "fclass": "tertiary", "length": 3.5926092055679342, "status": "disappeared" }, "geometry": { "type": "LineString", "coordinates": [ [ 144.887901870484484, -37.683473769331655 ], [ 144.887873030759721, -37.683496629053202 ] ] } },
{ "type": "Feature", "properties": { "gid": 2309, "fclass": "tertiary", "length": 28.399665888891292, "status": "disappeared" }, "geometry": { "type": "LineString", "coordinates": [ [ 144.927917296401517, -37.679156055103263 ], [ 144.928061534874047, -37.678927274392947 ] ] } },
{ "type": "Feature", "properties": { "gid": 2311, "fclass": "tertiary", "length": 26.788008836517378, "status": "disappeared" }, "geometry": { "type": "LineString", "coordinates": [ [ 144.926385464712837, -37.684510615645195 ], [ 144.926504245875947, -37.684556461972043 ], [ 144.926673504660783, -37.684533679004566 ] ] } },
{ "type": "Feature", "properties": { "gid": 2317, "fclass": "tertiary", "length": 10.475469176582482, "status": "disappeared" }, "geometry": { "type": "LineString", "coordinates": [ [ 144.891847415587591, -37.684072451081299 ], [ 144.891962672413172, -37.684049668379579 ] ] } },
{ "type": "Feature", "properties": { "gid": 2321, "fclass": "tertiary", "length": 33.319722775605804, "status": "disappeared" }, "geometry": { "type": "LineString", "coordinates": [ [ 144.88998321015896, -37.678440617350851 ], [ 144.889977894707016, -37.6783819651546 ], [ 144.88992934436132, -37.678343299146746 ], [ 144.889695338069487, -37.67832591881087 ] ] } },
{ "type": "Feature", "properties": { "gid": 2322, "fclass": "tertiary", "length": 56.467960571734267, "status": "disappeared" }, "geometry": { "type": "LineString", "coordinates": [ [ 144.889604184849929, -37.68157575240857 ], [ 144.889546436860172, -37.681670106930426 ], [ 144.889596470117397, -37.681927628740731 ], [ 144.889517067778399, -37.682056293364084 ] ] } },
{ "type": "Feature", "properties": { "gid": 2323, "fclass": "tertiary", "length": 30.428402404156778, "status": "disappeared" }, "geometry": { "type": "LineString", "coordinates": [ [ 144.89011951880218, -37.683750464637377 ], [ 144.890135834291812, -37.683673236953098 ], [ 144.890045988446502, -37.683554429699491 ], [ 144.890062272791567, -37.683498658284179 ] ] } },
{ "type": "Feature", "properties": { "gid": 2336, "fclass": "tertiary", "length": 20.380000130169705, "status": "disappeared" }, "geometry": { "type": "LineString", "coordinates": [ [ 144.916048166954738, -37.654819604928484 ], [ 144.915967095511007, -37.654896791520592 ], [ 144.9159616043423, -37.654979752861813 ] ] } },
{ "type": "Feature", "properties": { "gid": 2341, "fclass": "tertiary", "length": 24.097235694884535, "status": "disappeared" }, "geometry": { "type": "LineString", "coordinates": [ [ 144.891962672413172, -37.684049668379579 ], [ 144.892049384390077, -37.683843766178811 ] ] } },
{ "type": "Feature", "properties": { "gid": 2342, "fclass": "tertiary", "length": 5.679933177819894, "status": "disappeared" }, "geometry": { "type": "LineString", "coordinates": [ [ 144.891962672413172, -37.684049668379579 ], [ 144.891991413095639, -37.684095467711863 ] ] } },
{ "type": "Feature", "properties": { "gid": 2343, "fclass": "tertiary", "length": 52.715571822784213, "status": "disappeared" }, "geometry": { "type": "LineString", "coordinates": [ [ 144.89043462725121, -37.68496374864587 ], [ 144.890312038401106, -37.685075209118018 ], [ 144.890290334025593, -37.685143849338324 ], [ 144.890347727160105, -37.685295526260759 ], [ 144.890462903462037, -37.685329961679415 ] ] } },
{ "type": "Feature", "properties": { "gid": 2346, "fclass": "tertiary", "length": 28.055281871701446, "status": "disappeared" }, "geometry": { "type": "LineString", "coordinates": [ [ 144.916699446814505, -37.690981199128352 ], [ 144.916670360836406, -37.691232931943745 ] ] } },
{ "type": "Feature", "properties": { "gid": 2347, "fclass": "tertiary", "length": 30.104567512110158, "status": "disappeared" }, "geometry": { "type": "LineString", "coordinates": [ [ 144.929986876795112, -37.683826173760224 ], [ 144.929824843309149, -37.683826078946225 ], [ 144.929745681396128, -37.683767385373187 ], [ 144.929756535413361, -37.683711605403197 ] ] } },
{ "type": "Feature", "properties": { "gid": 2350, "fclass": "tertiary", "length": 39.344000020289741, "status": "disappeared" }, "geometry": { "type": "LineString", "coordinates": [ [ 144.894737678090763, -37.656427740980355 ], [ 144.89474299568937, -37.656486393445142 ], [ 144.894823891703084, -37.656552264485363 ], [ 144.894870543424844, -37.656653866254651 ], [ 144.894852415017283, -37.656748258966985 ] ] } },
{ "type": "Feature", "properties": { "gid": 2353, "fclass": "tertiary", "length": 45.797815684246522, "status": "disappeared" }, "geometry": { "type": "LineString", "coordinates": [ [ 144.909819795217857, -37.662093117340881 ], [ 144.91008274056162, -37.661953132852581 ], [ 144.910194490903621, -37.661818756213982 ] ] } },
{ "type": "Feature", "properties": { "gid": 2359, "fclass": "tertiary", "length": 25.910046129662422, "status": "disappeared" }, "geometry": { "type": "LineString", "coordinates": [ [ 144.928081069903556, -37.658374911499386 ], [ 144.927793063575962, -37.658420512016299 ] ] } },
{ "type": "Feature", "properties": { "gid": 2364, "fclass": "tertiary", "length": 25.91004612975372, "status": "disappeared" }, "geometry": { "type": "LineString", "coordinates": [ [ 144.917623866316404, -37.662190287488521 ], [ 144.917335839170306, -37.662235862789849 ] ] } },
{ "type": "Feature", "properties": { "gid": 2371, "fclass": "tertiary", "length": 34.995483479538272, "status": "disappeared" }, "geometry": { "type": "LineString", "coordinates": [ [ 144.929476625584527, -37.674968706401785 ], [ 144.929400914710584, -37.675080234835654 ], [ 144.929361137507414, -37.675266166433779 ] ] } },
{ "type": "Feature", "properties": { "gid": 2372, "fclass": "tertiary", "length": 25.955733319767603, "status": "disappeared" }, "geometry": { "type": "LineString", "coordinates": [ [ 144.925829710519196, -37.693115656379668 ], [ 144.925845848554246, -37.693184326231737 ], [ 144.925988038159915, -37.693243061121855 ], [ 144.926031265054604, -37.693230214094946 ] ] } },
{ "type": "Feature", "properties": { "gid": 2378, "fclass": "tertiary", "length": 37.890620827477534, "status": "disappeared" }, "geometry": { "type": "LineString", "coordinates": [ [ 144.899205029604531, -37.675015717260997 ], [ 144.899286204432912, -37.674889908234277 ], [ 144.899450093026161, -37.674834259393343 ], [ 144.899493359507602, -37.674787091713569 ] ] } },
{ "type": "Feature", "properties": { "gid": 2379, "fclass": "tertiary", "length": 49.959841668370132, "status": "disappeared" }, "geometry": { "type": "LineString", "coordinates": [ [ 144.92244818633867, -37.675559417980182 ], [ 144.922432055146061, -37.675490747213161 ], [ 144.922264675736443, -37.675454878113825 ], [ 144.922152984085244, -37.675533478858249 ], [ 144.922102458443703, -37.675650740721601 ] ] } },
{ "type": "Feature", "properties": { "gid": 2386, "fclass": "tertiary", "length": 31.379362152780715, "status": "disappeared" }, "geometry": { "type": "LineString", "coordinates": [ [ 144.918341318937593, -37.691188309283667 ], [ 144.918413488914581, -37.691051038615797 ], [ 144.918571986040405, -37.691005373169951 ] ] } },
{ "type": "Feature", "properties": { "gid": 2394, "fclass": "tertiary", "length": 62.779393285607547, "status": "disappeared" }, "geometry": { "type": "LineString", "coordinates": [ [ 144.891033103511631, -37.669447066753541 ], [ 144.890964566370059, -37.669541412561458 ], [ 144.89089041858611, -37.669781656763384 ], [ 144.89080382277416, -37.669916037966196 ], [ 144.890744371874746, -37.669950313990789 ] ] } },
{ "type": "Feature", "properties": { "gid": 2401, "fclass": "tertiary", "length": 2.5400000000372529, "status": "disappeared" }, "geometry": { "type": "LineString", "coordinates": [ [ 144.891991347750576, -37.684141241066705 ], [ 144.891991380423121, -37.684118354389369 ] ] } },
{ "type": "Feature", "properties": { "gid": 2402, "fclass": "tertiary", "length": 3.5926092055679342, "status": "disappeared" }, "geometry": { "type": "LineString", "coordinates": [ [ 144.891991347750576, -37.684141241066705 ], [ 144.892020186476714, -37.684118380359202 ] ] } },
{ "type": "Feature", "properties": { "gid": 2408, "fclass": "tertiary", "length": 62.348545497825569, "status": "disappeared" }, "geometry": { "type": "LineString", "coordinates": [ [ 144.92581999922615, -37.673639064095156 ], [ 144.925485108911687, -37.67370608615704 ], [ 144.925186127319478, -37.673867537716454 ] ] } },
{ "type": "Feature", "properties": { "gid": 2409, "fclass": "tertiary", "length": 22.065167267415816, "status": "disappeared" }, "geometry": { "type": "LineString", "coordinates": [ [ 144.891354722254079, -37.686154694790524 ], [ 144.891383689261801, -37.686043148445435 ], [ 144.891326178422446, -37.685971575377572 ] ] } },
{ "type": "Feature", "properties": { "gid": 2415, "fclass": "tertiary", "length": 27.435088920279853, "status": "disappeared" }, "geometry": { "type": "LineString", "coordinates": [ [ 144.888018584167696, -37.682466862909401 ], [ 144.888000491845645, -37.68252692363972 ], [ 144.888070578154071, -37.682612814354655 ], [ 144.888075856452332, -37.682695783648803 ] ] } },
{ "type": "Feature", "properties": { "gid": 2420, "fclass": "tertiary", "length": 20.945724232687994, "status": "disappeared" }, "geometry": { "type": "LineString", "coordinates": [ [ 144.914365115229685, -37.691711925690861 ], [ 144.914422940250319, -37.691528873920277 ] ] } },
{ "type": "Feature", "properties": { "gid": 2426, "fclass": "tertiary", "length": 28.968060850851334, "status": "disappeared" }, "geometry": { "type": "LineString", "coordinates": [ [ 144.89671441745233, -37.684969327824064 ], [ 144.896397641302542, -37.684900394177937 ] ] } },
{ "type": "Feature", "properties": { "gid": 2429, "fclass": "tertiary", "length": 23.421451797941749, "status": "disappeared" }, "geometry": { "type": "LineString", "coordinates": [ [ 144.915556117779971, -37.682901401811158 ], [ 144.915757604065448, -37.683038863946045 ] ] } },
{ "type": "Feature", "properties": { "gid": 2436, "fclass": "tertiary", "length": 33.487625278339621, "status": "disappeared" }, "geometry": { "type": "LineString", "coordinates": [ [ 144.898707201882843, -37.659612447690421 ], [ 144.898566687468588, -37.65970959813653 ], [ 144.898390222781103, -37.659772387545125 ] ] } },
{ "type": "Feature", "properties": { "gid": 2437, "fclass": "tertiary", "length": 30.671070785623748, "status": "disappeared" }, "geometry": { "type": "LineString", "coordinates": [ [ 144.925478837154003, -37.669107264176603 ], [ 144.9255345111483, -37.669236037210972 ], [ 144.925449788788853, -37.669359001196042 ] ] } },
{ "type": "Feature", "properties": { "gid": 2444, "fclass": "tertiary", "length": 22.731079737151539, "status": "disappeared" }, "geometry": { "type": "LineString", "coordinates": [ [ 144.927734285110375, -37.689821144927507 ], [ 144.927593872344232, -37.689792451832169 ], [ 144.927561545270237, -37.689706607351951 ] ] } },
{ "type": "Feature", "properties": { "gid": 2447, "fclass": "tertiary", "length": 28.300545828349954, "status": "disappeared" }, "geometry": { "type": "LineString", "coordinates": [ [ 144.920566734253526, -37.656951173243336 ], [ 144.920456818270196, -37.657076978404767 ], [ 144.920336199848435, -37.657111228617239 ] ] } },
{ "type": "Feature", "properties": { "gid": 2464, "fclass": "tertiary", "length": 10.475469177034247, "status": "disappeared" }, "geometry": { "type": "LineString", "coordinates": [ [ 144.928140748512931, -37.656177802220022 ], [ 144.928025545029271, -37.656200619967059 ] ] } },
{ "type": "Feature", "properties": { "gid": 2473, "fclass": "tertiary", "length": 2.5407166122458875, "status": "disappeared" }, "geometry": { "type": "LineString", "coordinates": [ [ 144.918348186071597, -37.684825820577018 ], [ 144.918319379740694, -37.68482580093842 ] ] } },
{ "type": "Feature", "properties": { "gid": 2474, "fclass": "tertiary", "length": 14.813690378123912, "status": "disappeared" }, "geometry": { "type": "LineString", "coordinates": [ [ 144.918348186071597, -37.684825820577018 ], [ 144.918492143757305, -37.684894578698085 ] ] } },
{ "type": "Feature", "properties": { "gid": 2480, "fclass": "tertiary", "length": 30.264923526526605, "status": "disappeared" }, "geometry": { "type": "LineString", "coordinates": [ [ 144.909167402759721, -37.677792985771369 ], [ 144.909147528113408, -37.677853048434699 ], [ 144.909190652938321, -37.677920310983929 ], [ 144.909269808224593, -37.677966144480415 ], [ 144.909340032709565, -37.677953323853636 ] ] } },
{ "type": "Feature", "properties": { "gid": 2481, "fclass": "tertiary", "length": 42.04660276750203, "status": "disappeared" }, "geometry": { "type": "LineString", "coordinates": [ [ 144.893170295787115, -37.685629933769164 ], [ 144.893371458358757, -37.685973413375905 ] ] } },
{ "type": "Feature", "properties": { "gid": 2482, "fclass": "tertiary", "length": 27.785085710458766, "status": "disappeared" }, "geometry": { "type": "LineString", "coordinates": [ [ 144.893242215314046, -37.695906103214291 ], [ 144.893085616616247, -37.695864481600317 ], [ 144.893098388999363, -37.695745768733907 ] ] } },
{ "type": "Feature", "properties": { "gid": 2483, "fclass": "tertiary", "length": 24.24130941873592, "status": "disappeared" }, "geometry": { "type": "LineString", "coordinates": [ [ 144.913384903375487, -37.692329160108727 ], [ 144.913259009154558, -37.692201762138204 ], [ 144.913269876537953, -37.692145983841229 ] ] } },
{ "type": "Feature", "properties": { "gid": 2505, "fclass": "tertiary", "length": 28.077011497723166, "status": "disappeared" }, "geometry": { "type": "LineString", "coordinates": [ [ 144.891139218384438, -37.675763921754154 ], [ 144.891279652942217, -37.675749745072672 ], [ 144.891427378471519, -37.675672636192132 ] ] } },
{ "type": "Feature", "properties": { "gid": 2506, "fclass": "tertiary", "length": 2.5407166122458875, "status": "disappeared" }, "geometry": { "type": "LineString", "coordinates": [ [ 144.918319379740694, -37.68482580093842 ], [ 144.91829057340982, -37.684825781292879 ] ] } },
{ "type": "Feature", "properties": { "gid": 2510, "fclass": "tertiary", "length": 24.290482479296539, "status": "disappeared" }, "geometry": { "type": "LineString", "coordinates": [ [ 144.893073428188757, -37.693022238984724 ], [ 144.893192202520908, -37.693068118192343 ], [ 144.893332680918547, -37.69304535672137 ] ] } },
{ "type": "Feature", "properties": { "gid": 2512, "fclass": "tertiary", "length": 23.007088326120304, "status": "disappeared" }, "geometry": { "type": "LineString", "coordinates": [ [ 144.92392039699476, -37.672310438389971 ], [ 144.923661159795159, -37.672333160238487 ] ] } },
{ "type": "Feature", "properties": { "gid": 2513, "fclass": "tertiary", "length": 31.481693587357412, "status": "disappeared" }, "geometry": { "type": "LineString", "coordinates": [ [ 144.910122789456238, -37.673696973837465 ], [ 144.910230854998105, -37.673648420448075 ], [ 144.91035345022155, -37.673491165568315 ] ] } },
{ "type": "Feature", "properties": { "gid": 2514, "fclass": "tertiary", "length": 26.334822680374096, "status": "disappeared" }, "geometry": { "type": "LineString", "coordinates": [ [ 144.923502899698292, -37.686431291306782 ], [ 144.923342661075424, -37.686431188874309 ], [ 144.923285105205935, -37.686373935329982 ], [ 144.923301343902295, -37.686339615707837 ] ] } },
{ "type": "Feature", "properties": { "gid": 2520, "fclass": "tertiary", "length": 2.5400000000372529, "status": "disappeared" }, "geometry": { "type": "LineString", "coordinates": [ [ 144.891991413095639, -37.684095467711863 ], [ 144.891991380423121, -37.684118354389369 ] ] } },
{ "type": "Feature", "properties": { "gid": 2521, "fclass": "tertiary", "length": 3.5926092055679342, "status": "disappeared" }, "geometry": { "type": "LineString", "coordinates": [ [ 144.891991413095639, -37.684095467711863 ], [ 144.892020186476714, -37.684118380359202 ] ] } },
{ "type": "Feature", "properties": { "gid": 2523, "fclass": "tertiary", "length": 34.995332876674325, "status": "disappeared" }, "geometry": { "type": "LineString", "coordinates": [ [ 144.922808170488395, -37.689726525462575 ], [ 144.922709002014443, -37.689863781425068 ], [ 144.922519900993251, -37.689909432571511 ] ] } },
{ "type": "Feature", "properties": { "gid": 2526, "fclass": "tertiary", "length": 25.533814647353381, "status": "disappeared" }, "geometry": { "type": "LineString", "coordinates": [ [ 144.908913928095444, -37.673009456743188 ], [ 144.909201918933974, -37.673032562213464 ] ] } },
{ "type": "Feature", "properties": { "gid": 2530, "fclass": "tertiary", "length": 14.813690378123912, "status": "disappeared" }, "geometry": { "type": "LineString", "coordinates": [ [ 144.912056328475472, -37.695211906084012 ], [ 144.911912197103533, -37.695280460014018 ] ] } },
{ "type": "Feature", "properties": { "gid": 2546, "fclass": "tertiary", "length": 52.65532883325676, "status": "disappeared" }, "geometry": { "type": "LineString", "coordinates": [ [ 144.926792294956812, -37.680848991153447 ], [ 144.926655621820458, -37.680694422132476 ], [ 144.926565648594504, -37.680651454390862 ], [ 144.926436023076008, -37.68065566611395 ], [ 144.926360334049804, -37.680734292735451 ] ] } },
{ "type": "Feature", "properties": { "gid": 2549, "fclass": "tertiary", "length": 33.895745918802085, "status": "disappeared" }, "geometry": { "type": "LineString", "coordinates": [ [ 144.890783178090146, -37.682972923300994 ], [ 144.890707540616432, -37.682988588931792 ], [ 144.89062657442912, -37.682954184955832 ], [ 144.890610538790241, -37.682838306304269 ], [ 144.890639414653009, -37.682789698393499 ] ] } },
{ "type": "Feature", "properties": { "gid": 2552, "fclass": "tertiary", "length": 24.790938624729186, "status": "disappeared" }, "geometry": { "type": "LineString", "coordinates": [ [ 144.922538694885333, -37.67155428818873 ], [ 144.922542207193914, -37.671640115988104 ], [ 144.922711385685005, -37.671668833790086 ] ] } },
{ "type": "Feature", "properties": { "gid": 2555, "fclass": "tertiary", "length": 44.105431785056389, "status": "disappeared" }, "geometry": { "type": "LineString", "coordinates": [ [ 144.931667171890126, -37.673253467360382 ], [ 144.931638594816292, -37.673004557183134 ], [ 144.931696325019118, -37.672864408504893 ] ] } },
{ "type": "Feature", "properties": { "gid": 2557, "fclass": "tertiary", "length": 33.117603187805912, "status": "disappeared" }, "geometry": { "type": "LineString", "coordinates": [ [ 144.894125590596474, -37.6822893225754 ], [ 144.894096368783636, -37.682586824114217 ] ] } },
{ "type": "Feature", "properties": { "gid": 2559, "fclass": "tertiary", "length": 21.980182129397939, "status": "disappeared" }, "geometry": { "type": "LineString", "coordinates": [ [ 144.922811400170673, -37.658325856786888 ], [ 144.922897739363123, -37.658374547115173 ], [ 144.922868829393281, -37.658486102229404 ] ] } },
{ "type": "Feature", "properties": { "gid": 2561, "fclass": "tertiary", "length": 51.197635674384742, "status": "disappeared" }, "geometry": { "type": "LineString", "coordinates": [ [ 144.92675380591416, -37.661097649007452 ], [ 144.926499908836405, -37.661221940936144 ], [ 144.926521391579115, -37.661340679885342 ], [ 144.926609508693559, -37.661417977187142 ] ] } },
{ "type": "Feature", "properties": { "gid": 2566, "fclass": "tertiary", "length": 23.399060426063908, "status": "disappeared" }, "geometry": { "type": "LineString", "coordinates": [ [ 144.912670750289607, -37.687064711373445 ], [ 144.912596936843784, -37.687060366288996 ], [ 144.912440398786401, -37.686972996519216 ] ] } },
{ "type": "Feature", "properties": { "gid": 2573, "fclass": "tertiary", "length": 27.961328801991506, "status": "disappeared" }, "geometry": { "type": "LineString", "coordinates": [ [ 144.891731339913207, -37.684667400548342 ], [ 144.891763636455494, -37.684744672353091 ], [ 144.891891392838403, -37.684794852378722 ], [ 144.891961626605365, -37.684782041973833 ] ] } },
{ "type": "Feature", "properties": { "gid": 2574, "fclass": "tertiary", "length": 29.067266052281759, "status": "disappeared" }, "geometry": { "type": "LineString", "coordinates": [ [ 144.892326011397557, -37.691877237844821 ], [ 144.892358311625287, -37.691954509278055 ], [ 144.892585194982587, -37.691946130428676 ] ] } },
{ "type": "Feature", "properties": { "gid": 2577, "fclass": "tertiary", "length": 16.477395213886663, "status": "disappeared" }, "geometry": { "type": "LineString", "coordinates": [ [ 144.896666869945051, -37.677599759735322 ], [ 144.896646985426798, -37.677659820328287 ], [ 144.896695486037487, -37.677737104986512 ] ] } },
{ "type": "Feature", "properties": { "gid": 2587, "fclass": "tertiary", "length": 56.4339944132048, "status": "disappeared" }, "geometry": { "type": "LineString", "coordinates": [ [ 144.890884580042183, -37.672582425848795 ], [ 144.890815841736895, -37.672814092110933 ], [ 144.890682274077392, -37.673062864261794 ] ] } },
{ "type": "Feature", "properties": { "gid": 2592, "fclass": "tertiary", "length": 27.48560082185795, "status": "disappeared" }, "geometry": { "type": "LineString", "coordinates": [ [ 144.896957180922243, -37.675929275704569 ], [ 144.897022119908399, -37.675832062753898 ], [ 144.89718779100798, -37.675792153216904 ] ] } },
{ "type": "Feature", "properties": { "gid": 2596, "fclass": "tertiary", "length": 2.5407166122458875, "status": "disappeared" }, "geometry": { "type": "LineString", "coordinates": [ [ 144.892020186476714, -37.684118380359202 ], [ 144.891991380423121, -37.684118354389369 ] ] } },
{ "type": "Feature", "properties": { "gid": 2597, "fclass": "tertiary", "length": 8.0342248002509802, "status": "disappeared" }, "geometry": { "type": "LineString", "coordinates": [ [ 144.892020186476714, -37.684118380359202 ], [ 144.892106637275276, -37.68409557154952 ] ] } },
{ "type": "Feature", "properties": { "gid": 2602, "fclass": "tertiary", "length": 23.532236962538711, "status": "disappeared" }, "geometry": { "type": "LineString", "coordinates": [ [ 144.921141575630259, -37.65798146494501 ], [ 144.921019260808691, -37.65791558442637 ], [ 144.921026558340742, -37.657821180675612 ] ] } },
{ "type": "Feature", "properties": { "gid": 2603, "fclass": "tertiary", "length": 36.728143614887045, "status": "disappeared" }, "geometry": { "type": "LineString", "coordinates": [ [ 144.920980055967362, -37.67478030797448 ], [ 144.921185378125386, -37.674680313592667 ], [ 144.92135463128696, -37.67464323382729 ] ] } },
{ "type": "Feature", "properties": { "gid": 2610, "fclass": "tertiary", "length": 32.863195595530527, "status": "disappeared" }, "geometry": { "type": "LineString", "coordinates": [ [ 144.927377046508894, -37.671831961381578 ], [ 144.927575135447569, -37.671749116663669 ], [ 144.927722728730203, -37.67176351007658 ] ] } },
{ "type": "Feature", "properties": { "gid": 2667, "fclass": "unclassified", "length": 99.881884004584791, "status": "disappeared" }, "geometry": { "type": "LineString", "coordinates": [ [ 144.908507962928439, -37.675274939388757 ], [ 144.908598075013344, -37.675189182766729 ], [ 144.909073592199206, -37.674962107318322 ], [ 144.909268097043878, -37.674889303202356 ], [ 144.909487747253451, -37.674863721762371 ] ] } },
{ "type": "Feature", "properties": { "gid": 2715, "fclass": "unclassified", "length": 108.18120610994835, "status": "disappeared" }, "geometry": { "type": "LineString", "coordinates": [ [ 144.920834918043141, -37.675855890597965 ], [ 144.919625365729388, -37.67569487763496 ] ] } },
{ "type": "Feature", "properties": { "gid": 2761, "fclass": "unclassified", "length": 126.01307317745685, "status": "disappeared" }, "geometry": { "type": "LineString", "coordinates": [ [ 144.917543654156219, -37.682948559862844 ], [ 144.916518025443423, -37.682430037582627 ], [ 144.916431613928467, -37.682425686069784 ], [ 144.91633432446821, -37.68248998704329 ] ] } },
{ "type": "Feature", "properties": { "gid": 2825, "fclass": "unclassified", "length": 277.75621901817408, "status": "disappeared" }, "geometry": { "type": "LineString", "coordinates": [ [ 144.914177083652646, -37.679696280110136 ], [ 144.91459171815859, -37.679190207316701 ], [ 144.914638679878465, -37.679052920326356 ], [ 144.914610282546789, -37.678692433826789 ], [ 144.914170039169193, -37.677971186505523 ], [ 144.91380518184431, -37.677453111631785 ] ] } },
{ "type": "Feature", "properties": { "gid": 3038, "fclass": "unclassified", "length": 48.540172707526395, "status": "disappeared" }, "geometry": { "type": "LineString", "coordinates": [ [ 144.921842878296701, -37.675993873188098 ], [ 144.922390087770225, -37.676040002548142 ] ] } },
{ "type": "Feature", "properties": { "gid": 3088, "fclass": "unclassified", "length": 95.291458052841918, "status": "disappeared" }, "geometry": { "type": "LineString", "coordinates": [ [ 144.914598685880009, -37.663446946919649 ], [ 144.914069595434512, -37.66337933823165 ], [ 144.913576474207275, -37.663337500906792 ], [ 144.913533257369977, -37.663354634870409 ] ] } },
{ "type": "Feature", "properties": { "gid": 3115, "fclass": "unclassified", "length": 115.93111317668115, "status": "disappeared" }, "geometry": { "type": "LineString", "coordinates": [ [ 144.907539240236503, -37.690196333549409 ], [ 144.907405922728827, -37.69026059928359 ], [ 144.907398557797308, -37.690393622239007 ], [ 144.907713042958193, -37.690891649472761 ], [ 144.907797399854417, -37.691111998367496 ] ] } },
{ "type": "Feature", "properties": { "gid": 3116, "fclass": "unclassified", "length": 122.68534054528298, "status": "disappeared" }, "geometry": { "type": "LineString", "coordinates": [ [ 144.907539240236503, -37.690196333549409 ], [ 144.907990430478975, -37.690806037918719 ], [ 144.908046101104645, -37.690926235545071 ], [ 144.908040579508167, -37.691024929956235 ], [ 144.907855017297635, -37.691112042698194 ] ] } },
{ "type": "Feature", "properties": { "gid": 3228, "fclass": "unclassified", "length": 125.72429520306417, "status": "disappeared" }, "geometry": { "type": "LineString", "coordinates": [ [ 144.920863697023776, -37.675878796387032 ], [ 144.920660900673397, -37.677000113773438 ] ] } },
{ "type": "Feature", "properties": { "gid": 3316, "fclass": "unclassified", "length": 203.67991535305438, "status": "disappeared" }, "geometry": { "type": "LineString", "coordinates": [ [ 144.922574636510944, -37.69272452434415 ], [ 144.922218381251554, -37.692471110273488 ], [ 144.922045570012926, -37.69242808552449 ], [ 144.92172146621408, -37.692427874194024 ], [ 144.92135402366452, -37.692547788337677 ], [ 144.920863938345548, -37.692860726298832 ], [ 144.920586551855678, -37.692952089244798 ] ] } },
{ "type": "Feature", "properties": { "gid": 3466, "fclass": "unclassified", "length": 109.97346279037117, "status": "disappeared" }, "geometry": { "type": "LineString", "coordinates": [ [ 144.918466494402111, -37.681965062814335 ], [ 144.917882421331029, -37.682671291195092 ], [ 144.917831859448853, -37.682811437636914 ] ] } },
{ "type": "Feature", "properties": { "gid": 3586, "fclass": "unclassified", "length": 94.396894876032178, "status": "disappeared" }, "geometry": { "type": "LineString", "coordinates": [ [ 144.921640238358179, -37.676977871711799 ], [ 144.921593317310084, -37.677089413965938 ], [ 144.9215500855355, -37.677115133263875 ], [ 144.92068968003656, -37.677023019594479 ] ] } },
{ "type": "Feature", "properties": { "gid": 3774, "fclass": "unclassified", "length": 121.62641187190033, "status": "disappeared" }, "geometry": { "type": "LineString", "coordinates": [ [ 144.898196261521008, -37.675518373282181 ], [ 144.89794792434347, -37.675453792879985 ], [ 144.89706239914014, -37.675335740357049 ], [ 144.896842780413209, -37.675334120985021 ] ] } }
]
}
