{
"type": "FeatureCollection",
"crs": { "type": "name", "properties": { "name": "urn:ogc:def:crs:OGC:1.3:CRS84" } },
"features": [
{ "type": "Feature", "properties": { "gid": 24946, "osm_id": "274205706", "code": 5115.0, "fclass": "tertiary", "name": "Robertsons Road", "pixel_count": 50, "Var_line": 29.845125198364258, "Edge_contrast": 38.004489898681641, "ROI": 4936.0, "Road_detected": -1, "ROI_norm": -0.50590873927565327, "Pred": 0 }, "geometry": { "type": "LineString", "coordinates": [ [ 144.772677717214748, -37.692074976284403 ], [ 144.772914617238513, -37.691914076269398 ] ] } },
{ "type": "Feature", "properties": { "gid": 24952, "osm_id": "274897917", "code": 5115.0, "fclass": "tertiary", "name": "Robertsons Road", "pixel_count": 60, "Var_line": 34.520671844482422, "Edge_contrast": 38.351615905761719, "ROI": 2299.166666666667, "Road_detected": -1, "ROI_norm": -0.75144911968133021, "Pred": 0 }, "geometry": { "type": "LineString", "coordinates": [ [ 144.779291817642246, -37.685376375879045 ], [ 144.779336017644965, -37.685329675876361 ], [ 144.779357517645764, -37.685303175875049 ], [ 144.77937641764558, -37.685270575873943 ] ] } },
{ "type": "Feature", "properties": { "gid": 24953, "osm_id": "274898005", "code": 5122.0, "fclass": "residential", "name": "Pintail Crescent", "pixel_count": 50, "Var_line": 73.233566284179688, "Edge_contrast": 34.021705627441406, "ROI": 2129.5, "Road_detected": -1, "ROI_norm": -0.76724838061635203, "Pred": 0 }, "geometry": { "type": "LineString", "coordinates": [ [ 144.794171821301774, -37.695510274809898 ], [ 144.794158221282572, -37.69535267481178 ] ] } },
{ "type": "Feature", "properties": { "gid": 24958, "osm_id": "278143609", "code": 5121.0, "fclass": "unclassified", "name": "Watergardens Circuit Road", "pixel_count": 77, "Var_line": 88.045196533203125, "Edge_contrast": 35.940402984619141, "ROI": 4611.1666666666661, "Road_detected": -1, "ROI_norm": -0.53615702961195733, "Pred": 0 }, "geometry": { "type": "LineString", "coordinates": [ [ 144.774358418036798, -37.697038876140006 ], [ 144.774294518027233, -37.69705267614431 ], [ 144.774224318015712, -37.697058776148971 ], [ 144.774063617995466, -37.697129476159368 ] ] } },
{ "type": "Feature", "properties": { "gid": 25962, "osm_id": "308471444", "code": 5122.0, "fclass": "residential", "name": "Erskine Way", "pixel_count": 89, "Var_line": 54.921329498291016, "Edge_contrast": 36.337577819824219, "ROI": 7466.666666666667, "Road_detected": -1, "ROI_norm": -0.2702545368813799, "Pred": 0 }, "geometry": { "type": "LineString", "coordinates": [ [ 144.758593114748379, -37.691801577237314 ], [ 144.758641414759893, -37.691831277233874 ], [ 144.75870311477334, -37.691856777229518 ], [ 144.758759414784379, -37.691869477225687 ], [ 144.759905314994143, -37.691976477147655 ] ] } },
{ "type": "Feature", "properties": { "gid": 46858, "osm_id": "47569993", "code": 5121.0, "fclass": "unclassified", "name": "Victoria Road", "pixel_count": 63, "Var_line": 55.251644134521484, "Edge_contrast": 2.1453011035919189, "ROI": 4618.0, "Road_detected": -1, "ROI_norm": -0.53552071360180409, "Pred": 0 }, "geometry": { "type": "LineString", "coordinates": [ [ 144.758765913728809, -37.681983477286636 ], [ 144.758691613710937, -37.681936477291941 ], [ 144.758599713689108, -37.681880877298482 ] ] } },
{ "type": "Feature", "properties": { "gid": 46964, "osm_id": "274918093", "code": 5122.0, "fclass": "residential", "name": "Moonie Close", "pixel_count": 60, "Var_line": 51.789787292480469, "Edge_contrast": 3.6744613647460938, "ROI": 2476.166666666667, "Road_detected": -1, "ROI_norm": -0.73496698302809538, "Pred": 0 }, "geometry": { "type": "LineString", "coordinates": [ [ 144.781748218280995, -37.687374275700584 ], [ 144.781819818288113, -37.687324975696065 ], [ 144.781890318295211, -37.687277175691598 ] ] } },
{ "type": "Feature", "properties": { "gid": 66122, "osm_id": "201226012", "code": 5113.0, "fclass": "primary", "name": "Calder Park Drive", "pixel_count": 150, "Var_line": 60.312232971191406, "Edge_contrast": 17.705209732055664, "ROI": 31955.833333333332, "Road_detected": -1, "ROI_norm": 2.0101623643832771, "Pred": 0 }, "geometry": { "type": "LineString", "coordinates": [ [ 144.756188614678621, -37.69504177737948 ], [ 144.756030414738547, -37.695858377385072 ], [ 144.755806114823429, -37.6970153773931 ], [ 144.755692714866399, -37.697600777397085 ], [ 144.755624814898056, -37.698007077399105 ], [ 144.755590514919277, -37.69826127739988 ], [ 144.755570814943439, -37.698519277399619 ], [ 144.755558214964339, -37.698734977399177 ], [ 144.755560214988634, -37.698959077397596 ], [ 144.755562915011438, -37.69916817739611 ], [ 144.755576915037835, -37.699391977393802 ], [ 144.755592515062403, -37.699596877391457 ], [ 144.755610315087949, -37.699806877388951 ], [ 144.755645215119102, -37.700041877385132 ], [ 144.755684115148483, -37.700253677381212 ], [ 144.755733115181613, -37.700484177376467 ], [ 144.755792515216115, -37.700710977371038 ], [ 144.755868615257782, -37.700977277364281 ], [ 144.755956915300544, -37.701234277356711 ] ] } },
{ "type": "Feature", "properties": { "gid": 66165, "osm_id": "289137165", "code": 5122.0, "fclass": "residential", "name": "Jolly Place", "pixel_count": 75, "Var_line": 64.528076171875, "Edge_contrast": 39.091663360595703, "ROI": 4854.666666666667, "Road_detected": -1, "ROI_norm": -0.51348245178674423, "Pred": 0 }, "geometry": { "type": "LineString", "coordinates": [ [ 144.763647616059416, -37.695882476870757 ], [ 144.763450816022868, -37.695858976884146 ], [ 144.763252815986078, -37.695835476897663 ] ] } },
{ "type": "Feature", "properties": { "gid": 66185, "osm_id": "294158183", "code": 5122.0, "fclass": "residential", "name": null, "pixel_count": 94, "Var_line": 60.334651947021484, "Edge_contrast": 2.2792108058929443, "ROI": 6297.0000000000009, "Road_detected": -1, "ROI_norm": -0.37917321393637266, "Pred": 0 }, "geometry": { "type": "LineString", "coordinates": [ [ 144.764871716079256, -37.694086676799238 ], [ 144.764884916095355, -37.694216076797559 ], [ 144.764895416101865, -37.694260176796519 ], [ 144.764916816111253, -37.694313176794751 ], [ 144.76496051612645, -37.694384676791358 ] ] } },
{ "type": "Feature", "properties": { "gid": 66189, "osm_id": "308471435", "code": 5122.0, "fclass": "residential", "name": null, "pixel_count": 62, "Var_line": 73.449813842773438, "Edge_contrast": 39.846450805664062, "ROI": 1868.6666666666667, "Road_detected": -1, "ROI_norm": -0.79153702832097783, "Pred": 0 }, "geometry": { "type": "LineString", "coordinates": [ [ 144.761521015064972, -37.690024077050673 ], [ 144.761526315073581, -37.690096277049882 ], [ 144.761535415083756, -37.690176477048773 ] ] } },
{ "type": "Feature", "properties": { "gid": 66190, "osm_id": "308471436", "code": 5122.0, "fclass": "residential", "name": null, "pixel_count": 56, "Var_line": 44.419731140136719, "Edge_contrast": 35.406551361083984, "ROI": 2054.0, "Road_detected": -1, "ROI_norm": -0.77427889653340987, "Pred": 0 }, "geometry": { "type": "LineString", "coordinates": [ [ 144.761548415087475, -37.690190177047803 ], [ 144.761652415108557, -37.69021937704057 ], [ 144.761700515118463, -37.69023407703726 ] ] } },
{ "type": "Feature", "properties": { "gid": 174469, "osm_id": "36714384", "code": 5115.0, "fclass": "tertiary", "name": null, "pixel_count": 113, "Var_line": 38.026172637939453, "Edge_contrast": 37.813228607177734, "ROI": 3963.3333333333335, "Road_detected": -1, "ROI_norm": -0.59648289135501176, "Pred": 0 }, "geometry": { "type": "LineString", "coordinates": [ [ 144.782052218329483, -37.687335775680296 ], [ 144.782031018327558, -37.687351475681623 ], [ 144.782004718323975, -37.687361175683336 ], [ 144.781973818318903, -37.687363775685412 ], [ 144.781943718313073, -37.687357975687526 ], [ 144.781917718307142, -37.687344575689359 ], [ 144.781898918301806, -37.687325075690765 ], [ 144.781889418297652, -37.687301675691508 ], [ 144.781890318295211, -37.687277175691598 ], [ 144.781901518294688, -37.687254275690975 ], [ 144.781921818296212, -37.687235675689728 ], [ 144.78194871829956, -37.687223575687966 ], [ 144.781979318304394, -37.687219275685955 ], [ 144.782008018309739, -37.687222775683978 ], [ 144.782033818315313, -37.687233175682152 ], [ 144.782054218320582, -37.687249575680625 ], [ 144.782067118325045, -37.687270175679714 ], [ 144.782071218328184, -37.687292875679297 ], [ 144.782066118329709, -37.687315575679456 ], [ 144.782052218329483, -37.687335775680296 ] ] } },
{ "type": "Feature", "properties": { "gid": 174493, "osm_id": "140094766", "code": 5122.0, "fclass": "residential", "name": "Bruxner Way", "pixel_count": 69, "Var_line": 47.793567657470703, "Edge_contrast": 22.700628280639648, "ROI": 5055.333333333333, "Road_detected": -1, "ROI_norm": -0.49479648895200345, "Pred": 0 }, "geometry": { "type": "LineString", "coordinates": [ [ 144.783861918960469, -37.690305475539439 ], [ 144.783974518969387, -37.690206775532509 ], [ 144.784043218972641, -37.690126175528292 ] ] } },
{ "type": "Feature", "properties": { "gid": 174496, "osm_id": "140094771", "code": 5115.0, "fclass": "tertiary", "name": null, "pixel_count": 50, "Var_line": 49.618885040283203, "Edge_contrast": 28.404241561889648, "ROI": 1829.6666666666665, "Road_detected": -1, "ROI_norm": -0.7951686855496567, "Pred": 0 }, "geometry": { "type": "LineString", "coordinates": [ [ 144.784180018944568, -37.68964267552208 ], [ 144.784332918974172, -37.689672375511556 ] ] } },
{ "type": "Feature", "properties": { "gid": 174498, "osm_id": "147380324", "code": 5122.0, "fclass": "residential", "name": "Kings Road", "pixel_count": 67, "Var_line": 22.401361465454102, "Edge_contrast": 8.7830209732055664, "ROI": 3273.9999999999995, "Road_detected": -1, "ROI_norm": -0.66067320886704517, "Pred": 0 }, "geometry": { "type": "LineString", "coordinates": [ [ 144.789814619287824, -37.683745475177716 ], [ 144.789539319270034, -37.684024475194605 ], [ 144.789489319268625, -37.68409167519755 ] ] } },
{ "type": "Feature", "properties": { "gid": 174500, "osm_id": "185373282", "code": 5115.0, "fclass": "tertiary", "name": "Wellesley Drive", "pixel_count": 196, "Var_line": 41.104969024658203, "Edge_contrast": 29.126249313354492, "ROI": 17583.333333333332, "Road_detected": -1, "ROI_norm": 0.67180355619899357, "Pred": 0 }, "geometry": { "type": "LineString", "coordinates": [ [ 144.791602720587321, -37.692990874999325 ], [ 144.792211720738351, -37.69341697495549 ], [ 144.792588620831054, -37.693673374928359 ], [ 144.792740320871133, -37.693802674917286 ], [ 144.792847720900596, -37.693904274909428 ], [ 144.792922520922247, -37.693985574903884 ], [ 144.793944821217195, -37.695087374827871 ], [ 144.79403662124389, -37.695188174821041 ] ] } },
{ "type": "Feature", "properties": { "gid": 174503, "osm_id": "201387411", "code": 5112.0, "fclass": "trunk", "name": "Melton Highway", "pixel_count": 77, "Var_line": 46.312736511230469, "Edge_contrast": 17.445594787597656, "ROI": 5893.166666666667, "Road_detected": -1, "ROI_norm": -0.41677793814615433, "Pred": 0 }, "geometry": { "type": "LineString", "coordinates": [ [ 144.781907019405622, -37.697622275626216 ], [ 144.78145551931695, -37.697523775657309 ], [ 144.781397819305568, -37.697511175661312 ], [ 144.781313319289012, -37.697492875667173 ] ] } },
{ "type": "Feature", "properties": { "gid": 174532, "osm_id": "274911185", "code": 5122.0, "fclass": "residential", "name": "Sandpiper Drive", "pixel_count": 50, "Var_line": 25.413913726806641, "Edge_contrast": 31.287811279296875, "ROI": 2734.1666666666665, "Road_detected": -1, "ROI_norm": -0.71094217366914292, "Pred": 0 }, "geometry": { "type": "LineString", "coordinates": [ [ 144.791409920548261, -37.692937575012714 ], [ 144.791254120529601, -37.693015275022773 ] ] } },
{ "type": "Feature", "properties": { "gid": 174540, "osm_id": "289692788", "code": 5113.0, "fclass": "primary", "name": "Kings Road", "pixel_count": 426, "Var_line": 41.863880157470703, "Edge_contrast": 19.532196044921875, "ROI": 26642.833333333336, "Road_detected": -1, "ROI_norm": 1.5154189065378716, "Pred": 0 }, "geometry": { "type": "LineString", "coordinates": [ [ 144.783721719102573, -37.691859375539316 ], [ 144.783646519107322, -37.692025375543395 ], [ 144.783618719108603, -37.69208217554489 ], [ 144.783551619111734, -37.692219675548507 ], [ 144.783445519115276, -37.692424275554494 ], [ 144.783284019115996, -37.692691975563733 ], [ 144.783104519115682, -37.692978875574127 ], [ 144.7829227191163, -37.693278375584519 ], [ 144.782786819118769, -37.693521475592199 ], [ 144.782700119121699, -37.693688575597029 ], [ 144.782609019125744, -37.693873975602038 ], [ 144.782518319131043, -37.694069975606979 ], [ 144.78244161913787, -37.694257575610926 ], [ 144.782410019141224, -37.694339975612586 ], [ 144.782373219145143, -37.694436075614462 ], [ 144.782296819154368, -37.694645775618362 ], [ 144.782225019164173, -37.694853275621917 ], [ 144.78187441921051, -37.695852775639409 ] ] } },
{ "type": "Feature", "properties": { "gid": 174564, "osm_id": "306210572", "code": 5113.0, "fclass": "primary", "name": "Kings Road", "pixel_count": 100, "Var_line": 14.918998718261719, "Edge_contrast": 8.5231904983520508, "ROI": 6773.5, "Road_detected": -1, "ROI_norm": -0.33480181215520655, "Pred": 0 }, "geometry": { "type": "LineString", "coordinates": [ [ 144.785473418983287, -37.687914675445427 ], [ 144.786018319020911, -37.687385575411824 ], [ 144.786377319046863, -37.687047775389644 ], [ 144.786639619074379, -37.686881175372939 ] ] } },
{ "type": "Feature", "properties": { "gid": 174575, "osm_id": "666853310", "code": 5122.0, "fclass": "residential", "name": "Melton Highway Service Road", "pixel_count": 109, "Var_line": 45.974529266357422, "Edge_contrast": 19.25263786315918, "ROI": 5287.333333333333, "Road_detected": -1, "ROI_norm": -0.47319278441217016, "Pred": 0 }, "geometry": { "type": "LineString", "coordinates": [ [ 144.765951116296407, -37.694370776724561 ], [ 144.76615301633268, -37.694383876710859 ], [ 144.766197416340788, -37.694387576707804 ], [ 144.766279216356082, -37.694398176702215 ], [ 144.766327516365465, -37.694407676698887 ], [ 144.766470516393923, -37.694442476689069 ] ] } },
{ "type": "Feature", "properties": { "gid": 174576, "osm_id": "666853313", "code": 5122.0, "fclass": "residential", "name": "Melton Highway Service Road", "pixel_count": 275, "Var_line": 63.300899505615234, "Edge_contrast": 9.6675987243652344, "ROI": 18258.666666666668, "Road_detected": -1, "ROI_norm": 0.73469020188534762, "Pred": 0 }, "geometry": { "type": "LineString", "coordinates": [ [ 144.766470516393923, -37.694442476689069 ], [ 144.76671661644076, -37.694482076672188 ], [ 144.766938616482832, -37.694516076656939 ], [ 144.767196616531351, -37.694552476639302 ], [ 144.767455916580701, -37.694594376621502 ], [ 144.767745016635956, -37.694642776601704 ], [ 144.767965716678276, -37.694681776586549 ], [ 144.768148216713058, -37.694711576574036 ], [ 144.768226316727947, -37.69472447656868 ], [ 144.76828771673928, -37.694730876564456 ], [ 144.76834811674965, -37.694730276560406 ], [ 144.76841781676012, -37.694715376555791 ], [ 144.768486216769787, -37.694695176551292 ], [ 144.768548416777492, -37.694666676547271 ] ] } },
{ "type": "Feature", "properties": { "gid": 174586, "osm_id": "28186124", "code": 5115.0, "fclass": "tertiary", "name": "Overton Lea Boulevard", "pixel_count": 50, "Var_line": 20.33673095703125, "Edge_contrast": 17.07720947265625, "ROI": 4694.5, "Road_detected": -1, "ROI_norm": -0.52839707826862636, "Pred": 0 }, "geometry": { "type": "LineString", "coordinates": [ [ 144.766197316356738, -37.694536376706886 ], [ 144.766178616379364, -37.69477827670665 ] ] } },
{ "type": "Feature", "properties": { "gid": 174598, "osm_id": "36714327", "code": 5122.0, "fclass": "residential", "name": "Coleman Court", "pixel_count": 166, "Var_line": 72.588409423828125, "Edge_contrast": 20.143678665161133, "ROI": 9559.6666666666661, "Road_detected": -1, "ROI_norm": -0.075355598942280624, "Pred": 0 }, "geometry": { "type": "LineString", "coordinates": [ [ 144.777351517220183, -37.684568676015211 ], [ 144.777242317213563, -37.684682976021875 ], [ 144.776946417190544, -37.684946476040231 ], [ 144.776761417177767, -37.685126276051633 ], [ 144.776606417169319, -37.685297776061041 ], [ 144.776470817164039, -37.68546777606911 ], [ 144.776427317162302, -37.685521776071745 ] ] } },
{ "type": "Feature", "properties": { "gid": 174642, "osm_id": "274205714", "code": 5115.0, "fclass": "tertiary", "name": "McCubbin Drive", "pixel_count": 79, "Var_line": 42.855419158935547, "Edge_contrast": 13.399686813354492, "ROI": 2666.166666666667, "Road_detected": -1, "ROI_norm": -0.71727429396530085, "Pred": 0 }, "geometry": { "type": "LineString", "coordinates": [ [ 144.772781417241276, -37.692155076276912 ], [ 144.772825217253086, -37.692194376273676 ], [ 144.772864417264373, -37.692236776270789 ], [ 144.773036517308611, -37.692371676258311 ] ] } },
{ "type": "Feature", "properties": { "gid": 174679, "osm_id": "274911172", "code": 5121.0, "fclass": "unclassified", "name": null, "pixel_count": 114, "Var_line": 116.07965850830078, "Edge_contrast": 10.220588684082031, "ROI": 9399.6666666666642, "Road_detected": -1, "ROI_norm": -0.090254705521476158, "Pred": 0 }, "geometry": { "type": "LineString", "coordinates": [ [ 144.774278317955122, -37.696405176149369 ], [ 144.774256717923606, -37.696145176152442 ], [ 144.774251217917509, -37.696097676153116 ], [ 144.774238617911436, -37.696061176154188 ], [ 144.774226217906119, -37.696031676155201 ], [ 144.774219017903079, -37.696014676155762 ], [ 144.774195217894913, -37.695977076157654 ], [ 144.774180117890324, -37.695958376158785 ], [ 144.774150917880633, -37.695915176161009 ] ] } },
{ "type": "Feature", "properties": { "gid": 174683, "osm_id": "274911179", "code": 5122.0, "fclass": "residential", "name": "Tasman Crescent", "pixel_count": 50, "Var_line": 55.224979400634766, "Edge_contrast": 15.993330001831055, "ROI": 1960.5, "Road_detected": -1, "ROI_norm": -0.78298556194062707, "Pred": 0 }, "geometry": { "type": "LineString", "coordinates": [ [ 144.779857618592445, -37.693339175791337 ], [ 144.779660918553532, -37.693293775804925 ] ] } },
{ "type": "Feature", "properties": { "gid": 174684, "osm_id": "274911180", "code": 5122.0, "fclass": "residential", "name": "Tasman Crescent", "pixel_count": 50, "Var_line": 57.405551910400391, "Edge_contrast": 38.866035461425781, "ROI": 1711.0, "Road_detected": -1, "ROI_norm": -0.80621885626255985, "Pred": 0 }, "geometry": { "type": "LineString", "coordinates": [ [ 144.779660918553532, -37.693293775804925 ], [ 144.779854718583181, -37.693257675792054 ] ] } },
{ "type": "Feature", "properties": { "gid": 174689, "osm_id": "278143606", "code": 5121.0, "fclass": "unclassified", "name": "Watergardens Circuit Road", "pixel_count": 105, "Var_line": 82.692939758300781, "Edge_contrast": 28.482532501220703, "ROI": 4118.166666666667, "Road_detected": -1, "ROI_norm": -0.58206490175910297, "Pred": 0 }, "geometry": { "type": "LineString", "coordinates": [ [ 144.773625517924472, -37.697174676188716 ], [ 144.77375031794034, -37.69712097618055 ], [ 144.7738459179524, -37.697078976174424 ], [ 144.773934317963807, -37.69704257616862 ], [ 144.774033217977234, -37.697008076162184 ] ] } },
{ "type": "Feature", "properties": { "gid": 174716, "osm_id": "284401378", "code": 5122.0, "fclass": "residential", "name": "McCubbin Drive", "pixel_count": 59, "Var_line": 68.956687927246094, "Edge_contrast": 0.8616487979888916, "ROI": 2795.666666666667, "Road_detected": -1, "ROI_norm": -0.70521532957776456, "Pred": 0 }, "geometry": { "type": "LineString", "coordinates": [ [ 144.770131416454603, -37.689087676474983 ], [ 144.77022121648497, -37.689226376468042 ], [ 144.770237216490727, -37.689254176466861 ] ] } },
{ "type": "Feature", "properties": { "gid": 203477, "osm_id": "306058465", "code": 5113.0, "fclass": "primary", "name": "Kings Road", "pixel_count": 109, "Var_line": 39.774860382080078, "Edge_contrast": 16.494338989257812, "ROI": 2674.5, "Road_detected": -1, "ROI_norm": -0.71649829883096783, "Pred": 0 }, "geometry": { "type": "LineString", "coordinates": [ [ 144.781529919256599, -37.696840075656567 ], [ 144.781491219264353, -37.696975175658324 ], [ 144.781416919273283, -37.697178375662098 ], [ 144.781406019275181, -37.697213875662591 ], [ 144.781376319280326, -37.697310275664023 ] ] } },
{ "type": "Feature", "properties": { "gid": 206623, "osm_id": "7999642", "code": 5122.0, "fclass": "residential", "name": "Melton Highway Service Road", "pixel_count": 219, "Var_line": 55.408821105957031, "Edge_contrast": 13.884247779846191, "ROI": 35519.833333333328, "Road_detected": -1, "ROI_norm": 2.3420399634348539, "Pred": 0 }, "geometry": { "type": "LineString", "coordinates": [ [ 144.757018714650002, -37.693429877333486 ], [ 144.757177014670134, -37.693361977323235 ], [ 144.757270914683858, -37.693338577317036 ], [ 144.757337914695, -37.693334377312539 ], [ 144.757717514765687, -37.693381077286631 ], [ 144.758347414884639, -37.693473977243514 ], [ 144.759631715124385, -37.693637277155815 ], [ 144.760412915270621, -37.693740977102408 ], [ 144.760449915278599, -37.69375567709988 ], [ 144.76059161531748, -37.693889777089424 ] ] } },
{ "type": "Feature", "properties": { "gid": 206693, "osm_id": "47346320", "code": 5121.0, "fclass": "unclassified", "name": null, "pixel_count": 65, "Var_line": 36.682525634765625, "Edge_contrast": 41.126945495605469, "ROI": 3784.9999999999995, "Road_detected": -1, "ROI_norm": -0.61308918722973993, "Pred": 0 }, "geometry": { "type": "LineString", "coordinates": [ [ 144.778016918726934, -37.697571375889481 ], [ 144.777814518692054, -37.697572875903148 ], [ 144.777738118679594, -37.697579775908267 ] ] } },
{ "type": "Feature", "properties": { "gid": 206698, "osm_id": "47521716", "code": 5115.0, "fclass": "tertiary", "name": "Trickey Avenue", "pixel_count": 64, "Var_line": 16.834373474121094, "Edge_contrast": 33.325363159179688, "ROI": 1245.5, "Road_detected": -1, "ROI_norm": -0.84956594446640643, "Pred": 0 }, "geometry": { "type": "LineString", "coordinates": [ [ 144.770787517475867, -37.697572276377976 ], [ 144.770725917467729, -37.697595776382009 ], [ 144.770713317466033, -37.697600576382833 ], [ 144.770623017454113, -37.697634876388705 ] ] } },
{ "type": "Feature", "properties": { "gid": 206699, "osm_id": "47521719", "code": 5122.0, "fclass": "residential", "name": "Sydenham Road", "pixel_count": 50, "Var_line": 48.482929229736328, "Edge_contrast": 4.6195054054260254, "ROI": 4152.3333333333339, "Road_detected": -1, "ROI_norm": -0.57888332170833723, "Pred": 0 }, "geometry": { "type": "LineString", "coordinates": [ [ 144.770565217412042, -37.697334976394409 ], [ 144.770771417459315, -37.697443876379836 ] ] } },
{ "type": "Feature", "properties": { "gid": 206712, "osm_id": "47569980", "code": 5113.0, "fclass": "primary", "name": "Calder Park Drive", "pixel_count": 1270, "Var_line": 34.089797973632812, "Edge_contrast": 35.047714233398438, "ROI": 29878.666666666664, "Road_detected": -1, "ROI_norm": 1.8167378171994106, "Pred": 0 }, "geometry": { "type": "LineString", "coordinates": [ [ 144.757900313823399, -37.684269377330885 ], [ 144.757913713812428, -37.684145177330777 ], [ 144.757907013797308, -37.684014677331987 ], [ 144.75788961378106, -37.683890477333939 ], [ 144.757877513767824, -37.68378647733541 ], [ 144.757874813755905, -37.683679277336253 ], [ 144.757889613746215, -37.683564677336022 ], [ 144.757931213740733, -37.683445777333894 ], [ 144.75801561373612, -37.683266377329311 ], [ 144.758164513731145, -37.682978777321047 ], [ 144.758223513730456, -37.682876677317701 ], [ 144.758292813729611, -37.682756877313736 ], [ 144.758337513729089, -37.682679477311233 ], [ 144.758427513728236, -37.682525677306153 ], [ 144.758507813727476, -37.682388677301518 ], [ 144.758602513727197, -37.682232677296113 ], [ 144.758624513727142, -37.682196577294846 ], [ 144.758723713728074, -37.6820447772891 ], [ 144.758765913728809, -37.681983477286636 ], [ 144.758790013729225, -37.681948377285217 ], [ 144.758923413731594, -37.681754477277408 ], [ 144.758961013732659, -37.681703577275186 ], [ 144.759248013749385, -37.681395777257734 ], [ 144.76040261382883, -37.68027037718678 ], [ 144.762325713966817, -37.678448977068243 ], [ 144.763108914023292, -37.677710177019961 ], [ 144.76333041404007, -37.677509477006247 ], [ 144.763586314063843, -37.677317476990183 ], [ 144.763833114089721, -37.677160376974463 ], [ 144.764087914117454, -37.677007576958182 ], [ 144.764223314132238, -37.676927076949603 ], [ 144.764377514150652, -37.676849676939675 ], [ 144.764554514173057, -37.676773176928194 ], [ 144.764742414197315, -37.676695476915945 ], [ 144.765032114236277, -37.676591476897023 ], [ 144.765338114279359, -37.676499676876951 ], [ 144.765694614331579, -37.67641097685339 ], [ 144.765864814357258, -37.676376176842176 ], [ 144.766054014386469, -37.676343076829561 ], [ 144.766208114410745, -37.676320976819277 ], [ 144.766392514440241, -37.676298876806975 ], [ 144.766677114486924, -37.676275476787879 ], [ 144.766992814540174, -37.676262376766658 ], [ 144.767324514597789, -37.676264476744244 ], [ 144.767733014669744, -37.676277276716576 ], [ 144.768134414740871, -37.676293276689364 ], [ 144.768443114796611, -37.676315276668369 ], [ 144.76877911485883, -37.676353676645448 ], [ 144.769093414917648, -37.676395776623927 ], [ 144.769438614982818, -37.67644657660027 ], [ 144.769665015025595, -37.676480676584816 ], [ 144.76981921505427, -37.676499176574261 ], [ 144.769976515081936, -37.676503776563607 ] ] } },
{ "type": "Feature", "properties": { "gid": 206736, "osm_id": "274205721", "code": 5122.0, "fclass": "residential", "name": "Tasman Crescent", "pixel_count": 50, "Var_line": 63.408443450927734, "Edge_contrast": 14.755027770996094, "ROI": 2633.5, "Road_detected": -1, "ROI_norm": -0.72031619489188659, "Pred": 0 }, "geometry": { "type": "LineString", "coordinates": [ [ 144.775467917410452, -37.689391776112537 ], [ 144.775621117454705, -37.689557576101144 ] ] } },
{ "type": "Feature", "properties": { "gid": 206742, "osm_id": "306058462", "code": 5121.0, "fclass": "unclassified", "name": "Watergardens Circuit Road", "pixel_count": 50, "Var_line": 50.837642669677734, "Edge_contrast": 40.303169250488281, "ROI": 1626.3333333333333, "Road_detected": -1, "ROI_norm": -0.81410296682738403, "Pred": 0 }, "geometry": { "type": "LineString", "coordinates": [ [ 144.778163918668014, -37.696783375884436 ], [ 144.778201518655777, -37.696608175882922 ] ] } },
{ "type": "Feature", "properties": { "gid": 207352, "osm_id": "784067927", "code": 5112.0, "fclass": "trunk", "name": "Melton Highway", "pixel_count": 50, "Var_line": 40.995738983154297, "Edge_contrast": 36.000053405761719, "ROI": 1018.6666666666667, "Road_detected": -1, "ROI_norm": -0.87068853202295327, "Pred": 0 }, "geometry": { "type": "LineString", "coordinates": [ [ 144.781376319280326, -37.697310275664023 ], [ 144.781581919320558, -37.697353575649849 ] ] } },
{ "type": "Feature", "properties": { "gid": 207373, "osm_id": "45885797", "code": 5122.0, "fclass": "residential", "name": "Kings Road Service Road", "pixel_count": 261, "Var_line": 81.591567993164062, "Edge_contrast": 16.792709350585938, "ROI": 19368.333333333336, "Road_detected": -1, "ROI_norm": 0.83802171397314218, "Pred": 0 }, "geometry": { "type": "LineString", "coordinates": [ [ 144.781977319127492, -37.694911375638291 ], [ 144.781940019107424, -37.694783775641604 ], [ 144.781919919095287, -37.694703075643453 ], [ 144.781923619091799, -37.694664075643487 ], [ 144.781931719089499, -37.694630175643134 ], [ 144.782142219075894, -37.69416267563183 ], [ 144.782327219066076, -37.693771875621707 ], [ 144.782545719059215, -37.693354675609541 ], [ 144.782765519057392, -37.692982275596989 ], [ 144.782847919057701, -37.692852375592231 ], [ 144.782896219061428, -37.692808875589236 ], [ 144.782948219067947, -37.692785775585854 ], [ 144.783106219086704, -37.692705475575671 ] ] } },
{ "type": "Feature", "properties": { "gid": 207518, "osm_id": "656614430", "code": 5122.0, "fclass": "residential", "name": "Melton Highway Service Road", "pixel_count": 69, "Var_line": 44.782505035400391, "Edge_contrast": 29.008245468139648, "ROI": 5701.3333333333339, "Road_detected": -1, "ROI_norm": -0.43464134613850208, "Pred": 0 }, "geometry": { "type": "LineString", "coordinates": [ [ 144.769693116993267, -37.694831476468934 ], [ 144.769975417044435, -37.69485327644972 ], [ 144.770002617049045, -37.69485247644792 ], [ 144.770029817053484, -37.694850176446067 ], [ 144.770062617058358, -37.694842676443891 ] ] } },
{ "type": "Feature", "properties": { "gid": 207531, "osm_id": "784067926", "code": 5113.0, "fclass": "primary", "name": "Kings Road", "pixel_count": 70, "Var_line": 29.263702392578125, "Edge_contrast": 35.404884338378906, "ROI": 4962.6666666666661, "Road_detected": -1, "ROI_norm": -0.50342555484578744, "Pred": 0 }, "geometry": { "type": "LineString", "coordinates": [ [ 144.781181119241467, -37.697261975677527 ], [ 144.781207919236863, -37.697176075676225 ], [ 144.781253819228994, -37.697028575674054 ] ] } },
{ "type": "Feature", "properties": { "gid": 207566, "osm_id": "667981512", "code": 5115.0, "fclass": "tertiary", "name": "Overton Lea Boulevard", "pixel_count": 50, "Var_line": 22.643703460693359, "Edge_contrast": 24.985738754272461, "ROI": 4024.6666666666665, "Road_detected": -1, "ROI_norm": -0.59077156716632029, "Pred": 0 }, "geometry": { "type": "LineString", "coordinates": [ [ 144.766107416365941, -37.694768276711514 ], [ 144.766197316356738, -37.694536376706886 ] ] } },
{ "type": "Feature", "properties": { "gid": 214380, "osm_id": "89383649", "code": 5122.0, "fclass": "residential", "name": "Penrhyn Court", "pixel_count": 80, "Var_line": 63.807514190673828, "Edge_contrast": 39.666988372802734, "ROI": 4855.6666666666661, "Road_detected": -1, "ROI_norm": -0.51338933237062434, "Pred": 0 }, "geometry": { "type": "LineString", "coordinates": [ [ 144.796113121643629, -37.695565874678195 ], [ 144.796193521617738, -37.69519447467507 ], [ 144.796193521611826, -37.695139274675398 ], [ 144.796184821600406, -37.695046574676567 ] ] } },
{ "type": "Feature", "properties": { "gid": 217310, "osm_id": "33657398", "code": 5115.0, "fclass": "tertiary", "name": "Trickey Avenue", "pixel_count": 50, "Var_line": 40.825607299804688, "Edge_contrast": 30.779895782470703, "ROI": 3578.1666666666665, "Road_detected": -1, "ROI_norm": -0.63234938646388739, "Pred": 0 }, "geometry": { "type": "LineString", "coordinates": [ [ 144.769719017299622, -37.697653376449658 ], [ 144.769971517342839, -37.697648776432622 ] ] } },
{ "type": "Feature", "properties": { "gid": 217317, "osm_id": "36714367", "code": 5122.0, "fclass": "residential", "name": "Chalmers Place", "pixel_count": 75, "Var_line": 72.365699768066406, "Edge_contrast": 3.0043833255767822, "ROI": 10826.333333333334, "Road_detected": -1, "ROI_norm": 0.042595661476349467, "Pred": 0 }, "geometry": { "type": "LineString", "coordinates": [ [ 144.773903816396711, -37.682445876261397 ], [ 144.773429016367714, -37.682942576290365 ], [ 144.772936816339239, -37.683472176320322 ] ] } },
{ "type": "Feature", "properties": { "gid": 253960, "osm_id": "784646133", "code": 5113.0, "fclass": "primary", "name": "Kings Road", "pixel_count": 274, "Var_line": 22.422868728637695, "Edge_contrast": 3.6038813591003418, "ROI": 9763.3333333333339, "Road_detected": -1, "ROI_norm": -0.056390277859179744, "Pred": 0 }, "geometry": { "type": "LineString", "coordinates": [ [ 144.785575119008314, -37.687984175438075 ], [ 144.785392618998003, -37.688182575449169 ], [ 144.785291418989942, -37.688270875455466 ], [ 144.785142418981167, -37.688429575464568 ], [ 144.784979718972465, -37.688611375474395 ], [ 144.784855718967407, -37.688764175481865 ], [ 144.784739318963631, -37.688917375488799 ], [ 144.7846281189602, -37.68906497549542 ], [ 144.784544718962565, -37.689221375500061 ], [ 144.784389218969807, -37.689540475508593 ], [ 144.784332918974172, -37.689672375511556 ] ] } },
{ "type": "Feature", "properties": { "gid": 253962, "osm_id": "784646135", "code": 5115.0, "fclass": "tertiary", "name": "Palmerston Crescent", "pixel_count": 50, "Var_line": 32.224712371826172, "Edge_contrast": 30.240205764770508, "ROI": 3089.833333333333, "Road_detected": -1, "ROI_norm": -0.67782270133580658, "Pred": 0 }, "geometry": { "type": "LineString", "coordinates": [ [ 144.783745518854829, -37.689506875552311 ], [ 144.783603418824129, -37.689449575562293 ] ] } },
{ "type": "Feature", "properties": { "gid": 254014, "osm_id": "33657750", "code": 5122.0, "fclass": "residential", "name": "Pecks Road", "pixel_count": 50, "Var_line": 54.794715881347656, "Edge_contrast": 39.740890502929688, "ROI": 2758.3333333333335, "Road_detected": -1, "ROI_norm": -0.70869178777957686, "Pred": 0 }, "geometry": { "type": "LineString", "coordinates": [ [ 144.770099617385455, -37.697839976422785 ], [ 144.769934917369227, -37.697954676433206 ] ] } },
{ "type": "Feature", "properties": { "gid": 254019, "osm_id": "33737327", "code": 5122.0, "fclass": "residential", "name": "Preston Place", "pixel_count": 75, "Var_line": 118.55054473876953, "Edge_contrast": 25.253780364990234, "ROI": 4744.0, "Road_detected": -1, "ROI_norm": -0.5237876671706877, "Pred": 0 }, "geometry": { "type": "LineString", "coordinates": [ [ 144.768206716452084, -37.692177476585812 ], [ 144.768314016484396, -37.692305876577805 ], [ 144.768369016506853, -37.692426876573322 ] ] } },
{ "type": "Feature", "properties": { "gid": 254091, "osm_id": "47411290", "code": 5121.0, "fclass": "unclassified", "name": "Watergardens Circuit Road", "pixel_count": 65, "Var_line": 27.951686859130859, "Edge_contrast": 16.598712921142578, "ROI": 3683.1666666666665, "Road_detected": -1, "ROI_norm": -0.62257184777129038, "Pred": 0 }, "geometry": { "type": "LineString", "coordinates": [ [ 144.775098818160785, -37.696999876090267 ], [ 144.774825418112727, -37.696992676108721 ], [ 144.7747822181054, -37.696994476111662 ], [ 144.774734018097405, -37.696997576114889 ] ] } },
{ "type": "Feature", "properties": { "gid": 262161, "osm_id": "206932129", "code": 5122.0, "fclass": "residential", "name": null, "pixel_count": 94, "Var_line": 78.568115234375, "Edge_contrast": 2.2567300796508789, "ROI": 4406.5, "Road_detected": -1, "ROI_norm": -0.555215470111178, "Pred": 0 }, "geometry": { "type": "LineString", "coordinates": [ [ 144.759739415621027, -37.698107877120769 ], [ 144.759733315618178, -37.698091477121288 ], [ 144.759733615616426, -37.698074377121358 ], [ 144.759741415615878, -37.69805657712098 ], [ 144.759755915616779, -37.698041777120082 ], [ 144.75977581561915, -37.698031577118783 ], [ 144.759798815622645, -37.698026977117287 ], [ 144.759822415626871, -37.698028577115636 ], [ 144.759845015631669, -37.698036577114081 ], [ 144.759862815636183, -37.698050277112785 ], [ 144.759873815639963, -37.698067877111932 ], [ 144.759876415642537, -37.698087477111677 ], [ 144.759870615643621, -37.698106577111929 ], [ 144.759856915642928, -37.698122877112802 ], [ 144.759836915640705, -37.698134577114025 ], [ 144.759813115637201, -37.698140277115606 ], [ 144.75978841563284, -37.698139177117262 ], [ 144.759768315628691, -37.698132877118674 ], [ 144.759751415624606, -37.698122077119876 ], [ 144.759739415621027, -37.698107877120769 ] ] } },
{ "type": "Feature", "properties": { "gid": 262961, "osm_id": "784402055", "code": 5113.0, "fclass": "primary", "name": "Kings Road", "pixel_count": 71, "Var_line": 47.839614868164062, "Edge_contrast": 16.829254150390625, "ROI": 6300.833333333333, "Road_detected": -1, "ROI_norm": -0.37881625617457954, "Pred": 0 }, "geometry": { "type": "LineString", "coordinates": [ [ 144.781253819228994, -37.697028575674054 ], [ 144.781276019224464, -37.696950475673042 ], [ 144.781364919214838, -37.696716575668525 ] ] } },
{ "type": "Feature", "properties": { "gid": 262963, "osm_id": "784402058", "code": 5112.0, "fclass": "trunk", "name": "Melton Highway", "pixel_count": 50, "Var_line": 57.332080841064453, "Edge_contrast": 44.147041320800781, "ROI": 3104.8333333333339, "Road_detected": -1, "ROI_norm": -0.67642591009400688, "Pred": 0 }, "geometry": { "type": "LineString", "coordinates": [ [ 144.781581919320558, -37.697353575649849 ], [ 144.781751919354008, -37.697391075638123 ] ] } },
{ "type": "Feature", "properties": { "gid": 262974, "osm_id": "23552790", "code": 5113.0, "fclass": "primary", "name": "Kings Road", "pixel_count": 105, "Var_line": 54.697399139404297, "Edge_contrast": 15.265381813049316, "ROI": 9402.6666666666679, "Road_detected": -1, "ROI_norm": -0.089975347273115902, "Pred": 0 }, "geometry": { "type": "LineString", "coordinates": [ [ 144.781364919214838, -37.696716575668525 ], [ 144.781387219211837, -37.6966525756674 ], [ 144.781451419203222, -37.696468375664175 ], [ 144.781473819201665, -37.696417875663002 ], [ 144.78167381917342, -37.695830475653096 ] ] } },
{ "type": "Feature", "properties": { "gid": 262975, "osm_id": "28186117", "code": 5115.0, "fclass": "tertiary", "name": null, "pixel_count": 205, "Var_line": 42.698593139648438, "Edge_contrast": 31.07170295715332, "ROI": 9533.3333333333339, "Road_detected": -1, "ROI_norm": -0.077807743566773085, "Pred": 0 }, "geometry": { "type": "LineString", "coordinates": [ [ 144.765714516522848, -37.696870876724972 ], [ 144.765728016523127, -37.696851676724187 ], [ 144.765747916524788, -37.696835176722978 ], [ 144.765769616527137, -37.696821476721595 ], [ 144.765792216529917, -37.696811376720149 ], [ 144.765843816537682, -37.696800076716706 ], [ 144.765897216547188, -37.696802576713075 ], [ 144.765946816557459, -37.696818476709637 ], [ 144.765987216567424, -37.69684617670675 ], [ 144.766012616575381, -37.696879476704822 ], [ 144.766024416581445, -37.696917276703779 ], [ 144.766021516585113, -37.696956076703742 ], [ 144.766004216586026, -37.696992476704672 ], [ 144.76597411658409, -37.697023276706553 ], [ 144.765933816579491, -37.697045476709086 ], [ 144.765888216572847, -37.6970571767121 ], [ 144.765840416564629, -37.697057876715405 ], [ 144.765794316555571, -37.697047676718505 ], [ 144.76575391654643, -37.69702737672133 ], [ 144.765722616537943, -37.696998776723696 ], [ 144.765701016529789, -37.696957776725377 ], [ 144.765698216524584, -37.696913376725846 ], [ 144.765714516522848, -37.696870876724972 ] ] } },
{ "type": "Feature", "properties": { "gid": 262979, "osm_id": "33656326", "code": 5122.0, "fclass": "residential", "name": "Milligan Parade", "pixel_count": 50, "Var_line": 58.123989105224609, "Edge_contrast": 32.123359680175781, "ROI": 4147.833333333333, "Road_detected": -1, "ROI_norm": -0.57930235908087713, "Pred": 0 }, "geometry": { "type": "LineString", "coordinates": [ [ 144.765462716477799, -37.696857076742077 ], [ 144.765747916524788, -37.696835176722978 ] ] } },
{ "type": "Feature", "properties": { "gid": 262990, "osm_id": "33657743", "code": 5115.0, "fclass": "tertiary", "name": "Trickey Avenue", "pixel_count": 64, "Var_line": 23.143613815307617, "Edge_contrast": 24.286144256591797, "ROI": 1841.8333333333333, "Road_detected": -1, "ROI_norm": -0.79403573265353034, "Pred": 0 }, "geometry": { "type": "LineString", "coordinates": [ [ 144.770416517424252, -37.697689976402309 ], [ 144.770355517416647, -37.697717176406258 ], [ 144.770289117406634, -37.697731376410651 ], [ 144.770235117400091, -37.697757676414135 ] ] } },
{ "type": "Feature", "properties": { "gid": 262991, "osm_id": "33657746", "code": 5115.0, "fclass": "tertiary", "name": "Trickey Avenue", "pixel_count": 68, "Var_line": 16.178007125854492, "Edge_contrast": 18.680170059204102, "ROI": 1628.1666666666665, "Road_detected": -1, "ROI_norm": -0.81393224789783092, "Pred": 0 }, "geometry": { "type": "LineString", "coordinates": [ [ 144.770416517424252, -37.697689976402309 ], [ 144.770456817430784, -37.697685776399659 ], [ 144.770492717436554, -37.697681776397268 ], [ 144.770529217441975, -37.6976730763948 ], [ 144.770561417446288, -37.697661376392695 ], [ 144.770597617451017, -37.697647576390324 ], [ 144.770623017454113, -37.697634876388705 ] ] } },
{ "type": "Feature", "properties": { "gid": 263075, "osm_id": "47346321", "code": 5121.0, "fclass": "unclassified", "name": null, "pixel_count": 102, "Var_line": 60.529132843017578, "Edge_contrast": 14.591276168823242, "ROI": 5452.5, "Road_detected": -1, "ROI_norm": -0.45781256084968824, "Pred": 0 }, "geometry": { "type": "LineString", "coordinates": [ [ 144.777156018553455, -37.697342675949137 ], [ 144.777304918580086, -37.697350075938978 ], [ 144.777353318589064, -37.69735607593573 ], [ 144.777441718605559, -37.697367075929634 ], [ 144.777617018636533, -37.697373375917728 ] ] } },
{ "type": "Feature", "properties": { "gid": 263098, "osm_id": "47521718", "code": 5122.0, "fclass": "residential", "name": "Sydenham Road", "pixel_count": 50, "Var_line": 40.210727691650391, "Edge_contrast": 41.163810729980469, "ROI": 2184.6666666666665, "Road_detected": -1, "ROI_norm": -0.76211129282706702, "Pred": 0 }, "geometry": { "type": "LineString", "coordinates": [ [ 144.770699417452761, -37.697498576384376 ], [ 144.770565217412042, -37.697334976394409 ] ] } },
{ "type": "Feature", "properties": { "gid": 263134, "osm_id": "200139515", "code": 5121.0, "fclass": "unclassified", "name": "Watergardens Circuit Road", "pixel_count": 134, "Var_line": 86.025169372558594, "Edge_contrast": 34.027828216552734, "ROI": 5621.5, "Road_detected": -1, "ROI_norm": -0.44207537952541326, "Pred": 0 }, "geometry": { "type": "LineString", "coordinates": [ [ 144.776095618346119, -37.69711977602212 ], [ 144.776174318361427, -37.697135676016707 ], [ 144.77644791841422, -37.697186675997905 ], [ 144.776736218470489, -37.697246075978036 ], [ 144.777082218538879, -37.697325675954175 ], [ 144.777156018553455, -37.697342675949137 ] ] } },
{ "type": "Feature", "properties": { "gid": 263137, "osm_id": "201387409", "code": 5112.0, "fclass": "trunk", "name": "Melton Highway", "pixel_count": 46, "Var_line": 32.558460235595703, "Edge_contrast": 34.583202362060547, "ROI": 3543.6666666666661, "Road_detected": -1, "ROI_norm": -0.63556200632002635, "Pred": 0 }, "geometry": { "type": "LineString", "coordinates": [ [ 144.778201518655777, -37.696608175882922 ], [ 144.778306118676596, -37.696633675875766 ] ] } },
{ "type": "Feature", "properties": { "gid": 263175, "osm_id": "289137164", "code": 5122.0, "fclass": "residential", "name": "Hodder Court", "pixel_count": 77, "Var_line": 92.455253601074219, "Edge_contrast": 12.263293266296387, "ROI": 5725.333333333333, "Road_detected": -1, "ROI_norm": -0.43240648015162286, "Pred": 0 }, "geometry": { "type": "LineString", "coordinates": [ [ 144.7654114165598, -37.697706676740275 ], [ 144.765135416506098, -37.697651076759207 ], [ 144.765093416498985, -37.697652676762047 ], [ 144.765015016487979, -37.697676776767246 ] ] } },
{ "type": "Feature", "properties": { "gid": 268224, "osm_id": "753399705", "code": 5113.0, "fclass": "primary", "name": "Kings Road", "pixel_count": 105, "Var_line": 56.665962219238281, "Edge_contrast": 37.352680206298828, "ROI": 7926.0, "Road_detected": -1, "ROI_norm": -0.22748168507693992, "Pred": 0 }, "geometry": { "type": "LineString", "coordinates": [ [ 144.78187441921051, -37.695852775639409 ], [ 144.781846519213758, -37.695928375640825 ], [ 144.781791819221496, -37.696088875643454 ], [ 144.781640219242831, -37.696533275651007 ], [ 144.781625019244984, -37.696577875651776 ] ] } },
{ "type": "Feature", "properties": { "gid": 268233, "osm_id": "7999643", "code": 5122.0, "fclass": "residential", "name": "The Esplanade", "pixel_count": 238, "Var_line": 33.037487030029297, "Edge_contrast": 34.671058654785156, "ROI": 9339.5, "Road_detected": -1, "ROI_norm": -0.095857390391361028, "Pred": 0 }, "geometry": { "type": "LineString", "coordinates": [ [ 144.767216216371651, -37.693027676647425 ], [ 144.766942716339116, -37.693165676665068 ], [ 144.766789816319886, -37.693233576674949 ], [ 144.766661016303033, -37.693284476683345 ], [ 144.766591316293471, -37.693307876687918 ], [ 144.766459916273476, -37.6933333766966 ], [ 144.76633381625345, -37.693350276705033 ], [ 144.766189016228651, -37.69335247671475 ], [ 144.766033416200116, -37.693337576725384 ], [ 144.765958316184168, -37.693309976730617 ], [ 144.765912716172608, -37.693276076733952 ] ] } },
{ "type": "Feature", "properties": { "gid": 268235, "osm_id": "23552793", "code": 5113.0, "fclass": "primary", "name": "Kings Road", "pixel_count": 100, "Var_line": 15.709492683410645, "Edge_contrast": 4.5755243301391602, "ROI": 5815.5, "Road_detected": -1, "ROI_norm": -0.42401021279813877, "Pred": 0 }, "geometry": { "type": "LineString", "coordinates": [ [ 144.786639619074379, -37.686881175372939 ], [ 144.786464519067977, -37.687104075383395 ], [ 144.785727819018149, -37.687828975428715 ], [ 144.785575119008314, -37.687984175438075 ] ] } },
{ "type": "Feature", "properties": { "gid": 268259, "osm_id": "33736609", "code": 5115.0, "fclass": "tertiary", "name": "Robertsons Road", "pixel_count": 203, "Var_line": 27.699213027954102, "Edge_contrast": 33.747570037841797, "ROI": 21596.166666666668, "Road_detected": -1, "ROI_norm": 1.0454762531857509, "Pred": 0 }, "geometry": { "type": "LineString", "coordinates": [ [ 144.775608117407558, -37.689137776104651 ], [ 144.775708517413989, -37.689036176098554 ], [ 144.776240017447861, -37.688493276065969 ], [ 144.776279617450427, -37.688452876063515 ], [ 144.776687117476371, -37.688036676038557 ], [ 144.776727917478979, -37.687995076036088 ], [ 144.777342717518138, -37.687367175998475 ], [ 144.779034217625878, -37.685639575894811 ], [ 144.779291817642246, -37.685376375879045 ] ] } },
{ "type": "Feature", "properties": { "gid": 268279, "osm_id": "36714379", "code": 5122.0, "fclass": "residential", "name": "Sansom Court", "pixel_count": 98, "Var_line": 72.261932373046875, "Edge_contrast": 42.795421600341797, "ROI": 5355.5, "Road_detected": -1, "ROI_norm": -0.46684514421332546, "Pred": 0 }, "geometry": { "type": "LineString", "coordinates": [ [ 144.777633717074423, -37.682750176007431 ], [ 144.777773017092613, -37.682694775998357 ], [ 144.777897417101798, -37.682579675990688 ], [ 144.777988917108274, -37.682492375985099 ] ] } },
{ "type": "Feature", "properties": { "gid": 268281, "osm_id": "36714388", "code": 5115.0, "fclass": "tertiary", "name": "Palmerston Crescent", "pixel_count": 223, "Var_line": 50.274990081787109, "Edge_contrast": 20.943122863769531, "ROI": 16009.833333333334, "Road_detected": -1, "ROI_norm": 0.52528015493421931, "Pred": 0 }, "geometry": { "type": "LineString", "coordinates": [ [ 144.781874518277618, -37.687138475693502 ], [ 144.78172111822613, -37.686905475705366 ], [ 144.781622518197707, -37.686799075712699 ], [ 144.781523218169838, -37.686699275720031 ], [ 144.78133411811919, -37.686531675733818 ], [ 144.781119418064463, -37.686367375749356 ], [ 144.780676917949876, -37.686012275781465 ], [ 144.780274517852916, -37.68575637581025 ], [ 144.779668517706824, -37.685370875853621 ] ] } },
{ "type": "Feature", "properties": { "gid": 268317, "osm_id": "46980886", "code": 5122.0, "fclass": "residential", "name": "Melton Highway Service Road", "pixel_count": 50, "Var_line": 72.290534973144531, "Edge_contrast": 16.834184646606445, "ROI": 7705.1666666666661, "Road_detected": -1, "ROI_norm": -0.2480455561367669, "Pred": 0 }, "geometry": { "type": "LineString", "coordinates": [ [ 144.769409516941607, -37.694807676488217 ], [ 144.769693116993267, -37.694831476468934 ] ] } },
{ "type": "Feature", "properties": { "gid": 268330, "osm_id": "47412981", "code": 5121.0, "fclass": "unclassified", "name": null, "pixel_count": 173, "Var_line": 73.094047546386719, "Edge_contrast": 38.859127044677734, "ROI": 7656.8333333333339, "Road_detected": -1, "ROI_norm": -0.25254632791589871, "Pred": 0 }, "geometry": { "type": "LineString", "coordinates": [ [ 144.771897717715916, -37.698019876300179 ], [ 144.771909817714715, -37.697989176299558 ], [ 144.771933017715924, -37.697962776298169 ], [ 144.771964617719334, -37.697943576296097 ], [ 144.772002017724617, -37.697932576293681 ], [ 144.772031817729555, -37.697930476291695 ], [ 144.77206151773504, -37.697933776289631 ], [ 144.772089517740795, -37.697942176287725 ], [ 144.772114417746508, -37.697955376285975 ], [ 144.772134917751913, -37.697972676284472 ], [ 144.772150017756701, -37.697993176283312 ], [ 144.772158817760698, -37.698015876282582 ], [ 144.772160817763819, -37.698042276282273 ], [ 144.772154317765512, -37.698068276282548 ], [ 144.772137517765429, -37.698094876283541 ], [ 144.772111817763317, -37.698116776285133 ], [ 144.772079517759408, -37.698131976287215 ], [ 144.772043017753845, -37.698139376289625 ], [ 144.772005417747238, -37.698138276292177 ], [ 144.771967017739513, -37.698127876294876 ], [ 144.771934317731763, -37.698108676297174 ], [ 144.771910617724899, -37.698082576298937 ], [ 144.771898017719394, -37.698051976300007 ], [ 144.771897717715916, -37.698019876300179 ] ] } },
{ "type": "Feature", "properties": { "gid": 268332, "osm_id": "47413222", "code": 5115.0, "fclass": "tertiary", "name": "Wellesley Drive", "pixel_count": 275, "Var_line": 35.417304992675781, "Edge_contrast": 20.152521133422852, "ROI": 28194.5, "Road_detected": -1, "ROI_norm": 1.659909200550693, "Pred": 0 }, "geometry": { "type": "LineString", "coordinates": [ [ 144.785041019114601, -37.689840075462655 ], [ 144.786509319405894, -37.690187775361245 ], [ 144.786774319459397, -37.690258875342842 ], [ 144.787643119639199, -37.690534475282405 ], [ 144.788112519740622, -37.690723375249469 ], [ 144.788750819883546, -37.691026875204422 ], [ 144.789320220018283, -37.691365075163823 ], [ 144.789851020150365, -37.691740575125543 ], [ 144.790177220230902, -37.691965875102127 ], [ 144.790873220404535, -37.692462675051949 ], [ 144.7912047204874, -37.692700775028044 ] ] } },
{ "type": "Feature", "properties": { "gid": 268335, "osm_id": "47413385", "code": 5113.0, "fclass": "primary", "name": "Kings Road", "pixel_count": 50, "Var_line": 24.061929702758789, "Edge_contrast": 23.595230102539062, "ROI": 1998.3333333333333, "Road_detected": -1, "ROI_norm": -0.77946254403075488, "Pred": 0 }, "geometry": { "type": "LineString", "coordinates": [ [ 144.786937019095404, -37.686597075354591 ], [ 144.786639619074379, -37.686881175372939 ] ] } },
{ "type": "Feature", "properties": { "gid": 268347, "osm_id": "140093065", "code": 5113.0, "fclass": "primary", "name": "Kings Road", "pixel_count": 100, "Var_line": 30.298971176147461, "Edge_contrast": 27.444976806640625, "ROI": 4996.0, "Road_detected": -1, "ROI_norm": -0.50032157430845503, "Pred": 0 }, "geometry": { "type": "LineString", "coordinates": [ [ 144.787840719155412, -37.685697575299073 ], [ 144.788100719165129, -37.685368675283527 ], [ 144.78853961919063, -37.684897675256764 ], [ 144.788694819200771, -37.684741575247244 ] ] } },
{ "type": "Feature", "properties": { "gid": 268383, "osm_id": "274911184", "code": 5122.0, "fclass": "residential", "name": "Leichardt Close", "pixel_count": 50, "Var_line": 64.053443908691406, "Edge_contrast": 15.787406921386719, "ROI": 1876.1666666666665, "Road_detected": -1, "ROI_norm": -0.79083863270007804, "Pred": 0 }, "geometry": { "type": "LineString", "coordinates": [ [ 144.791590320555713, -37.692715675001878 ], [ 144.791527920558991, -37.692847275005263 ] ] } },
{ "type": "Feature", "properties": { "gid": 73, "osm_id": null, "code": null, "fclass": "residential", "name": null, "pixel_count": 113, "Var_line": 0.0, "Edge_contrast": 18.512577056884766, "ROI": 3672.3333333333335, "Road_detected": -1, "ROI_norm": -0.62358064144592329, "Pred": 0 }, "geometry": { "type": "LineString", "coordinates": [ [ 144.767679943192292, -37.69774244610177 ], [ 144.76779862243572, -37.697797031942848 ], [ 144.768099163883505, -37.697854830637993 ], [ 144.768171354127929, -37.697802044987924 ], [ 144.768256517264433, -37.697629129516685 ] ] } },
{ "type": "Feature", "properties": { "gid": 298, "osm_id": null, "code": null, "fclass": "residential", "name": null, "pixel_count": 74, "Var_line": 60.482639312744141, "Edge_contrast": 16.932304382324219, "ROI": 2968.6666666666665, "Road_detected": -1, "ROI_norm": -0.68910567058900973, "Pred": 0 }, "geometry": { "type": "LineString", "coordinates": [ [ 144.775208162612216, -37.694895976027716 ], [ 144.775103989672004, -37.694807094704558 ], [ 144.775093806795837, -37.694598234779306 ] ] } },
{ "type": "Feature", "properties": { "gid": 321, "osm_id": null, "code": null, "fclass": "residential", "name": null, "pixel_count": 50, "Var_line": 46.303565979003906, "Edge_contrast": 14.280604362487793, "ROI": 2638.3333333333335, "Road_detected": -1, "ROI_norm": -0.71986611771397335, "Pred": 0 }, "geometry": { "type": "LineString", "coordinates": [ [ 144.779982784476857, -37.697605463942558 ], [ 144.779953374163881, -37.697811389646525 ] ] } },
{ "type": "Feature", "properties": { "gid": 441, "osm_id": null, "code": null, "fclass": "residential", "name": null, "pixel_count": 75, "Var_line": 22.556285858154297, "Edge_contrast": 12.887167930603027, "ROI": 5036.5, "Road_detected": -1, "ROI_norm": -0.49655023795559622, "Pred": 0 }, "geometry": { "type": "LineString", "coordinates": [ [ 144.79042399621531, -37.683045359137594 ], [ 144.79058260514708, -37.682981267526806 ], [ 144.790972630327786, -37.682565695827037 ] ] } },
{ "type": "Feature", "properties": { "gid": 482, "osm_id": null, "code": null, "fclass": "motorway", "name": null, "pixel_count": 246, "Var_line": 17.009050369262695, "Edge_contrast": 10.888863563537598, "ROI": 12107.0, "Road_detected": -1, "ROI_norm": 0.16185059372065899, "Pred": 0 }, "geometry": { "type": "LineString", "coordinates": [ [ 144.785512577295719, -37.688140408007342 ], [ 144.785761224526624, -37.688076484053276 ], [ 144.785977317243862, -37.688063996536648 ], [ 144.786431439197685, -37.687921765023312 ], [ 144.786950295517443, -37.687808255325962 ], [ 144.787360953816602, -37.687754629007522 ], [ 144.78800911597628, -37.687757208183442 ], [ 144.788635412880467, -37.687852722561708 ], [ 144.789045623510276, -37.687959296691197 ], [ 144.789171707985162, -37.687940923199243 ] ] } },
{ "type": "Feature", "properties": { "gid": 486, "osm_id": null, "code": null, "fclass": "motorway", "name": null, "pixel_count": 225, "Var_line": 46.713356018066406, "Edge_contrast": 15.649808883666992, "ROI": 17684.166666666668, "Road_detected": -1, "ROI_norm": 0.68119309732442423, "Pred": 0 }, "geometry": { "type": "LineString", "coordinates": [ [ 144.788432314455576, -37.684506610084135 ], [ 144.787989343763741, -37.684533004914535 ], [ 144.78740565731735, -37.684660708386915 ], [ 144.786692437542229, -37.684753848308546 ], [ 144.786044293067079, -37.684754122834264 ], [ 144.785633958140011, -37.684699033214137 ], [ 144.785094247826407, -37.68455502401077 ], [ 144.784813713189777, -37.684440086657148 ], [ 144.784543745423235, -37.684408132110114 ] ] } },
{ "type": "Feature", "properties": { "gid": 498, "osm_id": null, "code": null, "fclass": "motorway", "name": null, "pixel_count": 273, "Var_line": 22.186836242675781, "Edge_contrast": 13.059710502624512, "ROI": 17011.0, "Road_detected": -1, "ROI_norm": 0.61850821037299697, "Pred": 0 }, "geometry": { "type": "LineString", "coordinates": [ [ 144.785109401888718, -37.688093912030325 ], [ 144.785215930102339, -37.687988252012062 ], [ 144.785259531083454, -37.687851009873185 ], [ 144.785340844170861, -37.687748165372305 ], [ 144.785372232432167, -37.68683847438119 ], [ 144.785342452892365, -37.68654661524036 ], [ 144.785276713783503, -37.686237526559495 ], [ 144.785126501817331, -37.685876791159998 ], [ 144.784886270874949, -37.685515893902988 ], [ 144.78474087735276, -37.685361147235142 ], [ 144.784685691723325, -37.685140763174964 ] ] } },
{ "type": "Feature", "properties": { "gid": 675, "osm_id": null, "code": null, "fclass": "primary", "name": null, "pixel_count": 61, "Var_line": 90.932670593261719, "Edge_contrast": 27.694171905517578, "ROI": 3292.0, "Road_detected": -1, "ROI_norm": -0.65899705937688569, "Pred": 0 }, "geometry": { "type": "LineString", "coordinates": [ [ 144.758532430367666, -37.684175429082131 ], [ 144.758478597199314, -37.684119534063051 ], [ 144.758475256731629, -37.684037993223527 ] ] } },
{ "type": "Feature", "properties": { "gid": 686, "osm_id": null, "code": null, "fclass": "primary", "name": null, "pixel_count": 50, "Var_line": 51.465343475341797, "Edge_contrast": 42.350631713867188, "ROI": 1346.8333333333333, "Road_detected": -1, "ROI_norm": -0.84012984363291598, "Pred": 0 }, "geometry": { "type": "LineString", "coordinates": [ [ 144.761313619020626, -37.679168797116873 ], [ 144.761169670776184, -37.679145623377678 ] ] } },
{ "type": "Feature", "properties": { "gid": 768, "osm_id": null, "code": null, "fclass": "primary", "name": null, "pixel_count": 74, "Var_line": 70.218276977539062, "Edge_contrast": 9.3916387557983398, "ROI": 1485.5, "Road_detected": -1, "ROI_norm": -0.82721728459761334, "Pred": 0 }, "geometry": { "type": "LineString", "coordinates": [ [ 144.762191039881174, -37.693268777441851 ], [ 144.762079709110765, -37.6931712879895 ], [ 144.761845830636162, -37.69310788491066 ] ] } },
{ "type": "Feature", "properties": { "gid": 848, "osm_id": null, "code": null, "fclass": "primary", "name": null, "pixel_count": 50, "Var_line": 0.0, "Edge_contrast": 0.0, "ROI": 578.5, "Road_detected": -1, "ROI_norm": -0.91167659501842713, "Pred": 0 }, "geometry": { "type": "LineString", "coordinates": [ [ 144.789780480254734, -37.686568789792773 ], [ 144.789953766650626, -37.686408886670364 ] ] } },
{ "type": "Feature", "properties": { "gid": 858, "osm_id": null, "code": null, "fclass": "primary", "name": null, "pixel_count": 60, "Var_line": 82.998001098632812, "Edge_contrast": 24.563579559326172, "ROI": 5131.0, "Road_detected": -1, "ROI_norm": -0.48775045313225895, "Pred": 0 }, "geometry": { "type": "LineString", "coordinates": [ [ 144.760059865378452, -37.693035661251002 ], [ 144.759920907029539, -37.693134081704073 ], [ 144.759915382694629, -37.693172691916971 ] ] } },
{ "type": "Feature", "properties": { "gid": 889, "osm_id": null, "code": null, "fclass": "primary", "name": null, "pixel_count": 66, "Var_line": 87.187690734863281, "Edge_contrast": 39.817996978759766, "ROI": 4520.0, "Road_detected": -1, "ROI_norm": -0.5446464163815613, "Pred": 0 }, "geometry": { "type": "LineString", "coordinates": [ [ 144.772998953846923, -37.68223545511384 ], [ 144.773157249903733, -37.682280098113587 ], [ 144.773200316341615, -37.682327383631367 ] ] } },
{ "type": "Feature", "properties": { "gid": 967, "osm_id": null, "code": null, "fclass": "primary", "name": null, "pixel_count": 42, "Var_line": 128.6666259765625, "Edge_contrast": 55.153732299804688, "ROI": 1451.0, "Road_detected": -1, "ROI_norm": -0.83042990445375231, "Pred": 0 }, "geometry": { "type": "LineString", "coordinates": [ [ 144.77642624063688, -37.682424995179367 ], [ 144.776454843122849, -37.682493708869728 ] ] } },
{ "type": "Feature", "properties": { "gid": 977, "osm_id": null, "code": null, "fclass": "tertiary", "name": null, "pixel_count": 50, "Var_line": 149.27449035644531, "Edge_contrast": 55.568637847900391, "ROI": 7223.5, "Road_detected": -1, "ROI_norm": -0.29289807490121955, "Pred": 0 }, "geometry": { "type": "LineString", "coordinates": [ [ 144.788188281754373, -37.689358164408596 ], [ 144.787986048537533, -37.68956378699496 ] ] } },
{ "type": "Feature", "properties": { "gid": 991, "osm_id": null, "code": null, "fclass": "tertiary", "name": null, "pixel_count": 50, "Var_line": 92.57635498046875, "Edge_contrast": 1.1285473108291626, "ROI": 4879.3333333333339, "Road_detected": -1, "ROI_norm": -0.51118550618911829, "Pred": 0 }, "geometry": { "type": "LineString", "coordinates": [ [ 144.789461712475998, -37.697599609236505 ], [ 144.789317083114781, -37.697805334668196 ] ] } },
{ "type": "Feature", "properties": { "gid": 1026, "osm_id": null, "code": null, "fclass": "tertiary", "name": null, "pixel_count": 34, "Var_line": 90.738250732421875, "Edge_contrast": 19.072301864624023, "ROI": 2191.0, "Road_detected": -1, "ROI_norm": -0.76152153652497379, "Pred": 0 }, "geometry": { "type": "LineString", "coordinates": [ [ 144.76375246900227, -37.691440931404713 ], [ 144.763723731710826, -37.691417988031787 ] ] } },
{ "type": "Feature", "properties": { "gid": 1036, "osm_id": null, "code": null, "fclass": "tertiary", "name": null, "pixel_count": 70, "Var_line": 144.275146484375, "Edge_contrast": 50.695171356201172, "ROI": 8209.6666666666661, "Road_detected": -1, "ROI_norm": -0.20106681070424151, "Pred": 0 }, "geometry": { "type": "LineString", "coordinates": [ [ 144.760346266094643, -37.684476599565031 ], [ 144.760338765512643, -37.684570992448563 ], [ 144.760460838417742, -37.684682809572642 ] ] } },
{ "type": "Feature", "properties": { "gid": 1082, "osm_id": null, "code": null, "fclass": "tertiary", "name": null, "pixel_count": 74, "Var_line": 70.218276977539062, "Edge_contrast": 9.3916387557983398, "ROI": 1485.5, "Road_detected": -1, "ROI_norm": -0.82721728459761334, "Pred": 0 }, "geometry": { "type": "LineString", "coordinates": [ [ 144.762191039881174, -37.693268777441851 ], [ 144.762079709110765, -37.6931712879895 ], [ 144.761845830636162, -37.69310788491066 ] ] } },
{ "type": "Feature", "properties": { "gid": 1157, "osm_id": null, "code": null, "fclass": "tertiary", "name": null, "pixel_count": 50, "Var_line": 0.0, "Edge_contrast": 4.1210150718688965, "ROI": 1143.5, "Road_detected": -1, "ROI_norm": -0.85906412491064343, "Pred": 0 }, "geometry": { "type": "LineString", "coordinates": [ [ 144.789780480254734, -37.686568789792773 ], [ 144.790011443922282, -37.686386101060933 ] ] } },
{ "type": "Feature", "properties": { "gid": 1400, "osm_id": null, "code": null, "fclass": "unclassified", "name": null, "pixel_count": 69, "Var_line": 32.487773895263672, "Edge_contrast": 2.9339418411254883, "ROI": 1780.6666666666667, "Road_detected": -1, "ROI_norm": -0.79973153693953525, "Pred": 0 }, "geometry": { "type": "LineString", "coordinates": [ [ 144.768082878635227, -37.697880546586411 ], [ 144.768169417529435, -37.697846384107265 ], [ 144.768256447149696, -37.697652016023433 ] ] } },
{ "type": "Feature", "properties": { "gid": 1561, "osm_id": null, "code": null, "fclass": "unclassified", "name": null, "pixel_count": 50, "Var_line": 58.656902313232422, "Edge_contrast": 28.543352127075195, "ROI": 5976.8333333333339, "Road_detected": -1, "ROI_norm": -0.40898694699745008, "Pred": 0 }, "geometry": { "type": "LineString", "coordinates": [ [ 144.781054691944206, -37.695570516233609 ], [ 144.78151545935512, -37.695640017349511 ] ] } },
{ "type": "Feature", "properties": { "gid": 29, "osm_id": null, "code": null, "fclass": "residential", "name": null, "pixel_count": 50, "Var_line": 59.853187561035156, "Edge_contrast": 17.023342132568359, "ROI": 6567.8333333333339, "Road_detected": -1, "ROI_norm": -0.35395337207054717, "Pred": 0 }, "geometry": { "type": "LineString", "coordinates": [ [ 144.771025642123533, -37.696558781360338 ], [ 144.771427401743125, -37.697085941412965 ] ] } },
{ "type": "Feature", "properties": { "gid": 39, "osm_id": null, "code": null, "fclass": "residential", "name": null, "pixel_count": 66, "Var_line": 92.0523681640625, "Edge_contrast": 38.117214202880859, "ROI": 5710.0, "Road_detected": -1, "ROI_norm": -0.43383431119879573, "Pred": 0 }, "geometry": { "type": "LineString", "coordinates": [ [ 144.780938854037316, -37.695776284357741 ], [ 144.780789836830508, -37.69624661852535 ], [ 144.780735655230416, -37.696302305580893 ] ] } },
{ "type": "Feature", "properties": { "gid": 141, "osm_id": null, "code": null, "fclass": "residential", "name": null, "pixel_count": 75, "Var_line": 52.906047821044922, "Edge_contrast": 18.081289291381836, "ROI": 11452.666666666666, "Road_detected": -1, "ROI_norm": 0.10091945577282455, "Pred": 0 }, "geometry": { "type": "LineString", "coordinates": [ [ 144.77177499721347, -37.696468664558552 ], [ 144.77160968986621, -37.696351055460838 ], [ 144.771114567266068, -37.695735031742515 ] ] } },
{ "type": "Feature", "properties": { "gid": 215, "osm_id": null, "code": null, "fclass": "residential", "name": null, "pixel_count": 75, "Var_line": 57.104942321777344, "Edge_contrast": 15.184304237365723, "ROI": 5193.0, "Road_detected": -1, "ROI_norm": -0.48197704933282076, "Pred": 0 }, "geometry": { "type": "LineString", "coordinates": [ [ 144.775259459413292, -37.697024530996508 ], [ 144.775572710123924, -37.697048004831238 ], [ 144.775720501779375, -37.69700250829667 ] ] } },
{ "type": "Feature", "properties": { "gid": 298, "osm_id": null, "code": null, "fclass": "residential", "name": null, "pixel_count": 164, "Var_line": 38.580986022949219, "Edge_contrast": 13.852725982666016, "ROI": 8895.3333333333321, "Road_detected": -1, "ROI_norm": -0.13721793105131477, "Pred": 0 }, "geometry": { "type": "LineString", "coordinates": [ [ 144.790785368670498, -37.68778354523036 ], [ 144.790666561900963, -37.687774755163289 ], [ 144.790591053350965, -37.687734571439883 ], [ 144.790334443659646, -37.687425151904762 ], [ 144.790151606761214, -37.687133026075763 ], [ 144.789877759281154, -37.686548934579619 ], [ 144.789810304540055, -37.686202654474734 ] ] } },
{ "type": "Feature", "properties": { "gid": 323, "osm_id": null, "code": null, "fclass": "residential", "name": null, "pixel_count": 50, "Var_line": 98.470268249511719, "Edge_contrast": 27.224340438842773, "ROI": 4619.5, "Road_detected": -1, "ROI_norm": -0.5353810344776242, "Pred": 0 }, "geometry": { "type": "LineString", "coordinates": [ [ 144.77802490367938, -37.697167006394949 ], [ 144.778112007892673, -37.696938301325233 ] ] } },
{ "type": "Feature", "properties": { "gid": 412, "osm_id": null, "code": null, "fclass": "residential", "name": null, "pixel_count": 92, "Var_line": 46.355381011962891, "Edge_contrast": 17.561180114746094, "ROI": 9600.0, "Road_detected": -1, "ROI_norm": -0.071599782492108396, "Pred": 0 }, "geometry": { "type": "LineString", "coordinates": [ [ 144.770824868418202, -37.696260871008818 ], [ 144.770478546947913, -37.695862552418653 ], [ 144.77045205800718, -37.695690851739108 ], [ 144.770481085401912, -37.695619386543846 ] ] } },
{ "type": "Feature", "properties": { "gid": 418, "osm_id": null, "code": null, "fclass": "residential", "name": null, "pixel_count": 71, "Var_line": 82.83660888671875, "Edge_contrast": 39.110355377197266, "ROI": 7270.0, "Road_detected": -1, "ROI_norm": -0.28856802205164089, "Pred": 0 }, "geometry": { "type": "LineString", "coordinates": [ [ 144.785657345942184, -37.698050596187784 ], [ 144.785538458757003, -37.698064687582274 ], [ 144.78534061643245, -37.697981369250279 ] ] } },
{ "type": "Feature", "properties": { "gid": 430, "osm_id": null, "code": null, "fclass": "residential", "name": null, "pixel_count": 71, "Var_line": 56.780788421630859, "Edge_contrast": 31.791048049926758, "ROI": 6575.5, "Road_detected": -1, "ROI_norm": -0.35323945654696082, "Pred": 0 }, "geometry": { "type": "LineString", "coordinates": [ [ 144.771800355834131, -37.697613045139953 ], [ 144.771779032314839, -37.697518597129665 ], [ 144.771456143524205, -37.697108882888365 ] ] } },
{ "type": "Feature", "properties": { "gid": 575, "osm_id": null, "code": null, "fclass": "trunk", "name": null, "pixel_count": 34, "Var_line": 57.164081573486328, "Edge_contrast": 36.34161376953125, "ROI": 7293.3333333333339, "Road_detected": -1, "ROI_norm": -0.28639523567550818, "Pred": 0 }, "geometry": { "type": "LineString", "coordinates": [ [ 144.758012423123773, -37.693649483681448 ], [ 144.758041305933631, -37.693626655333887 ] ] } },
{ "type": "Feature", "properties": { "gid": 588, "osm_id": null, "code": null, "fclass": "trunk", "name": null, "pixel_count": 74, "Var_line": 133.96846008300781, "Edge_contrast": 70.911643981933594, "ROI": 3203.0, "Road_detected": -1, "ROI_norm": -0.6672846874115631, "Pred": 0 }, "geometry": { "type": "LineString", "coordinates": [ [ 144.781276282737679, -37.688682029383031 ], [ 144.781205997697839, -37.688704787748676 ], [ 144.781173390391103, -37.688773388328286 ], [ 144.781074297458332, -37.688796093990405 ] ] } },
{ "type": "Feature", "properties": { "gid": 678, "osm_id": null, "code": null, "fclass": "trunk", "name": null, "pixel_count": 30, "Var_line": 68.16156005859375, "Edge_contrast": 24.722509384155273, "ROI": 2714.5, "Road_detected": -1, "ROI_norm": -0.71277352218616896, "Pred": 0 }, "geometry": { "type": "LineString", "coordinates": [ [ 144.758012496333947, -37.693626597145929 ], [ 144.758041305933631, -37.693626655333887 ] ] } },
{ "type": "Feature", "properties": { "gid": 689, "osm_id": null, "code": null, "fclass": "trunk", "name": null, "pixel_count": 75, "Var_line": 88.237388610839844, "Edge_contrast": 24.945028305053711, "ROI": 4885.0, "Road_detected": -1, "ROI_norm": -0.51065782949777183, "Pred": 0 }, "geometry": { "type": "LineString", "coordinates": [ [ 144.765317121507024, -37.669976196774108 ], [ 144.765298775086166, -37.670087734376025 ], [ 144.765114309629922, -37.670364876177089 ] ] } },
{ "type": "Feature", "properties": { "gid": 735, "osm_id": null, "code": null, "fclass": "primary", "name": null, "pixel_count": 30, "Var_line": 32.389816284179688, "Edge_contrast": 22.201766967773438, "ROI": 1099.9999999999998, "Road_detected": -1, "ROI_norm": -0.8631148195118622, "Pred": 0 }, "geometry": { "type": "LineString", "coordinates": [ [ 144.756602372376449, -37.693143120172039 ], [ 144.756602446012749, -37.693120233632932 ] ] } },
{ "type": "Feature", "properties": { "gid": 741, "osm_id": null, "code": null, "fclass": "primary", "name": null, "pixel_count": 67, "Var_line": 0.0, "Edge_contrast": 23.837535858154297, "ROI": 2229.0, "Road_detected": -1, "ROI_norm": -0.75798299871241492, "Pred": 0 }, "geometry": { "type": "LineString", "coordinates": [ [ 144.788711344450803, -37.698056020880436 ], [ 144.7887978143211, -37.698043299612188 ], [ 144.788913534534743, -37.697873284250896 ] ] } },
{ "type": "Feature", "properties": { "gid": 780, "osm_id": null, "code": null, "fclass": "primary", "name": null, "pixel_count": 34, "Var_line": 34.512733459472656, "Edge_contrast": 28.352899551391602, "ROI": 2373.5, "Road_detected": -1, "ROI_norm": -0.74452724308307905, "Pred": 0 }, "geometry": { "type": "LineString", "coordinates": [ [ 144.756573562962075, -37.693143061638025 ], [ 144.756602446012749, -37.693120233632932 ] ] } },
{ "type": "Feature", "properties": { "gid": 811, "osm_id": null, "code": null, "fclass": "primary", "name": null, "pixel_count": 50, "Var_line": 76.139541625976562, "Edge_contrast": 7.4048457145690918, "ROI": 8726.0000000000018, "Road_detected": -1, "ROI_norm": -0.15298615218096293, "Pred": 0 }, "geometry": { "type": "LineString", "coordinates": [ [ 144.760199261378943, -37.685414662434113 ], [ 144.760084761235646, -37.685185565623236 ] ] } },
{ "type": "Feature", "properties": { "gid": 899, "osm_id": null, "code": null, "fclass": "primary", "name": null, "pixel_count": 46, "Var_line": 102.47349548339844, "Edge_contrast": 3.930797815322876, "ROI": 2547.666666666667, "Road_detected": -1, "ROI_norm": -0.72830894477551744, "Pred": 0 }, "geometry": { "type": "LineString", "coordinates": [ [ 144.790337147528675, -37.693595981024302 ], [ 144.790221845618532, -37.693618665850011 ] ] } },
{ "type": "Feature", "properties": { "gid": 1006, "osm_id": null, "code": null, "fclass": "tertiary", "name": null, "pixel_count": 30, "Var_line": 32.389816284179688, "Edge_contrast": 22.201766967773438, "ROI": 1099.9999999999998, "Road_detected": -1, "ROI_norm": -0.8631148195118622, "Pred": 0 }, "geometry": { "type": "LineString", "coordinates": [ [ 144.756602372376449, -37.693143120172039 ], [ 144.756602446012749, -37.693120233632932 ] ] } },
{ "type": "Feature", "properties": { "gid": 1044, "osm_id": null, "code": null, "fclass": "tertiary", "name": null, "pixel_count": 34, "Var_line": 34.512733459472656, "Edge_contrast": 28.352899551391602, "ROI": 2373.5, "Road_detected": -1, "ROI_norm": -0.74452724308307905, "Pred": 0 }, "geometry": { "type": "LineString", "coordinates": [ [ 144.756573562962075, -37.693143061638025 ], [ 144.756602446012749, -37.693120233632932 ] ] } },
{ "type": "Feature", "properties": { "gid": 1057, "osm_id": null, "code": null, "fclass": "tertiary", "name": null, "pixel_count": 72, "Var_line": 59.330577850341797, "Edge_contrast": 24.928609848022461, "ROI": 7198.1666666666661, "Road_detected": -1, "ROI_norm": -0.29525710010959222, "Pred": 0 }, "geometry": { "type": "LineString", "coordinates": [ [ 144.757397366066073, -37.696783713568756 ], [ 144.757516366520008, -37.696735320329978 ], [ 144.757628439115422, -37.696601087992136 ] ] } },
{ "type": "Feature", "properties": { "gid": 1059, "osm_id": null, "code": null, "fclass": "tertiary", "name": null, "pixel_count": 125, "Var_line": 23.141740798950195, "Edge_contrast": 40.559192657470703, "ROI": 8852.0, "Road_detected": -1, "ROI_norm": -0.14125310574984673, "Pred": 0 }, "geometry": { "type": "LineString", "coordinates": [ [ 144.757042672443021, -37.690603590264793 ], [ 144.756427126760599, -37.690529388939041 ], [ 144.755995309591611, -37.690432672090616 ], [ 144.755369421110601, -37.690216832709702 ], [ 144.75520056115613, -37.690096332519119 ] ] } },
{ "type": "Feature", "properties": { "gid": 1072, "osm_id": null, "code": null, "fclass": "tertiary", "name": null, "pixel_count": 30, "Var_line": 75.865104675292969, "Edge_contrast": 34.086158752441406, "ROI": 4078.0000000000005, "Road_detected": -1, "ROI_norm": -0.5858051983065885, "Pred": 0 }, "geometry": { "type": "LineString", "coordinates": [ [ 144.790308274478008, -37.693618817156782 ], [ 144.790337084097899, -37.693618867578586 ] ] } },
{ "type": "Feature", "properties": { "gid": 1173, "osm_id": null, "code": null, "fclass": "tertiary", "name": null, "pixel_count": 73, "Var_line": 116.14031982421875, "Edge_contrast": 29.291433334350586, "ROI": 5111.9999999999991, "Road_detected": -1, "ROI_norm": -0.4895197220385385, "Pred": 0 }, "geometry": { "type": "LineString", "coordinates": [ [ 144.758505523718043, -37.683580318877823 ], [ 144.758666034162957, -37.683493386549863 ], [ 144.758765359472875, -37.683397748262664 ] ] } },
{ "type": "Feature", "properties": { "gid": 1207, "osm_id": null, "code": null, "fclass": "tertiary", "name": null, "pixel_count": 69, "Var_line": 119.8157958984375, "Edge_contrast": 31.453573226928711, "ROI": 4574.0, "Road_detected": -1, "ROI_norm": -0.53961796791108285, "Pred": 0 }, "geometry": { "type": "LineString", "coordinates": [ [ 144.760113712755413, -37.68513985009222 ], [ 144.760190286559521, -37.685406061935083 ], [ 144.760141430755766, -37.685483206912615 ] ] } },
{ "type": "Feature", "properties": { "gid": 1210, "osm_id": null, "code": null, "fclass": "tertiary", "name": null, "pixel_count": 75, "Var_line": 101.95693969726562, "Edge_contrast": 24.961393356323242, "ROI": 5277.166666666667, "Road_detected": -1, "ROI_norm": -0.47413949847605652, "Pred": 0 }, "geometry": { "type": "LineString", "coordinates": [ [ 144.786691169442491, -37.689035094148664 ], [ 144.786550496992163, -37.689117807897347 ], [ 144.786374153602111, -37.689080302666667 ] ] } },
{ "type": "Feature", "properties": { "gid": 1446, "osm_id": null, "code": null, "fclass": "unclassified", "name": null, "pixel_count": 115, "Var_line": 75.635818481445312, "Edge_contrast": 35.610496520996094, "ROI": 5759.5, "Road_detected": -1, "ROI_norm": -0.42922490010085723, "Pred": 0 }, "geometry": { "type": "LineString", "coordinates": [ [ 144.77652267687003, -37.698537411902763 ], [ 144.776187942290335, -37.698469557600291 ], [ 144.775993816532718, -37.698350470410944 ], [ 144.775869088941818, -37.697903947790657 ], [ 144.775978173197359, -37.697552269759051 ] ] } },
{ "type": "Feature", "properties": { "gid": 1539, "osm_id": null, "code": null, "fclass": "unclassified", "name": null, "pixel_count": 75, "Var_line": 85.334571838378906, "Edge_contrast": 23.278945922851562, "ROI": 9675.8333333333339, "Road_detected": -1, "ROI_norm": -0.064538226769677215, "Pred": 0 }, "geometry": { "type": "LineString", "coordinates": [ [ 144.766122194400168, -37.670412622363045 ], [ 144.765358309474465, -37.670044938124498 ], [ 144.765144530991449, -37.669907197803902 ] ] } },
{ "type": "Feature", "properties": { "gid": 1553, "osm_id": null, "code": null, "fclass": "unclassified", "name": null, "pixel_count": 166, "Var_line": 37.442642211914062, "Edge_contrast": 11.57112979888916, "ROI": 20045.5, "Road_detected": -1, "ROI_norm": 0.90107907858904901, "Pred": 0 }, "geometry": { "type": "LineString", "coordinates": [ [ 144.794022016528771, -37.684035730391351 ], [ 144.793666010731044, -37.683863467099449 ], [ 144.791573864495518, -37.682595351927482 ], [ 144.791293382522923, -37.68246040384377 ], [ 144.791185374222835, -37.682455924340907 ], [ 144.791100604422098, -37.682511563018132 ], [ 144.790481227135587, -37.683182779791935 ] ] } }
]
}
