{
"type": "FeatureCollection",
"crs": { "type": "name", "properties": { "name": "urn:ogc:def:crs:OGC:1.3:CRS84" } },
"features": [
{ "type": "Feature", "properties": { "gid": 12, "fclass": "residential", "length": 338.2264069557815, "status": "disappeared" }, "geometry": { "type": "LineString", "coordinates": [ [ 144.765834375389574, -37.679658343160575 ], [ 144.765607772053272, -37.67958351784803 ], [ 144.765510956654111, -37.679454590099702 ], [ 144.765331138859239, -37.679387007962767 ], [ 144.765259532238076, -37.679256698960288 ], [ 144.765101287133717, -37.679199171724058 ], [ 144.764988310790102, -37.679057338009883 ], [ 144.764806667476307, -37.678998334043349 ], [ 144.764659482808497, -37.678857863257527 ], [ 144.764504901817389, -37.678780316464213 ], [ 144.764440360119266, -37.678694364021126 ], [ 144.764246236735289, -37.678596713158505 ], [ 144.764160181771018, -37.678482109698969 ], [ 144.763980340722355, -37.678423108011081 ], [ 144.76389437116498, -37.678281326430067 ], [ 144.763748695044285, -37.67823526556149 ], [ 144.763608705809645, -37.6780976684813 ], [ 144.76344326346711, -37.678040124817798 ], [ 144.763321255037766, -37.67790971502982 ], [ 144.763161272204769, -37.67783358622038 ], [ 144.763132862668073, -37.677707652545081 ] ] } },
{ "type": "Feature", "properties": { "gid": 80, "fclass": "residential", "length": 36.721496292366098, "status": "disappeared" }, "geometry": { "type": "LineString", "coordinates": [ [ 144.761181046802221, -37.693793162050632 ], [ 144.761429656477759, -37.693753605683646 ], [ 144.761584382123658, -37.693793965384785 ] ] } },
{ "type": "Feature", "properties": { "gid": 115, "fclass": "residential", "length": 118.48013064644736, "status": "disappeared" }, "geometry": { "type": "LineString", "coordinates": [ [ 144.765151349692474, -37.667710069416522 ], [ 144.765129989623347, -37.667632784230513 ], [ 144.765195201730677, -37.667499881974372 ], [ 144.765710921201077, -37.667201931784405 ], [ 144.765927112469939, -37.667139415532006 ], [ 144.766103297330261, -37.66720842047652 ] ] } },
{ "type": "Feature", "properties": { "gid": 118, "fclass": "residential", "length": 203.00187140387874, "status": "disappeared" }, "geometry": { "type": "LineString", "coordinates": [ [ 144.776330132314655, -37.695447355748257 ], [ 144.778176427250031, -37.695848444021479 ], [ 144.778457111406397, -37.69592334499773 ], [ 144.778518174551323, -37.695977813694142 ] ] } },
{ "type": "Feature", "properties": { "gid": 125, "fclass": "residential", "length": 104.89297502981123, "status": "disappeared" }, "geometry": { "type": "LineString", "coordinates": [ [ 144.765180078413749, -37.667733012651702 ], [ 144.765298930608139, -37.667716080452429 ], [ 144.765666729706425, -37.667522261999089 ], [ 144.766012750312228, -37.667385617120409 ], [ 144.766103297330261, -37.66720842047652 ] ] } },
{ "type": "Feature", "properties": { "gid": 146, "fclass": "residential", "length": 111.88674932962834, "status": "disappeared" }, "geometry": { "type": "LineString", "coordinates": [ [ 144.77177499721347, -37.696468664558552 ], [ 144.771927200104244, -37.696752176679738 ], [ 144.772406215845933, -37.697339557876397 ] ] } },
{ "type": "Feature", "properties": { "gid": 181, "fclass": "residential", "length": 23.000757398350625, "status": "disappeared" }, "geometry": { "type": "LineString", "coordinates": [ [ 144.770998632783432, -37.695963676764194 ], [ 144.770969198652097, -37.696169600390952 ] ] } },
{ "type": "Feature", "properties": { "gid": 200, "fclass": "residential", "length": 120.99078875442427, "status": "disappeared" }, "geometry": { "type": "LineString", "coordinates": [ [ 144.755297623282559, -37.66899489470201 ], [ 144.755438070584063, -37.668980877271764 ], [ 144.756151631844091, -37.668747741556722 ], [ 144.756594737458585, -37.66865423447755 ] ] } },
{ "type": "Feature", "properties": { "gid": 214, "fclass": "residential", "length": 25.400000000372529, "status": "disappeared" }, "geometry": { "type": "LineString", "coordinates": [ [ 144.777129789890182, -37.688056445552689 ], [ 144.777130464103436, -37.687827579589658 ] ] } },
{ "type": "Feature", "properties": { "gid": 238, "fclass": "residential", "length": 25.873434805022701, "status": "disappeared" }, "geometry": { "type": "LineString", "coordinates": [ [ 144.772294554169122, -37.696149240020098 ], [ 144.772381368946043, -37.696022097977099 ], [ 144.772467968309513, -37.695966476252956 ] ] } },
{ "type": "Feature", "properties": { "gid": 240, "fclass": "residential", "length": 120.82438885889235, "status": "disappeared" }, "geometry": { "type": "LineString", "coordinates": [ [ 144.777570321434581, -37.694991931499615 ], [ 144.777840336628117, -37.695019610408721 ], [ 144.778293815534823, -37.695116288332891 ], [ 144.778682447498511, -37.695221427257806 ], [ 144.778865840874033, -37.695314742942614 ] ] } },
{ "type": "Feature", "properties": { "gid": 299, "fclass": "residential", "length": 31.026655099690011, "status": "disappeared" }, "geometry": { "type": "LineString", "coordinates": [ [ 144.776764245541358, -37.694784452289845 ], [ 144.776586025575085, -37.694769815913538 ], [ 144.77647587449718, -37.694875461266001 ] ] } },
{ "type": "Feature", "properties": { "gid": 314, "fclass": "residential", "length": 23.595194969178102, "status": "disappeared" }, "geometry": { "type": "LineString", "coordinates": [ [ 144.783929713705589, -37.697681306885393 ], [ 144.783769463879736, -37.697676726534638 ], [ 144.783699420731978, -37.697612231445319 ] ] } },
{ "type": "Feature", "properties": { "gid": 321, "fclass": "residential", "length": 60.593528638013758, "status": "disappeared" }, "geometry": { "type": "LineString", "coordinates": [ [ 144.793963968302904, -37.684195837782681 ], [ 144.794339690992445, -37.683738748498605 ] ] } },
{ "type": "Feature", "properties": { "gid": 337, "fclass": "residential", "length": 36.148532603193033, "status": "disappeared" }, "geometry": { "type": "LineString", "coordinates": [ [ 144.765846654700624, -37.694305878528951 ], [ 144.765598293725503, -37.694265341183311 ], [ 144.765443387567586, -37.694282203010019 ] ] } },
{ "type": "Feature", "properties": { "gid": 347, "fclass": "residential", "length": 243.88335134714086, "status": "disappeared" }, "geometry": { "type": "LineString", "coordinates": [ [ 144.790698819843414, -37.687829167477148 ], [ 144.790806982129538, -37.687780722135727 ], [ 144.790958877056738, -37.687543537603538 ], [ 144.791067070370417, -37.687483648718107 ], [ 144.792316872848232, -37.68606970596128 ] ] } },
{ "type": "Feature", "properties": { "gid": 349, "fclass": "residential", "length": 43.180000000167638, "status": "disappeared" }, "geometry": { "type": "LineString", "coordinates": [ [ 144.756622212633374, -37.669066254479119 ], [ 144.756623463943953, -37.668677179757147 ] ] } },
{ "type": "Feature", "properties": { "gid": 358, "fclass": "residential", "length": 46.351003960642686, "status": "disappeared" }, "geometry": { "type": "LineString", "coordinates": [ [ 144.778430469354504, -37.696412497860912 ], [ 144.778518107542794, -37.696000700221191 ] ] } },
{ "type": "Feature", "properties": { "gid": 391, "fclass": "residential", "length": 36.712323919814899, "status": "disappeared" }, "geometry": { "type": "LineString", "coordinates": [ [ 144.794450143999484, -37.696097753471072 ], [ 144.794482346033817, -37.696175051128051 ], [ 144.794795622466808, -37.696189892260072 ] ] } },
{ "type": "Feature", "properties": { "gid": 405, "fclass": "residential", "length": 38.66587823988236, "status": "disappeared" }, "geometry": { "type": "LineString", "coordinates": [ [ 144.782864357660884, -37.697450514502904 ], [ 144.782659103417501, -37.697441559850049 ], [ 144.7825350818446, -37.697362661992749 ], [ 144.782461265894199, -37.697358236743653 ] ] } },
{ "type": "Feature", "properties": { "gid": 534, "fclass": "trunk", "length": 83.450209869321384, "status": "disappeared" }, "geometry": { "type": "LineString", "coordinates": [ [ 144.774724067555582, -37.683314389981575 ], [ 144.774846687529106, -37.68324882107764 ], [ 144.774977078771627, -37.682991589989008 ], [ 144.775199180295601, -37.682770291456166 ], [ 144.77521560011408, -37.68269737069717 ] ] } },
{ "type": "Feature", "properties": { "gid": 535, "fclass": "trunk", "length": 35.092841407394175, "status": "disappeared" }, "geometry": { "type": "LineString", "coordinates": [ [ 144.784525690283544, -37.690747721293143 ], [ 144.784600603999024, -37.690996748788827 ], [ 144.784668951179356, -37.691022619184629 ] ] } },
{ "type": "Feature", "properties": { "gid": 536, "fclass": "trunk", "length": 49.425165095084083, "status": "disappeared" }, "geometry": { "type": "LineString", "coordinates": [ [ 144.754814379869543, -37.684808706014323 ], [ 144.754882099545313, -37.685023407989313 ], [ 144.755014689594105, -37.685221077524318 ] ] } },
{ "type": "Feature", "properties": { "gid": 537, "fclass": "trunk", "length": 12.951650122538268, "status": "disappeared" }, "geometry": { "type": "LineString", "coordinates": [ [ 144.779502001418678, -37.694514882360792 ], [ 144.779473525056005, -37.694400396628758 ] ] } },
{ "type": "Feature", "properties": { "gid": 548, "fclass": "trunk", "length": 25.148264439304953, "status": "disappeared" }, "geometry": { "type": "LineString", "coordinates": [ [ 144.77842136791287, -37.689683798102735 ], [ 144.778219241467525, -37.689843631014377 ] ] } },
{ "type": "Feature", "properties": { "gid": 549, "fclass": "trunk", "length": 47.556632462173603, "status": "disappeared" }, "geometry": { "type": "LineString", "coordinates": [ [ 144.77314042473958, -37.692694957870259 ], [ 144.773232151336487, -37.692729461553732 ], [ 144.773395541307423, -37.692884255815372 ], [ 144.773571878565804, -37.692924640915102 ] ] } },
{ "type": "Feature", "properties": { "gid": 552, "fclass": "trunk", "length": 46.49142100705285, "status": "disappeared" }, "geometry": { "type": "LineString", "coordinates": [ [ 144.768654160129643, -37.690077295188104 ], [ 144.768707939457187, -37.690154641669437 ], [ 144.768750522260689, -37.690360704233541 ], [ 144.768825820763681, -37.690466700570802 ] ] } },
{ "type": "Feature", "properties": { "gid": 553, "fclass": "trunk", "length": 61.575808130718286, "status": "disappeared" }, "geometry": { "type": "LineString", "coordinates": [ [ 144.761080512324384, -37.680015144099954 ], [ 144.760958003160397, -37.680043508177086 ], [ 144.760683573846563, -37.680291854133216 ], [ 144.760618410673032, -37.680403297059591 ] ] } },
{ "type": "Feature", "properties": { "gid": 564, "fclass": "trunk", "length": 26.691490697543564, "status": "disappeared" }, "geometry": { "type": "LineString", "coordinates": [ [ 144.755185232198471, -37.685930915594042 ], [ 144.755088241220477, -37.685859196235079 ], [ 144.755070672364582, -37.685724700638197 ] ] } },
{ "type": "Feature", "properties": { "gid": 565, "fclass": "trunk", "length": 89.599935564720425, "status": "disappeared" }, "geometry": { "type": "LineString", "coordinates": [ [ 144.789530478430095, -37.693594566597014 ], [ 144.789200072720718, -37.693269281096221 ], [ 144.789036370351567, -37.693214637102741 ], [ 144.788840644885795, -37.693021186005637 ] ] } },
{ "type": "Feature", "properties": { "gid": 566, "fclass": "trunk", "length": 17.779999999795109, "status": "disappeared" }, "geometry": { "type": "LineString", "coordinates": [ [ 144.757028050472371, -37.68618642179252 ], [ 144.757028564976679, -37.686026215589806 ] ] } },
{ "type": "Feature", "properties": { "gid": 567, "fclass": "trunk", "length": 22.719732711487875, "status": "disappeared" }, "geometry": { "type": "LineString", "coordinates": [ [ 144.786367949340303, -37.691277414536358 ], [ 144.786252197121343, -37.691460301562302 ] ] } },
{ "type": "Feature", "properties": { "gid": 573, "fclass": "trunk", "length": 84.840623612802403, "status": "disappeared" }, "geometry": { "type": "LineString", "coordinates": [ [ 144.783955010005855, -37.688824210528281 ], [ 144.784164445967804, -37.688621468489536 ], [ 144.784475375829089, -37.68818431988808 ] ] } },
{ "type": "Feature", "properties": { "gid": 581, "fclass": "trunk", "length": 31.419622491685004, "status": "disappeared" }, "geometry": { "type": "LineString", "coordinates": [ [ 144.76834602939212, -37.687215859668079 ], [ 144.768389029946633, -37.687284603012138 ], [ 144.768604733892261, -37.687399453522822 ] ] } },
{ "type": "Feature", "properties": { "gid": 583, "fclass": "trunk", "length": 28.39831973227604, "status": "disappeared" }, "geometry": { "type": "LineString", "coordinates": [ [ 144.757468856055056, -37.69245827669603 ], [ 144.757412045044163, -37.692206408025498 ] ] } },
{ "type": "Feature", "properties": { "gid": 584, "fclass": "trunk", "length": 28.399665888891292, "status": "disappeared" }, "geometry": { "type": "LineString", "coordinates": [ [ 144.765438921446275, -37.667847954401367 ], [ 144.765582211444382, -37.668077103960748 ] ] } },
{ "type": "Feature", "properties": { "gid": 588, "fclass": "trunk", "length": 40.30867907308388, "status": "disappeared" }, "geometry": { "type": "LineString", "coordinates": [ [ 144.755041810441469, -37.676844566192621 ], [ 144.754955650968782, -37.67676714690004 ], [ 144.754841226133067, -37.67652374015492 ] ] } },
{ "type": "Feature", "properties": { "gid": 590, "fclass": "trunk", "length": 74.023207216662627, "status": "disappeared" }, "geometry": { "type": "LineString", "coordinates": [ [ 144.775786893707846, -37.684323401415448 ], [ 144.775960035104589, -37.684220734971746 ], [ 144.776364435766197, -37.68384385916314 ] ] } },
{ "type": "Feature", "properties": { "gid": 599, "fclass": "trunk", "length": 23.41795387323597, "status": "disappeared" }, "geometry": { "type": "LineString", "coordinates": [ [ 144.756240165556278, -37.689320303934188 ], [ 144.756298444994002, -37.689114441999173 ] ] } },
{ "type": "Feature", "properties": { "gid": 600, "fclass": "trunk", "length": 15.939689570579409, "status": "disappeared" }, "geometry": { "type": "LineString", "coordinates": [ [ 144.781370018385928, -37.696120371687151 ], [ 144.781278221928062, -37.696107330398824 ], [ 144.781226164122018, -37.696051449144555 ] ] } },
{ "type": "Feature", "properties": { "gid": 610, "fclass": "trunk", "length": 36.921218867945804, "status": "disappeared" }, "geometry": { "type": "LineString", "coordinates": [ [ 144.755672968367151, -37.677624007440521 ], [ 144.755493528871028, -37.677443407536963 ], [ 144.75544342799094, -37.677348897097978 ] ] } },
{ "type": "Feature", "properties": { "gid": 613, "fclass": "trunk", "length": 24.590220233732129, "status": "disappeared" }, "geometry": { "type": "LineString", "coordinates": [ [ 144.755900673027554, -37.687397127288044 ], [ 144.755781870925944, -37.687388302623262 ], [ 144.755641629760902, -37.687327938946595 ] ] } },
{ "type": "Feature", "properties": { "gid": 614, "fclass": "trunk", "length": 43.079901946557364, "status": "disappeared" }, "geometry": { "type": "LineString", "coordinates": [ [ 144.767733139150465, -37.689800872518013 ], [ 144.767420175937758, -37.689694414286535 ], [ 144.767272560779872, -37.689685545092345 ] ] } },
{ "type": "Feature", "properties": { "gid": 616, "fclass": "trunk", "length": 35.176747251783205, "status": "disappeared" }, "geometry": { "type": "LineString", "coordinates": [ [ 144.778101860642522, -37.69057578809867 ], [ 144.778280410592544, -37.690474558960247 ], [ 144.778361807228748, -37.690347402312199 ] ] } },
{ "type": "Feature", "properties": { "gid": 638, "fclass": "trunk", "length": 48.52678192089526, "status": "disappeared" }, "geometry": { "type": "LineString", "coordinates": [ [ 144.755262923383725, -37.697534632094786 ], [ 144.755321952087286, -37.697099906251786 ] ] } },
{ "type": "Feature", "properties": { "gid": 639, "fclass": "trunk", "length": 29.362816503205924, "status": "disappeared" }, "geometry": { "type": "LineString", "coordinates": [ [ 144.765692804886072, -37.669564968418591 ], [ 144.76573825725211, -37.669419153427299 ], [ 144.765837515314303, -37.669336382567757 ] ] } },
{ "type": "Feature", "properties": { "gid": 647, "fclass": "trunk", "length": 46.292660753759549, "status": "disappeared" }, "geometry": { "type": "LineString", "coordinates": [ [ 144.769179063147789, -37.687995616466843 ], [ 144.769286942824777, -37.688044458572996 ], [ 144.769494969015938, -37.68831663887832 ] ] } },
{ "type": "Feature", "properties": { "gid": 652, "fclass": "trunk", "length": 23.417953873337016, "status": "disappeared" }, "geometry": { "type": "LineString", "coordinates": [ [ 144.758568862882868, -37.690812656098899 ], [ 144.758510588315119, -37.691018519005674 ] ] } },
{ "type": "Feature", "properties": { "gid": 661, "fclass": "trunk", "length": 186.48200026059959, "status": "disappeared" }, "geometry": { "type": "LineString", "coordinates": [ [ 144.787559020682011, -37.69800820994363 ], [ 144.787656395306925, -37.697959748476677 ], [ 144.787750658054563, -37.697736770864509 ], [ 144.788000336408061, -37.696672984386325 ], [ 144.788121414256011, -37.696518713747622 ], [ 144.788139669337738, -37.696430060294325 ] ] } },
{ "type": "Feature", "properties": { "gid": 668, "fclass": "trunk", "length": 2.5400000000372529, "status": "disappeared" }, "geometry": { "type": "LineString", "coordinates": [ [ 144.763224742327566, -37.694369385454785 ], [ 144.763224813961529, -37.694346498922307 ] ] } },
{ "type": "Feature", "properties": { "gid": 669, "fclass": "trunk", "length": 13.678850960976387, "status": "disappeared" }, "geometry": { "type": "LineString", "coordinates": [ [ 144.763224742327566, -37.694369385454785 ], [ 144.76316676429704, -37.694483704223849 ] ] } },
{ "type": "Feature", "properties": { "gid": 674, "fclass": "trunk", "length": 18.491872906974105, "status": "disappeared" }, "geometry": { "type": "LineString", "coordinates": [ [ 144.764944517499146, -37.697210717865758 ], [ 144.765001641745613, -37.697371036456033 ] ] } },
{ "type": "Feature", "properties": { "gid": 688, "fclass": "primary", "length": 27.158081008799748, "status": "disappeared" }, "geometry": { "type": "LineString", "coordinates": [ [ 144.79571243179808, -37.698091049465354 ], [ 144.795669388680267, -37.69802660743678 ], [ 144.795453315519012, -37.698021947500258 ] ] } },
{ "type": "Feature", "properties": { "gid": 691, "fclass": "primary", "length": 55.207068942197523, "status": "disappeared" }, "geometry": { "type": "LineString", "coordinates": [ [ 144.775013077217807, -37.682994518453562 ], [ 144.775034962099767, -37.682900151646059 ], [ 144.775287656224947, -37.682683201662122 ], [ 144.775331161721766, -37.682583153655166 ] ] } },
{ "type": "Feature", "properties": { "gid": 702, "fclass": "primary", "length": 26.004386052798012, "status": "disappeared" }, "geometry": { "type": "LineString", "coordinates": [ [ 144.761633240228377, -37.669144993466567 ], [ 144.761773731665187, -37.669116664389051 ], [ 144.761835274385959, -37.669008074047383 ] ] } },
{ "type": "Feature", "properties": { "gid": 705, "fclass": "primary", "length": 20.320000000298023, "status": "disappeared" }, "geometry": { "type": "LineString", "coordinates": [ [ 144.774117684353683, -37.693452064839015 ], [ 144.774118231053222, -37.693268972459052 ] ] } },
{ "type": "Feature", "properties": { "gid": 712, "fclass": "primary", "length": 25.399999999906868, "status": "disappeared" }, "geometry": { "type": "LineString", "coordinates": [ [ 144.76021907354729, -37.688252658004465 ], [ 144.760218348170667, -37.688481523831847 ] ] } },
{ "type": "Feature", "properties": { "gid": 714, "fclass": "primary", "length": 3.5926092055679342, "status": "disappeared" }, "geometry": { "type": "LineString", "coordinates": [ [ 144.754900057156505, -37.685037748958479 ], [ 144.754871324981906, -37.685014803406489 ] ] } },
{ "type": "Feature", "properties": { "gid": 715, "fclass": "primary", "length": 2.5407166122458875, "status": "disappeared" }, "geometry": { "type": "LineString", "coordinates": [ [ 144.754900057156505, -37.685037748958479 ], [ 144.754871250829837, -37.685037690014887 ] ] } },
{ "type": "Feature", "properties": { "gid": 716, "fclass": "primary", "length": 2.5407166127115488, "status": "disappeared" }, "geometry": { "type": "LineString", "coordinates": [ [ 144.754900057156505, -37.685037748958479 ], [ 144.754928863483229, -37.685037807895092 ] ] } },
{ "type": "Feature", "properties": { "gid": 717, "fclass": "primary", "length": 3.5926092055679342, "status": "disappeared" }, "geometry": { "type": "LineString", "coordinates": [ [ 144.754900057156505, -37.685037748958479 ], [ 144.754871176677767, -37.685060576623123 ] ] } },
{ "type": "Feature", "properties": { "gid": 718, "fclass": "primary", "length": 2.5400000000372529, "status": "disappeared" }, "geometry": { "type": "LineString", "coordinates": [ [ 144.754871176677767, -37.685060576623123 ], [ 144.754871250829837, -37.685037690014887 ] ] } },
{ "type": "Feature", "properties": { "gid": 719, "fclass": "primary", "length": 27.67041919347119, "status": "disappeared" }, "geometry": { "type": "LineString", "coordinates": [ [ 144.762264338138266, -37.688279621056708 ], [ 144.762203364847096, -37.6882022573322 ], [ 144.76200535802775, -37.688187559914105 ] ] } },
{ "type": "Feature", "properties": { "gid": 728, "fclass": "primary", "length": 20.482490188439584, "status": "disappeared" }, "geometry": { "type": "LineString", "coordinates": [ [ 144.767736441594593, -37.688725203284342 ], [ 144.767937814967695, -37.688817140422522 ] ] } },
{ "type": "Feature", "properties": { "gid": 738, "fclass": "primary", "length": 28.399665888891292, "status": "disappeared" }, "geometry": { "type": "LineString", "coordinates": [ [ 144.784640663767505, -37.690839474803795 ], [ 144.784497272931446, -37.69061035001414 ] ] } },
{ "type": "Feature", "properties": { "gid": 742, "fclass": "primary", "length": 22.48644967618014, "status": "disappeared" }, "geometry": { "type": "LineString", "coordinates": [ [ 144.755204856831568, -37.697671833371182 ], [ 144.755280772976505, -37.697583302688088 ], [ 144.755263071475298, -37.697488859094634 ] ] } },
{ "type": "Feature", "properties": { "gid": 745, "fclass": "primary", "length": 28.961021531321304, "status": "disappeared" }, "geometry": { "type": "LineString", "coordinates": [ [ 144.771771527928195, -37.688069243757596 ], [ 144.771684345689891, -37.688320831578771 ] ] } },
{ "type": "Feature", "properties": { "gid": 754, "fclass": "primary", "length": 11.359866355639788, "status": "disappeared" }, "geometry": { "type": "LineString", "coordinates": [ [ 144.786552240054192, -37.697434254772737 ], [ 144.786494359526841, -37.697525698175802 ] ] } },
{ "type": "Feature", "properties": { "gid": 759, "fclass": "primary", "length": 12.951650122994881, "status": "disappeared" }, "geometry": { "type": "LineString", "coordinates": [ [ 144.758863440721171, -37.688776331642941 ], [ 144.758892613170616, -37.688661956732034 ] ] } },
{ "type": "Feature", "properties": { "gid": 764, "fclass": "primary", "length": 30.254140524441695, "status": "disappeared" }, "geometry": { "type": "LineString", "coordinates": [ [ 144.761881988023106, -37.690773513803698 ], [ 144.761741501458062, -37.690787538675586 ], [ 144.761564805817642, -37.690864429762414 ] ] } },
{ "type": "Feature", "properties": { "gid": 766, "fclass": "primary", "length": 22.469241400859474, "status": "disappeared" }, "geometry": { "type": "LineString", "coordinates": [ [ 144.790502716419809, -37.696228235851585 ], [ 144.790643310678291, -37.696176986667489 ], [ 144.790704707326142, -37.69611415567023 ] ] } },
{ "type": "Feature", "properties": { "gid": 770, "fclass": "primary", "length": 46.883354050734269, "status": "disappeared" }, "geometry": { "type": "LineString", "coordinates": [ [ 144.762831090585593, -37.691278903991673 ], [ 144.762888196907539, -37.691442084771545 ], [ 144.762829799075973, -37.691690862021701 ] ] } },
{ "type": "Feature", "properties": { "gid": 771, "fclass": "primary", "length": 23.000757398402062, "status": "disappeared" }, "geometry": { "type": "LineString", "coordinates": [ [ 144.763724803911913, -37.691074689634995 ], [ 144.763754255780157, -37.690868767389269 ] ] } },
{ "type": "Feature", "properties": { "gid": 774, "fclass": "primary", "length": 26.156538633005539, "status": "disappeared" }, "geometry": { "type": "LineString", "coordinates": [ [ 144.756023946752549, -37.684902722697068 ], [ 144.755765059676747, -37.684787761335237 ] ] } },
{ "type": "Feature", "properties": { "gid": 777, "fclass": "primary", "length": 22.86644951114431, "status": "disappeared" }, "geometry": { "type": "LineString", "coordinates": [ [ 144.77077536130156, -37.69358303653474 ], [ 144.771034647636867, -37.693583532355248 ] ] } },
{ "type": "Feature", "properties": { "gid": 779, "fclass": "primary", "length": 2.5400000000372529, "status": "disappeared" }, "geometry": { "type": "LineString", "coordinates": [ [ 144.754871250829837, -37.685037690014887 ], [ 144.754871324981906, -37.685014803406489 ] ] } },
{ "type": "Feature", "properties": { "gid": 782, "fclass": "primary", "length": 33.126836746898547, "status": "disappeared" }, "geometry": { "type": "LineString", "coordinates": [ [ 144.780777572788566, -37.681837981663755 ], [ 144.780403172559545, -37.681814409102266 ] ] } },
{ "type": "Feature", "properties": { "gid": 784, "fclass": "primary", "length": 20.053567071395527, "status": "disappeared" }, "geometry": { "type": "LineString", "coordinates": [ [ 144.784051753285127, -37.695301315990456 ], [ 144.784022624483555, -37.695412835918447 ], [ 144.784080106265094, -37.695461573664744 ] ] } },
{ "type": "Feature", "properties": { "gid": 787, "fclass": "primary", "length": 34.995332876691947, "status": "disappeared" }, "geometry": { "type": "LineString", "coordinates": [ [ 144.779860441686651, -37.690144185245678 ], [ 144.779761013427276, -37.690281322699811 ], [ 144.779571825316253, -37.690326748144415 ] ] } },
{ "type": "Feature", "properties": { "gid": 791, "fclass": "primary", "length": 26.638966182540713, "status": "disappeared" }, "geometry": { "type": "LineString", "coordinates": [ [ 144.764471049464277, -37.691968740315126 ], [ 144.76463295752788, -37.69201483190426 ], [ 144.764729974343226, -37.692083682548308 ] ] } },
{ "type": "Feature", "properties": { "gid": 799, "fclass": "primary", "length": 20.478223577667311, "status": "disappeared" }, "geometry": { "type": "LineString", "coordinates": [ [ 144.761398796882361, -37.670426192307907 ], [ 144.761427020411702, -37.670609343579756 ] ] } },
{ "type": "Feature", "properties": { "gid": 802, "fclass": "primary", "length": 35.650649936680203, "status": "disappeared" }, "geometry": { "type": "LineString", "coordinates": [ [ 144.758246630099393, -37.692482735416576 ], [ 144.758274415446124, -37.692803205169788 ] ] } },
{ "type": "Feature", "properties": { "gid": 813, "fclass": "primary", "length": 48.971786296691981, "status": "disappeared" }, "geometry": { "type": "LineString", "coordinates": [ [ 144.788061573079204, -37.693454657039695 ], [ 144.787947534013483, -37.693669017747418 ], [ 144.787948997810872, -37.6937891753321 ], [ 144.788002799504028, -37.69386651304093 ] ] } },
{ "type": "Feature", "properties": { "gid": 814, "fclass": "primary", "length": 33.976628590554292, "status": "disappeared" }, "geometry": { "type": "LineString", "coordinates": [ [ 144.754871324981906, -37.685014803406489 ], [ 144.754871908927868, -37.684834571358373 ], [ 144.754814676545465, -37.684717159571733 ] ] } },
{ "type": "Feature", "properties": { "gid": 816, "fclass": "primary", "length": 71.220448433439799, "status": "disappeared" }, "geometry": { "type": "LineString", "coordinates": [ [ 144.769169496496318, -37.6911310776077 ], [ 144.769043956446211, -37.690967767918075 ], [ 144.768971073598976, -37.690660087337385 ], [ 144.768917201888428, -37.690612779610269 ], [ 144.768825401147978, -37.690604019984939 ] ] } },
{ "type": "Feature", "properties": { "gid": 818, "fclass": "tertiary", "length": 52.714605628294549, "status": "disappeared" }, "geometry": { "type": "LineString", "coordinates": [ [ 144.762860042777646, -37.691233187902547 ], [ 144.762838194109435, -37.691310387268096 ], [ 144.762886217025283, -37.691499297601268 ], [ 144.762800990209854, -37.691690804985157 ] ] } },
{ "type": "Feature", "properties": { "gid": 823, "fclass": "tertiary", "length": 25.597137833854539, "status": "disappeared" }, "geometry": { "type": "LineString", "coordinates": [ [ 144.755263145521042, -37.697465972594252 ], [ 144.755291595649993, -37.697577603130817 ], [ 144.755204856831568, -37.697671833371182 ] ] } },
{ "type": "Feature", "properties": { "gid": 829, "fclass": "tertiary", "length": 31.664044657993479, "status": "disappeared" }, "geometry": { "type": "LineString", "coordinates": [ [ 144.761633240228377, -37.669144993466567 ], [ 144.76179177235926, -37.669103826395819 ], [ 144.761864218658985, -37.668962357815516 ] ] } },
{ "type": "Feature", "properties": { "gid": 832, "fclass": "tertiary", "length": 30.900669306890965, "status": "disappeared" }, "geometry": { "type": "LineString", "coordinates": [ [ 144.754814602376541, -37.684740046182675 ], [ 144.754871324981906, -37.685014803406489 ] ] } },
{ "type": "Feature", "properties": { "gid": 835, "fclass": "tertiary", "length": 3.5926092055679342, "status": "disappeared" }, "geometry": { "type": "LineString", "coordinates": [ [ 144.754900057156505, -37.685037748958479 ], [ 144.754871324981906, -37.685014803406489 ] ] } },
{ "type": "Feature", "properties": { "gid": 836, "fclass": "tertiary", "length": 5.6808946143975048, "status": "disappeared" }, "geometry": { "type": "LineString", "coordinates": [ [ 144.754900057156505, -37.685037748958479 ], [ 144.754957743935989, -37.685014980216394 ] ] } },
{ "type": "Feature", "properties": { "gid": 837, "fclass": "tertiary", "length": 2.5407166122458875, "status": "disappeared" }, "geometry": { "type": "LineString", "coordinates": [ [ 144.754900057156505, -37.685037748958479 ], [ 144.754871250829837, -37.685037690014887 ] ] } },
{ "type": "Feature", "properties": { "gid": 838, "fclass": "tertiary", "length": 51.236490564618855, "status": "disappeared" }, "geometry": { "type": "LineString", "coordinates": [ [ 144.78797405393729, -37.693843575507017 ], [ 144.787951247485296, -37.693628972654373 ], [ 144.788090510855739, -37.693408934892517 ] ] } },
{ "type": "Feature", "properties": { "gid": 842, "fclass": "tertiary", "length": 19.34867448478575, "status": "disappeared" }, "geometry": { "type": "LineString", "coordinates": [ [ 144.767736441594593, -37.688725203284342 ], [ 144.767937885170596, -37.688794253838971 ] ] } },
{ "type": "Feature", "properties": { "gid": 858, "fclass": "tertiary", "length": 35.742034472855458, "status": "disappeared" }, "geometry": { "type": "LineString", "coordinates": [ [ 144.784611790049354, -37.690862309587352 ], [ 144.784601206764592, -37.690785047971644 ], [ 144.784500768050123, -37.690647547179665 ], [ 144.784526211774136, -37.690564628678501 ] ] } },
{ "type": "Feature", "properties": { "gid": 873, "fclass": "tertiary", "length": 44.763237814823597, "status": "disappeared" }, "geometry": { "type": "LineString", "coordinates": [ [ 144.758275585522597, -37.692437020456346 ], [ 144.758246419826833, -37.692548534234881 ], [ 144.758296287483603, -37.692720285044523 ], [ 144.758245533021011, -37.692826033580715 ] ] } },
{ "type": "Feature", "properties": { "gid": 881, "fclass": "tertiary", "length": 28.749383674149982, "status": "disappeared" }, "geometry": { "type": "LineString", "coordinates": [ [ 144.76200535802775, -37.688187559914105 ], [ 144.762210485804559, -37.68822801903633 ], [ 144.762253589242249, -37.68826243467921 ], [ 144.762235458644057, -37.688302450468726 ] ] } },
{ "type": "Feature", "properties": { "gid": 883, "fclass": "tertiary", "length": 28.323204127869602, "status": "disappeared" }, "geometry": { "type": "LineString", "coordinates": [ [ 144.755794013654366, -37.684742046841436 ], [ 144.755826143660016, -37.684827937694394 ], [ 144.756024020555799, -37.684879836086807 ] ] } },
{ "type": "Feature", "properties": { "gid": 884, "fclass": "tertiary", "length": 75.573732047237684, "status": "disappeared" }, "geometry": { "type": "LineString", "coordinates": [ [ 144.768796592691245, -37.690603964390149 ], [ 144.768915401359692, -37.690612776137144 ], [ 144.768980098088832, -37.69065295264587 ], [ 144.769036876574148, -37.690927702543455 ], [ 144.769128184453052, -37.691098098371 ], [ 144.769111809331065, -37.691153853140641 ] ] } },
{ "type": "Feature", "properties": { "gid": 886, "fclass": "tertiary", "length": 27.608154317475361, "status": "disappeared" }, "geometry": { "type": "LineString", "coordinates": [ [ 144.790502716419809, -37.696228235851585 ], [ 144.790621694814178, -37.696179809723581 ], [ 144.790733644522447, -37.696068432930957 ] ] } },
{ "type": "Feature", "properties": { "gid": 887, "fclass": "tertiary", "length": 65.028821808402455, "status": "disappeared" }, "geometry": { "type": "LineString", "coordinates": [ [ 144.775360103033165, -37.68253743439498 ], [ 144.775302109924894, -37.68266606369933 ], [ 144.775049415898394, -37.682883013715205 ], [ 144.774955398015521, -37.683017296870524 ] ] } },
{ "type": "Feature", "properties": { "gid": 891, "fclass": "tertiary", "length": 21.559032490466894, "status": "disappeared" }, "geometry": { "type": "LineString", "coordinates": [ [ 144.78408069419163, -37.695255594844035 ], [ 144.7840264544663, -37.695332739536283 ], [ 144.784022550972992, -37.695438583270331 ] ] } },
{ "type": "Feature", "properties": { "gid": 892, "fclass": "tertiary", "length": 33.027938026119486, "status": "disappeared" }, "geometry": { "type": "LineString", "coordinates": [ [ 144.761910868567298, -37.690750684498276 ], [ 144.761564805817642, -37.690864429762414 ] ] } },
{ "type": "Feature", "properties": { "gid": 896, "fclass": "tertiary", "length": 41.641367287932439, "status": "disappeared" }, "geometry": { "type": "LineString", "coordinates": [ [ 144.779889383153318, -37.690098465022082 ], [ 144.779777226447322, -37.690278491667421 ], [ 144.779690684790239, -37.690318384273375 ], [ 144.779571825316253, -37.690326748144415 ] ] } },
{ "type": "Feature", "properties": { "gid": 898, "fclass": "tertiary", "length": 18.491872907549801, "status": "disappeared" }, "geometry": { "type": "LineString", "coordinates": [ [ 144.755157684658911, -37.6855417844776 ], [ 144.7550995530367, -37.685701872931226 ] ] } },
{ "type": "Feature", "properties": { "gid": 899, "fclass": "tertiary", "length": 23.007088326120304, "status": "disappeared" }, "geometry": { "type": "LineString", "coordinates": [ [ 144.77077536130156, -37.69358303653474 ], [ 144.771034716907337, -37.693560645811388 ] ] } },
{ "type": "Feature", "properties": { "gid": 904, "fclass": "tertiary", "length": 2.5400000000372529, "status": "disappeared" }, "geometry": { "type": "LineString", "coordinates": [ [ 144.754871250829837, -37.685037690014887 ], [ 144.754871324981906, -37.685014803406489 ] ] } },
{ "type": "Feature", "properties": { "gid": 905, "fclass": "tertiary", "length": 3.5926092055679342, "status": "disappeared" }, "geometry": { "type": "LineString", "coordinates": [ [ 144.754871250829837, -37.685037690014887 ], [ 144.754842370342374, -37.685060517672596 ] ] } },
{ "type": "Feature", "properties": { "gid": 911, "fclass": "tertiary", "length": 33.408701914564098, "status": "disappeared" }, "geometry": { "type": "LineString", "coordinates": [ [ 144.760248026159616, -37.688206942494077 ], [ 144.760189467982002, -37.688504352748843 ] ] } },
{ "type": "Feature", "properties": { "gid": 914, "fclass": "tertiary", "length": 43.964548944565585, "status": "disappeared" }, "geometry": { "type": "LineString", "coordinates": [ [ 144.7550995530367, -37.685701872931226 ], [ 144.755145835982347, -37.685865035661195 ], [ 144.755098696441166, -37.685966499261717 ], [ 144.754983214935066, -37.6860449363245 ] ] } },
{ "type": "Feature", "properties": { "gid": 922, "fclass": "tertiary", "length": 33.029315961059183, "status": "disappeared" }, "geometry": { "type": "LineString", "coordinates": [ [ 144.780403172559545, -37.681814409102266 ], [ 144.780777639101075, -37.681815095012546 ] ] } },
{ "type": "Feature", "properties": { "gid": 926, "fclass": "tertiary", "length": 28.017650137044431, "status": "disappeared" }, "geometry": { "type": "LineString", "coordinates": [ [ 144.795453315519012, -37.698021947500258 ], [ 144.795658572849902, -37.698030880232494 ], [ 144.795741243124809, -37.698091098587454 ] ] } },
{ "type": "Feature", "properties": { "gid": 931, "fclass": "tertiary", "length": 37.761019883223383, "status": "disappeared" }, "geometry": { "type": "LineString", "coordinates": [ [ 144.771655469022647, -37.688343663261271 ], [ 144.77180047348935, -37.688023525452351 ] ] } },
{ "type": "Feature", "properties": { "gid": 939, "fclass": "tertiary", "length": 29.073330255701858, "status": "disappeared" }, "geometry": { "type": "LineString", "coordinates": [ [ 144.764442240491121, -37.691968683673252 ], [ 144.764561024085197, -37.691986082191747 ], [ 144.764729974343226, -37.692083682548308 ] ] } },
{ "type": "Feature", "properties": { "gid": 946, "fclass": "unclassified", "length": 244.35067860319745, "status": "disappeared" }, "geometry": { "type": "LineString", "coordinates": [ [ 144.792345679594803, -37.686069755900185 ], [ 144.792237457890394, -37.686141089282508 ], [ 144.79092252796201, -37.687666490273294 ], [ 144.790698819843414, -37.687829167477148 ] ] } },
{ "type": "Feature", "properties": { "gid": 1031, "fclass": "unclassified", "length": 46.400116300407205, "status": "disappeared" }, "geometry": { "type": "LineString", "coordinates": [ [ 144.772294554169122, -37.696149240020098 ], [ 144.772453399555644, -37.696020804387977 ], [ 144.772583691944021, -37.695806489386499 ] ] } },
{ "type": "Feature", "properties": { "gid": 1048, "fclass": "unclassified", "length": 49.318469709103574, "status": "disappeared" }, "geometry": { "type": "LineString", "coordinates": [ [ 144.778518107542794, -37.696000700221191 ], [ 144.778401591634633, -37.69643533109921 ] ] } },
{ "type": "Feature", "properties": { "gid": 1061, "fclass": "unclassified", "length": 575.67781270601358, "status": "disappeared" }, "geometry": { "type": "LineString", "coordinates": [ [ 144.769956944350469, -37.659548760968597 ], [ 144.769938398582468, -37.659728960216782 ], [ 144.769830110772489, -37.659827452171832 ], [ 144.764936307464438, -37.662766071974112 ] ] } },
{ "type": "Feature", "properties": { "gid": 1071, "fclass": "unclassified", "length": 466.01950725956823, "status": "disappeared" }, "geometry": { "type": "LineString", "coordinates": [ [ 144.767717474342646, -37.676137440375733 ], [ 144.767707173846276, -37.675974351737437 ], [ 144.767590728883789, -37.675789600769171 ], [ 144.763866521817391, -37.673360602214892 ] ] } },
{ "type": "Feature", "properties": { "gid": 1085, "fclass": "unclassified", "length": 84.730029492355115, "status": "disappeared" }, "geometry": { "type": "LineString", "coordinates": [ [ 144.763571605433356, -37.694003883666234 ], [ 144.763733530707157, -37.694045685209886 ], [ 144.764295138374308, -37.694105438546167 ], [ 144.764492947378073, -37.694188791751401 ] ] } },
{ "type": "Feature", "properties": { "gid": 1125, "fclass": "unclassified", "length": 76.874728321456374, "status": "disappeared" }, "geometry": { "type": "LineString", "coordinates": [ [ 144.756652337641583, -37.668654351529604 ], [ 144.756534928289369, -37.669340719814528 ] ] } },
{ "type": "Feature", "properties": { "gid": 1126, "fclass": "unclassified", "length": 289.30415484276529, "status": "disappeared" }, "geometry": { "type": "LineString", "coordinates": [ [ 144.778923728930977, -37.695223303148047 ], [ 144.776796699057854, -37.694770208592487 ], [ 144.776623864106853, -37.694761303970409 ], [ 144.776522750051612, -37.694855522884268 ], [ 144.776301389686779, -37.69542441542761 ] ] } },
{ "type": "Feature", "properties": { "gid": 1153, "fclass": "unclassified", "length": 616.53463601114424, "status": "disappeared" }, "geometry": { "type": "LineString", "coordinates": [ [ 144.79789369442878, -37.679670953457261 ], [ 144.797850098148473, -37.679816783121503 ], [ 144.79530045034403, -37.682644690843979 ], [ 144.794043441891631, -37.684101566625806 ], [ 144.793906293891439, -37.68421862531396 ] ] } },
{ "type": "Feature", "properties": { "gid": 1210, "fclass": "unclassified", "length": 113.32306936775882, "status": "disappeared" }, "geometry": { "type": "LineString", "coordinates": [ [ 144.762275670282037, -37.693841112443131 ], [ 144.762977552297627, -37.693955506086098 ], [ 144.763542795685822, -37.694003826808142 ] ] } },
{ "type": "Feature", "properties": { "gid": 1244, "fclass": "unclassified", "length": 217.00795733055784, "status": "disappeared" }, "geometry": { "type": "LineString", "coordinates": [ [ 144.765208878161133, -37.667733069116665 ], [ 144.765185931091082, -37.667587120119812 ], [ 144.765279942702165, -37.667454274278818 ], [ 144.765797448217995, -37.667160618507971 ], [ 144.765927112469939, -37.667139415532006 ], [ 144.766045804366144, -37.667173977817313 ], [ 144.766074294385731, -37.667274163684553 ], [ 144.766003790239239, -37.667372725729983 ], [ 144.765421511302804, -37.667657672927007 ], [ 144.765208878161133, -37.667733069116665 ] ] } },
{ "type": "Feature", "properties": { "gid": 1300, "fclass": "unclassified", "length": 202.29776318286162, "status": "disappeared" }, "geometry": { "type": "LineString", "coordinates": [ [ 144.778518174551323, -37.695977813694142 ], [ 144.778377966374251, -37.695894590305564 ], [ 144.776477692151786, -37.695479100292701 ], [ 144.776330064644583, -37.695470242278724 ] ] } },
{ "type": "Feature", "properties": { "gid": 1308, "fclass": "unclassified", "length": 315.06888072853343, "status": "disappeared" }, "geometry": { "type": "LineString", "coordinates": [ [ 144.763103844161407, -37.677776255609913 ], [ 144.76354580948751, -37.678061783686438 ], [ 144.764989915558431, -37.679120279872969 ], [ 144.765776766815634, -37.679658230525114 ] ] } },
{ "type": "Feature", "properties": { "gid": 1386, "fclass": "unclassified", "length": 123.98129498986283, "status": "disappeared" }, "geometry": { "type": "LineString", "coordinates": [ [ 144.755297623282559, -37.66899489470201 ], [ 144.755481326370301, -37.668963800420514 ], [ 144.756108394773122, -37.668759096964237 ], [ 144.756623611156101, -37.668631406256729 ] ] } }
]
}
