{
"type": "FeatureCollection",
"crs": { "type": "name", "properties": { "name": "urn:ogc:def:crs:OGC:1.3:CRS84" } },
"features": [
{ "type": "Feature", "properties": { "gid": 2286, "osm_id": "631693184", "code": 5115.0, "fclass": "tertiary", "name": "Kyabram Street", "pixel_count": 50, "Var_line": 48.849433898925781, "Edge_contrast": 9.1038684844970703, "ROI": 4008.6666666666665, "Road_detected": -1, "ROI_norm": -0.60798826322311172, "Pred": 0 }, "geometry": { "type": "LineString", "coordinates": [ [ 144.93774844290138, -37.665575265240456 ], [ 144.937806642876581, -37.665252665238476 ] ] } },
{ "type": "Feature", "properties": { "gid": 5409, "osm_id": "33078465", "code": 5122.0, "fclass": "residential", "name": "Lowson Street", "pixel_count": 40, "Var_line": 35.940803527832031, "Edge_contrast": 31.871391296386719, "ROI": 13500.0, "Road_detected": -1, "ROI_norm": 0.24271757263885821, "Pred": 0 }, "geometry": { "type": "LineString", "coordinates": [ [ 144.977589053477629, -37.699708062306122 ], [ 144.976220953224015, -37.699550462400694 ], [ 144.975257053044771, -37.699434262467349 ], [ 144.974346752878517, -37.699352262530162 ], [ 144.974288052867649, -37.699345662534164 ], [ 144.973316552687976, -37.699237762601285 ], [ 144.972284152497366, -37.699125462672598 ], [ 144.970924752246987, -37.69898386276639 ], [ 144.970407752149441, -37.698908362802264 ], [ 144.969349751954013, -37.698792662875299 ], [ 144.968486851794836, -37.698700462934866 ], [ 144.968405151779592, -37.698690362940532 ] ] } },
{ "type": "Feature", "properties": { "gid": 20680, "osm_id": "174248318", "code": 5122.0, "fclass": "residential", "name": "Link Drive", "pixel_count": 25, "Var_line": 69.970191955566406, "Edge_contrast": 7.8889584541320801, "ROI": 2018.8333333333333, "Road_detected": -1, "ROI_norm": -0.78633652785674324, "Pred": 0 }, "geometry": { "type": "LineString", "coordinates": [ [ 144.947017943404035, -37.655409964670959 ], [ 144.94675554315657, -37.65353866470052 ], [ 144.946667943079035, -37.652960864710153 ], [ 144.946417542857404, -37.651308864737501 ], [ 144.946403042842746, -37.651196564739173 ], [ 144.946363942819232, -37.651041264742759 ], [ 144.946310242793487, -37.650888364747487 ], [ 144.946231442771847, -37.650814264753294 ], [ 144.946161642752458, -37.650746364758447 ] ] } },
{ "type": "Feature", "properties": { "gid": 20681, "osm_id": "174394228", "code": 5121.0, "fclass": "unclassified", "name": "National Boulevard", "pixel_count": 150, "Var_line": 12.646016120910645, "Edge_contrast": 3.3231546878814697, "ROI": 7215.666666666667, "Road_detected": -1, "ROI_norm": -0.3205456542876613, "Pred": 0 }, "geometry": { "type": "LineString", "coordinates": [ [ 144.950098143954364, -37.655582664459565 ], [ 144.949170243804076, -37.655674264522382 ], [ 144.948711343729741, -37.655719664553416 ], [ 144.948484943693103, -37.655741964568726 ], [ 144.948205143647783, -37.655769564587672 ], [ 144.947816743584866, -37.655807964613963 ] ] } },
{ "type": "Feature", "properties": { "gid": 20688, "osm_id": "197877066", "code": 5122.0, "fclass": "residential", "name": "Princeton Place", "pixel_count": 100, "Var_line": 24.365253448486328, "Edge_contrast": 9.1839408874511719, "ROI": 12526.666666666666, "Road_detected": -1, "ROI_norm": 0.15547794909748877, "Pred": 0 }, "geometry": { "type": "LineString", "coordinates": [ [ 144.940414344408111, -37.675261964998242 ], [ 144.940865144410793, -37.674565564971822 ], [ 144.94097234441557, -37.674438564965278 ], [ 144.941425944450913, -37.674040464936802 ] ] } },
{ "type": "Feature", "properties": { "gid": 20689, "osm_id": "197877068", "code": 5122.0, "fclass": "residential", "name": "Academy Drive", "pixel_count": 249, "Var_line": 29.745052337646484, "Edge_contrast": 5.3048796653747559, "ROI": 17205.666666666664, "Road_detected": -1, "ROI_norm": 0.57485555034755786, "Pred": 0 }, "geometry": { "type": "LineString", "coordinates": [ [ 144.943189344871456, -37.675112864809776 ], [ 144.94276784478842, -37.675018564839135 ], [ 144.942695844774249, -37.675002464844091 ], [ 144.94217504464072, -37.674599364882226 ], [ 144.941848044556934, -37.674346364906079 ], [ 144.941425944450913, -37.674040464936802 ], [ 144.940749344277634, -37.673518264986235 ], [ 144.94071434426175, -37.673427364989195 ], [ 144.940700844252092, -37.673359564990527 ], [ 144.940709344240247, -37.673236664990739 ], [ 144.940723744227967, -37.673099864990569 ] ] } },
{ "type": "Feature", "properties": { "gid": 20690, "osm_id": "197877071", "code": 5122.0, "fclass": "residential", "name": "Academy Drive", "pixel_count": 198, "Var_line": 61.481632232666016, "Edge_contrast": 20.569618225097656, "ROI": 24815.333333333332, "Road_detected": -1, "ROI_norm": 1.2569080728906818, "Pred": 0 }, "geometry": { "type": "LineString", "coordinates": [ [ 144.943189344871456, -37.675112864809776 ], [ 144.943629944827478, -37.67400176478661 ], [ 144.94367314482929, -37.673949264784035 ], [ 144.94373854483834, -37.673928664779673 ], [ 144.944624245002643, -37.674033064718536 ], [ 144.945600645182651, -37.674138464651193 ], [ 144.94651224535275, -37.674254964588222 ], [ 144.947479945529892, -37.674347364521608 ], [ 144.947559145548098, -37.674388964515934 ] ] } },
{ "type": "Feature", "properties": { "gid": 20695, "osm_id": "203833778", "code": 5122.0, "fclass": "residential", "name": "The Gateway", "pixel_count": 120, "Var_line": 7.2484960556030273, "Edge_contrast": 4.2986001968383789, "ROI": 4392.0, "Road_detected": -1, "ROI_norm": -0.57363019230784629, "Pred": 0 }, "geometry": { "type": "LineString", "coordinates": [ [ 144.952101948031896, -37.690102064107968 ], [ 144.952086348007015, -37.689896764110316 ], [ 144.952178047962519, -37.689338764107511 ], [ 144.95221484794564, -37.689123864106378 ], [ 144.952225947937251, -37.68902876410619 ] ] } },
{ "type": "Feature", "properties": { "gid": 20714, "osm_id": "221035517", "code": 5122.0, "fclass": "residential", "name": "National Boulevard", "pixel_count": 50, "Var_line": 0.0, "Edge_contrast": 0.0, "ROI": 794.33333333333326, "Road_detected": -1, "ROI_norm": -0.89608815699346256, "Pred": 0 }, "geometry": { "type": "LineString", "coordinates": [ [ 144.94694034345008, -37.655960664672882 ], [ 144.946441843361384, -37.655936464707018 ] ] } },
{ "type": "Feature", "properties": { "gid": 20720, "osm_id": "241578586", "code": 5121.0, "fclass": "unclassified", "name": "Northcorp Boulevard", "pixel_count": 100, "Var_line": 27.451400756835938, "Edge_contrast": 12.469461441040039, "ROI": 12357.333333333332, "Road_detected": -1, "ROI_norm": 0.14030064472796283, "Pred": 0 }, "geometry": { "type": "LineString", "coordinates": [ [ 144.948843046407518, -37.680287864391566 ], [ 144.946762346048303, -37.680290664533615 ], [ 144.943564945496036, -37.68029266475191 ], [ 144.942638845300252, -37.679961464817175 ] ] } },
{ "type": "Feature", "properties": { "gid": 20726, "osm_id": "241578608", "code": 5121.0, "fclass": "unclassified", "name": "Maygar Boulevard", "pixel_count": 75, "Var_line": 37.972759246826172, "Edge_contrast": 21.586524963378906, "ROI": 9318.0, "Road_detected": -1, "ROI_norm": -0.13211404275498437, "Pred": 0 }, "geometry": { "type": "LineString", "coordinates": [ [ 144.94114144554834, -37.684651564890217 ], [ 144.940677745742562, -37.687190664906097 ], [ 144.940570445789547, -37.687796964909637 ] ] } },
{ "type": "Feature", "properties": { "gid": 20731, "osm_id": "241580482", "code": 5122.0, "fclass": "residential", "name": "Decco Drive", "pixel_count": 148, "Var_line": 28.323013305664062, "Edge_contrast": 7.2598752975463867, "ROI": 11183.333333333334, "Road_detected": -1, "ROI_norm": 0.0350753179770373, "Pred": 0 }, "geometry": { "type": "LineString", "coordinates": [ [ 144.952909246979857, -37.679083264121353 ], [ 144.953132147046404, -37.679342664104489 ], [ 144.953230547071286, -37.679415364097359 ], [ 144.953387847105688, -37.679482764086181 ], [ 144.953578047142543, -37.679519164073007 ], [ 144.956128647615742, -37.679820063896862 ] ] } },
{ "type": "Feature", "properties": { "gid": 20733, "osm_id": "241580486", "code": 5122.0, "fclass": "residential", "name": "Fabio Court", "pixel_count": 172, "Var_line": 60.26263427734375, "Edge_contrast": 40.179561614990234, "ROI": 3358.333333333333, "Road_detected": -1, "ROI_norm": -0.66627747744544441, "Pred": 0 }, "geometry": { "type": "LineString", "coordinates": [ [ 144.953667946856285, -37.676728164084196 ], [ 144.953711846862035, -37.676711564081295 ], [ 144.953784046874461, -37.676711064076372 ], [ 144.953828346883824, -37.676726864073245 ], [ 144.953871546895357, -37.676764364070038 ], [ 144.953887546902052, -37.676800664068722 ], [ 144.953885446906412, -37.676844564068631 ], [ 144.953865946906831, -37.676879764069717 ], [ 144.95383074690389, -37.676908564071972 ], [ 144.95378684689814, -37.676925164074831 ], [ 144.953736446889792, -37.676928764078255 ], [ 144.953689546880639, -37.676918564081539 ], [ 144.953645046870065, -37.676892364084772 ], [ 144.95361934686207, -37.676859664086699 ], [ 144.953609746855022, -37.676809564087662 ], [ 144.953621946853104, -37.676772364087043 ], [ 144.953667946856285, -37.676728164084196 ] ] } },
{ "type": "Feature", "properties": { "gid": 20745, "osm_id": "243007230", "code": 5113.0, "fclass": "primary", "name": "Camp Road", "pixel_count": 125, "Var_line": 56.860931396484375, "Edge_contrast": 9.8526678085327148, "ROI": 11443.166666666666, "Road_detected": -1, "ROI_norm": 0.058364114740906178, "Pred": 0 }, "geometry": { "type": "LineString", "coordinates": [ [ 144.957557048919227, -37.689588463738467 ], [ 144.957292348869998, -37.689556363756807 ], [ 144.957034148822885, -37.689533063774526 ], [ 144.956902548798269, -37.689516263783688 ], [ 144.956664248753839, -37.689485963800166 ] ] } },
{ "type": "Feature", "properties": { "gid": 20759, "osm_id": "293135654", "code": 5122.0, "fclass": "residential", "name": "The Gateway", "pixel_count": 125, "Var_line": 7.0159564018249512, "Edge_contrast": 25.916627883911133, "ROI": 3753.3333333333326, "Road_detected": -1, "ROI_norm": -0.63087372611101888, "Pred": 0 }, "geometry": { "type": "LineString", "coordinates": [ [ 144.95235544796131, -37.68904386409725 ], [ 144.952302647977319, -37.68927636409942 ], [ 144.952256447990806, -37.689475164101324 ], [ 144.95217264802028, -37.689881564104532 ], [ 144.952101948031896, -37.690102064107968 ] ] } },
{ "type": "Feature", "properties": { "gid": 20773, "osm_id": "801337633", "code": 5122.0, "fclass": "residential", "name": "Princeton Place", "pixel_count": 44, "Var_line": 31.739585876464844, "Edge_contrast": 5.9382648468017578, "ROI": 1448.6666666666667, "Road_detected": -1, "ROI_norm": -0.83744042377027506, "Pred": 0 }, "geometry": { "type": "LineString", "coordinates": [ [ 144.94051614443174, -37.675317664990985 ], [ 144.940414344408111, -37.675261964998242 ] ] } },
{ "type": "Feature", "properties": { "gid": 20808, "osm_id": "33910863", "code": 5122.0, "fclass": "residential", "name": "Timor Court", "pixel_count": 75, "Var_line": 72.753028869628906, "Edge_contrast": 29.225919723510742, "ROI": 7963.1666666666661, "Road_detected": -1, "ROI_norm": -0.25354741600289399, "Pred": 0 }, "geometry": { "type": "LineString", "coordinates": [ [ 144.93345564188246, -37.663004665549323 ], [ 144.933462841837894, -37.66258016555151 ], [ 144.933520441837118, -37.662480865548112 ] ] } },
{ "type": "Feature", "properties": { "gid": 20880, "osm_id": "187875091", "code": 5122.0, "fclass": "residential", "name": "Anne Court", "pixel_count": 50, "Var_line": 44.07440185546875, "Edge_contrast": 40.336277008056641, "ROI": 5811.9999999999991, "Road_detected": -1, "ROI_norm": -0.44635594700434172, "Pred": 0 }, "geometry": { "type": "LineString", "coordinates": [ [ 144.933783144799349, -37.689490265362267 ], [ 144.933675544846096, -37.690095065365846 ] ] } },
{ "type": "Feature", "properties": { "gid": 24573, "osm_id": "220965791", "code": 5122.0, "fclass": "residential", "name": "Clarissa Street", "pixel_count": 50, "Var_line": 0.0, "Edge_contrast": 0.0, "ROI": 0.0, "Road_detected": -1, "ROI_norm": -0.96728405524657335, "Pred": 0 }, "geometry": { "type": "LineString", "coordinates": [ [ 144.965546248256402, -37.670703163310023 ], [ 144.965257848381725, -37.672322263319721 ] ] } },
{ "type": "Feature", "properties": { "gid": 24579, "osm_id": "220965763", "code": 5122.0, "fclass": "residential", "name": "Lara Way", "pixel_count": 275, "Var_line": 40.752723693847656, "Edge_contrast": 9.2967424392700195, "ROI": 20506.166666666668, "Road_detected": -1, "ROI_norm": 0.87067854092799279, "Pred": 0 }, "geometry": { "type": "LineString", "coordinates": [ [ 144.963770146445654, -37.656796963517927 ], [ 144.964595746579135, -37.656713163462051 ], [ 144.965831946781435, -37.65661076337819 ], [ 144.967287447051604, -37.656785863277619 ], [ 144.967390247083443, -37.656916163269777 ], [ 144.967673747336647, -37.658804863238643 ], [ 144.967624147370543, -37.659197163239568 ], [ 144.96763584738602, -37.659321763238033 ], [ 144.967878847561934, -37.660560263213682 ], [ 144.967832547600636, -37.660991863214157 ], [ 144.96778114762219, -37.661272863215892 ] ] } },
{ "type": "Feature", "properties": { "gid": 24582, "osm_id": "220965766", "code": 5122.0, "fclass": "residential", "name": "Metrolink Circuit", "pixel_count": 75, "Var_line": 8.1901321411132812, "Edge_contrast": 10.774643898010254, "ROI": 1470.5, "Road_detected": -1, "ROI_norm": -0.83548350755727507, "Pred": 0 }, "geometry": { "type": "LineString", "coordinates": [ [ 144.968088646083714, -37.646557063286508 ], [ 144.968301346270863, -37.647948163263329 ], [ 144.968584046548813, -37.650067363230789 ], [ 144.968643546590897, -37.65036146322489 ], [ 144.968887046646728, -37.650489263207454 ], [ 144.968727146633228, -37.650619663217576 ], [ 144.969192747038107, -37.653620463167059 ], [ 144.969347147079731, -37.653758663155621 ], [ 144.969246647087289, -37.653989063161077 ], [ 144.969887847629053, -37.657974463092415 ], [ 144.969972547656425, -37.658092563085908 ], [ 144.970704947821474, -37.658449363033625 ] ] } },
{ "type": "Feature", "properties": { "gid": 24583, "osm_id": "220965768", "code": 5122.0, "fclass": "residential", "name": "Merri Concourse", "pixel_count": 449, "Var_line": 17.772346496582031, "Edge_contrast": 16.391324996948242, "ROI": 8949.5, "Road_detected": -1, "ROI_norm": -0.16514260570874578, "Pred": 0 }, "geometry": { "type": "LineString", "coordinates": [ [ 144.966800847447132, -37.661219063283284 ], [ 144.967014347481296, -37.661194263268833 ], [ 144.96778114762219, -37.661272863215892 ], [ 144.968558047765782, -37.661360863162294 ], [ 144.970158148061671, -37.661542163051763 ], [ 144.971326948277778, -37.661674662970974 ], [ 144.971451348307966, -37.661755262961989 ], [ 144.971205448410473, -37.663095162970521 ], [ 144.971157248430586, -37.663357762972154 ], [ 144.971221348465207, -37.663575562966372 ], [ 144.972849848907202, -37.665061662845801 ], [ 144.97291394894151, -37.665276562840084 ], [ 144.972668949052917, -37.666696962847979 ], [ 144.972589749063161, -37.666917762852044 ], [ 144.97237864903218, -37.666968462866151 ], [ 144.97100274877684, -37.666804362961258 ], [ 144.96987294856757, -37.666673263039314 ], [ 144.967715348166251, -37.66640736318849 ] ] } },
{ "type": "Feature", "properties": { "gid": 24584, "osm_id": "220965771", "code": 5122.0, "fclass": "residential", "name": "Susan Court", "pixel_count": 50, "Var_line": 53.920738220214844, "Edge_contrast": 41.185512542724609, "ROI": 5499.833333333333, "Road_detected": -1, "ROI_norm": -0.47433536736272947, "Pred": 0 }, "geometry": { "type": "LineString", "coordinates": [ [ 144.969048249316415, -37.674909863044391 ], [ 144.969554949465731, -37.67548066300629 ] ] } },
{ "type": "Feature", "properties": { "gid": 24586, "osm_id": "220965773", "code": 5122.0, "fclass": "residential", "name": "Plane Court", "pixel_count": 50, "Var_line": 64.275238037109375, "Edge_contrast": 40.145114898681641, "ROI": 6773.333333333333, "Road_detected": -1, "ROI_norm": -0.36019188046553707, "Pred": 0 }, "geometry": { "type": "LineString", "coordinates": [ [ 144.962831248588884, -37.678111163449515 ], [ 144.963456048669627, -37.677860063408367 ] ] } },
{ "type": "Feature", "properties": { "gid": 24600, "osm_id": "220965824", "code": 5122.0, "fclass": "residential", "name": "Production Drive", "pixel_count": 125, "Var_line": 9.7894687652587891, "Edge_contrast": 5.0859999656677246, "ROI": 12679.999999999998, "Road_detected": -1, "ROI_norm": 0.1692211774635948, "Pred": 0 }, "geometry": { "type": "LineString", "coordinates": [ [ 144.970158148061671, -37.661542163051763 ], [ 144.969901148168248, -37.662937563060652 ], [ 144.969671548263506, -37.664184463068572 ], [ 144.970116348467542, -37.665360263030863 ], [ 144.96987294856757, -37.666673263039314 ] ] } },
{ "type": "Feature", "properties": { "gid": 24601, "osm_id": "220965829", "code": 5121.0, "fclass": "unclassified", "name": "Salvator Drive", "pixel_count": 155, "Var_line": 58.987831115722656, "Edge_contrast": 19.130748748779297, "ROI": 5636.666666666667, "Road_detected": -1, "ROI_norm": -0.46207102987514992, "Pred": 0 }, "geometry": { "type": "LineString", "coordinates": [ [ 144.961504247720285, -37.67220076357696 ], [ 144.96173344773274, -37.671949663562884 ], [ 144.962877547943407, -37.672070563483906 ], [ 144.963603748077134, -37.672147363433808 ], [ 144.965257848381725, -37.672322263319721 ], [ 144.966603548629564, -37.67246446322681 ], [ 144.966645048636053, -37.672458363223988 ] ] } },
{ "type": "Feature", "properties": { "gid": 24668, "osm_id": "332759575", "code": 5121.0, "fclass": "unclassified", "name": "Barry Road", "pixel_count": 415, "Var_line": 39.617038726806641, "Edge_contrast": 38.43743896484375, "ROI": 18866.0, "Road_detected": -1, "ROI_norm": 0.7236708122857638, "Pred": 0 }, "geometry": { "type": "LineString", "coordinates": [ [ 144.956470446310192, -37.667200363952027 ], [ 144.956678346348411, -37.667221963937678 ], [ 144.957409746484984, -37.667316763887094 ], [ 144.958784046737748, -37.667459363792368 ], [ 144.959526646872916, -37.667523663741207 ], [ 144.960036546965739, -37.667567763706117 ], [ 144.960126746982411, -37.66757776369986 ], [ 144.960739147095467, -37.667645363657591 ], [ 144.96088954712323, -37.667661963647213 ], [ 144.961544147243529, -37.667728963602094 ], [ 144.961733947278816, -37.667752263588937 ], [ 144.962097047346333, -37.66779666356382 ], [ 144.962573547433749, -37.667844163530994 ], [ 144.963581147619777, -37.667955063461442 ], [ 144.96390994768052, -37.667992163438726 ], [ 144.964356647762713, -37.6680387634079 ], [ 144.966837948219222, -37.668297763236737 ] ] } },
{ "type": "Feature", "properties": { "gid": 24671, "osm_id": "800567472", "code": 5121.0, "fclass": "unclassified", "name": "Barry Road", "pixel_count": 95, "Var_line": 38.461399078369141, "Edge_contrast": 32.267913818359375, "ROI": 2807.1666666666665, "Road_detected": -1, "ROI_norm": -0.71567840810491512, "Pred": 0 }, "geometry": { "type": "LineString", "coordinates": [ [ 144.967809348398504, -37.668403963169652 ], [ 144.96765224837111, -37.668401863180392 ], [ 144.967534248350745, -37.668401863188471 ], [ 144.967344048319688, -37.668418363201354 ] ] } },
{ "type": "Feature", "properties": { "gid": 25315, "osm_id": "33810670", "code": 5122.0, "fclass": "residential", "name": "Nyah Court", "pixel_count": 50, "Var_line": 71.599739074707031, "Edge_contrast": 33.154983520507812, "ROI": 6980.0, "Road_detected": -1, "ROI_norm": -0.34166839875469834, "Pred": 0 }, "geometry": { "type": "LineString", "coordinates": [ [ 144.936231942751931, -37.666616765337423 ], [ 144.936614142773465, -37.666204865313922 ] ] } },
{ "type": "Feature", "properties": { "gid": 25334, "osm_id": "33910856", "code": 5122.0, "fclass": "residential", "name": "Yelta Court", "pixel_count": 50, "Var_line": 19.611598968505859, "Edge_contrast": 37.272102355957031, "ROI": 6038.1666666666661, "Road_detected": -1, "ROI_norm": -0.42608468516433512, "Pred": 0 }, "geometry": { "type": "LineString", "coordinates": [ [ 144.934867042126655, -37.663008565453069 ], [ 144.934870842197682, -37.663660465448707 ] ] } },
{ "type": "Feature", "properties": { "gid": 25390, "osm_id": "197877049", "code": 5122.0, "fclass": "residential", "name": "Cornell Close", "pixel_count": 158, "Var_line": 60.086273193359375, "Edge_contrast": 10.822860717773438, "ROI": 9287.3333333333339, "Road_detected": -1, "ROI_norm": -0.13486268842820553, "Pred": 0 }, "geometry": { "type": "LineString", "coordinates": [ [ 144.939717944230608, -37.674732465049068 ], [ 144.940208144233054, -37.673971265020356 ], [ 144.940334444234821, -37.673785665012879 ], [ 144.940390244237733, -37.673723365009472 ], [ 144.940460744244177, -37.673670165004985 ], [ 144.940577144256707, -37.67360006499748 ], [ 144.940749344277634, -37.673518264986235 ] ] } },
{ "type": "Feature", "properties": { "gid": 25388, "osm_id": "197877040", "code": 5122.0, "fclass": "residential", "name": "Wharton Avenue", "pixel_count": 191, "Var_line": 12.968358039855957, "Edge_contrast": 37.85601806640625, "ROI": 23165.333333333332, "Road_detected": -1, "ROI_norm": 1.1090189850380179, "Pred": 0 }, "geometry": { "type": "LineString", "coordinates": [ [ 144.946289645396405, -37.675014564598762 ], [ 144.946119445412279, -37.675433564607737 ], [ 144.946104945412031, -37.675454464608613 ], [ 144.946086745410611, -37.675470264609743 ], [ 144.946063045407584, -37.675480564611298 ], [ 144.94602594540234, -37.675491164613767 ], [ 144.945097645240509, -37.675477464677222 ], [ 144.944072545063477, -37.67547826474722 ], [ 144.943194744912262, -37.675482264807073 ], [ 144.943143844895417, -37.675407964811029 ], [ 144.943189344871456, -37.675112864809776 ] ] } },
{ "type": "Feature", "properties": { "gid": 25409, "osm_id": "221035514", "code": 5122.0, "fclass": "residential", "name": "Link Drive", "pixel_count": 75, "Var_line": 46.2061767578125, "Edge_contrast": 16.464303970336914, "ROI": 1831.5, "Road_detected": -1, "ROI_norm": -0.8031271677301165, "Pred": 0 }, "geometry": { "type": "LineString", "coordinates": [ [ 144.946979843435258, -37.655760764671385 ], [ 144.947005143420569, -37.655583764670766 ], [ 144.947017943404035, -37.655409964670959 ] ] } },
{ "type": "Feature", "properties": { "gid": 25443, "osm_id": "293135226", "code": 5122.0, "fclass": "residential", "name": "Link Drive", "pixel_count": 150, "Var_line": 50.073886871337891, "Edge_contrast": 3.7458341121673584, "ROI": 4630.0000000000009, "Road_detected": -1, "ROI_norm": -0.55229831175697708, "Pred": 0 }, "geometry": { "type": "LineString", "coordinates": [ [ 144.947956443821852, -37.657778564592157 ], [ 144.947617243753086, -37.65768416461588 ], [ 144.947381143689483, -37.657472864633334 ], [ 144.947261443636478, -37.657173464643378 ], [ 144.947192043563717, -37.656610664651595 ], [ 144.947158343527548, -37.65632946465562 ] ] } },
{ "type": "Feature", "properties": { "gid": 28870, "osm_id": "784409810", "code": 5113.0, "fclass": "primary", "name": "Mahoneys Road", "pixel_count": 45, "Var_line": 84.449539184570312, "Edge_contrast": 27.981660842895508, "ROI": 5265.3333333333321, "Road_detected": -1, "ROI_norm": -0.49535354378785057, "Pred": 0 }, "geometry": { "type": "LineString", "coordinates": [ [ 144.959029149190997, -37.689748763636942 ], [ 144.958904849168647, -37.689740463645485 ] ] } },
{ "type": "Feature", "properties": { "gid": 28871, "osm_id": "784409811", "code": 5113.0, "fclass": "primary", "name": "Camp Road", "pixel_count": 96, "Var_line": 101.66617584228516, "Edge_contrast": 32.306522369384766, "ROI": 4660.0, "Road_detected": -1, "ROI_norm": -0.54960941925056517, "Pred": 0 }, "geometry": { "type": "LineString", "coordinates": [ [ 144.956292048675067, -37.689352563826439 ], [ 144.956469148707441, -37.689368663814221 ], [ 144.956683148746322, -37.68938646379948 ], [ 144.956801448767976, -37.689397563791346 ] ] } },
{ "type": "Feature", "properties": { "gid": 28880, "osm_id": "755249673", "code": 5113.0, "fclass": "primary", "name": "Mahoneys Road", "pixel_count": 75, "Var_line": 50.561229705810547, "Edge_contrast": 27.213201522827148, "ROI": 7135.9999999999991, "Road_detected": -1, "ROI_norm": -0.32768615772135568, "Pred": 0 }, "geometry": { "type": "LineString", "coordinates": [ [ 144.958904849168647, -37.689740463645485 ], [ 144.958430149081778, -37.689695963678197 ], [ 144.958306049058706, -37.689680963686776 ] ] } },
{ "type": "Feature", "properties": { "gid": 28937, "osm_id": "33810771", "code": 5122.0, "fclass": "residential", "name": "Donald Street", "pixel_count": 50, "Var_line": 33.927860260009766, "Edge_contrast": 41.712085723876953, "ROI": 14632.666666666664, "Road_detected": -1, "ROI_norm": 0.34423820304761593, "Pred": 0 }, "geometry": { "type": "LineString", "coordinates": [ [ 144.942462244350452, -37.671453564882171 ], [ 144.942162844462956, -37.672973664893128 ] ] } },
{ "type": "Feature", "properties": { "gid": 28963, "osm_id": "49736469", "code": 5122.0, "fclass": "residential", "name": "William Street", "pixel_count": 15, "Var_line": 88.835807800292969, "Edge_contrast": 17.79368782043457, "ROI": 879.0, "Road_detected": -1, "ROI_norm": -0.88849950480869966, "Pred": 0 }, "geometry": { "type": "LineString", "coordinates": [ [ 144.967783952017015, -37.701874362963189 ], [ 144.967928651960619, -37.701122562957991 ], [ 144.968013151922037, -37.700631662955246 ], [ 144.968056251896115, -37.700323062954233 ], [ 144.96819645183453, -37.699530362949602 ], [ 144.968258151805031, -37.69915976294763 ], [ 144.968321251777155, -37.698801562945569 ], [ 144.968332651771931, -37.698734862945194 ] ] } },
{ "type": "Feature", "properties": { "gid": 28977, "osm_id": "220965804", "code": 5122.0, "fclass": "residential", "name": "Keown Court", "pixel_count": 65, "Var_line": 45.982624053955078, "Edge_contrast": 26.940313339233398, "ROI": 3339.333333333333, "Road_detected": -1, "ROI_norm": -0.66798044269950541, "Pred": 0 }, "geometry": { "type": "LineString", "coordinates": [ [ 144.966835549478816, -37.679942763164405 ], [ 144.966576649459739, -37.680179263180626 ], [ 144.966572749466735, -37.680250363180456 ] ] } },
{ "type": "Feature", "properties": { "gid": 34547, "osm_id": "33198909", "code": 5122.0, "fclass": "residential", "name": "Stanford Close", "pixel_count": 100, "Var_line": 55.426967620849609, "Edge_contrast": 38.097770690917969, "ROI": 4920.5, "Road_detected": -1, "ROI_norm": -0.52626086931988703, "Pred": 0 }, "geometry": { "type": "LineString", "coordinates": [ [ 144.965373851049975, -37.696791263159547 ], [ 144.965404351047027, -37.696715463157936 ], [ 144.965484851023149, -37.696366563154605 ], [ 144.965463451012567, -37.696302963156462 ], [ 144.965404150996619, -37.696250163160826 ] ] } },
{ "type": "Feature", "properties": { "gid": 44801, "osm_id": "293135652", "code": 5122.0, "fclass": "residential", "name": "The Gateway", "pixel_count": 50, "Var_line": 0.92469477653503418, "Edge_contrast": 0.0, "ROI": 1244.0, "Road_detected": -1, "ROI_norm": -0.85578464598068615, "Pred": 0 }, "geometry": { "type": "LineString", "coordinates": [ [ 144.952101948031896, -37.690102064107968 ], [ 144.952087548153827, -37.691252464101808 ] ] } },
{ "type": "Feature", "properties": { "gid": 54867, "osm_id": "235320934", "code": 5122.0, "fclass": "residential", "name": "Tuck Walk", "pixel_count": 50, "Var_line": 46.670799255371094, "Edge_contrast": 44.627388000488281, "ROI": 3834.6666666666661, "Road_detected": -1, "ROI_norm": -0.62358383976030174, "Pred": 0 }, "geometry": { "type": "LineString", "coordinates": [ [ 144.963000850566118, -37.696111463325998 ], [ 144.962543150481252, -37.69605866335754 ] ] } },
{ "type": "Feature", "properties": { "gid": 61750, "osm_id": "187875145", "code": 5122.0, "fclass": "residential", "name": "Congram Street", "pixel_count": 44, "Var_line": 46.857387542724609, "Edge_contrast": 43.928119659423828, "ROI": 1424.5, "Road_detected": -1, "ROI_norm": -0.83960647606710692, "Pred": 0 }, "geometry": { "type": "LineString", "coordinates": [ [ 144.932782344543625, -37.688724265435312 ], [ 144.932676844521382, -37.688687265442745 ] ] } },
{ "type": "Feature", "properties": { "gid": 66735, "osm_id": "198424081", "code": 5122.0, "fclass": "residential", "name": "Mahoneys Road", "pixel_count": 125, "Var_line": 2.2633843421936035, "Edge_contrast": 18.333002090454102, "ROI": 16188.333333333334, "Road_detected": -1, "ROI_norm": 0.48367221779678432, "Pred": 0 }, "geometry": { "type": "LineString", "coordinates": [ [ 144.967381750722666, -37.690562363061026 ], [ 144.96800685083727, -37.690623063017959 ], [ 144.968351450900485, -37.6906565629941 ], [ 144.969079451033934, -37.690727262943945 ], [ 144.969269951068867, -37.690745762930824 ] ] } },
{ "type": "Feature", "properties": { "gid": 69645, "osm_id": "221035519", "code": 5122.0, "fclass": "residential", "name": "National Boulevard", "pixel_count": 200, "Var_line": 6.2437057495117188, "Edge_contrast": 0.36238667368888855, "ROI": 3168.0, "Road_detected": -1, "ROI_norm": -0.68333700656945873, "Pred": 0 }, "geometry": { "type": "LineString", "coordinates": [ [ 144.946441843361384, -37.655936464707018 ], [ 144.945805343259025, -37.656005864750064 ], [ 144.945628343231647, -37.656035564761943 ], [ 144.945376243189543, -37.656048364779075 ], [ 144.945167043151145, -37.656027064793491 ], [ 144.944957843107204, -37.655954864808244 ], [ 144.94482374307259, -37.655848664818031 ], [ 144.944737843044464, -37.655725564824657 ], [ 144.943439642569899, -37.653406664927729 ], [ 144.943357442540218, -37.653262864934241 ], [ 144.942184442116144, -37.65121086502706 ], [ 144.942077142081104, -37.651057965035335 ], [ 144.942061042058668, -37.650875365037621 ], [ 144.942114642052331, -37.65073096503486 ], [ 144.942216542050176, -37.650548265029023 ], [ 144.942463342078526, -37.650416665012955 ], [ 144.942715442115173, -37.650352864996158 ], [ 144.942940742154974, -37.650361364980746 ], [ 144.943316342224392, -37.650403864954839 ], [ 144.945724942671745, -37.650696964788594 ], [ 144.94586974269788, -37.650707564778635 ], [ 144.946044142728937, -37.650716064766669 ], [ 144.946107742741674, -37.650732464762214 ], [ 144.946161642752458, -37.650746364758447 ] ] } },
{ "type": "Feature", "properties": { "gid": 79572, "osm_id": "197877064", "code": 5122.0, "fclass": "residential", "name": "Berkeley Close", "pixel_count": 50, "Var_line": 15.199629783630371, "Edge_contrast": 15.448310852050781, "ROI": 9060.9999999999982, "Road_detected": -1, "ROI_norm": -0.1551488885599146, "Pred": 0 }, "geometry": { "type": "LineString", "coordinates": [ [ 144.942305444789127, -37.675764464866042 ], [ 144.94276784478842, -37.675018564839135 ] ] } },
{ "type": "Feature", "properties": { "gid": 79635, "osm_id": "221035525", "code": 5121.0, "fclass": "unclassified", "name": "National Boulevard", "pixel_count": 75, "Var_line": 19.699180603027344, "Edge_contrast": 17.994897842407227, "ROI": 2914.5, "Road_detected": -1, "ROI_norm": -0.70605814824864077, "Pred": 0 }, "geometry": { "type": "LineString", "coordinates": [ [ 144.947191443472377, -37.655765964656865 ], [ 144.947476643524908, -37.655796664637229 ], [ 144.947816743584866, -37.655807964613963 ] ] } },
{ "type": "Feature", "properties": { "gid": 139605, "osm_id": "221035523", "code": 5122.0, "fclass": "residential", "name": "National Boulevard", "pixel_count": 69, "Var_line": 0.0, "Edge_contrast": 11.217496871948242, "ROI": 1475.9999999999998, "Road_detected": -1, "ROI_norm": -0.8349905439310995, "Pred": 0 }, "geometry": { "type": "LineString", "coordinates": [ [ 144.946441843361384, -37.655936464707018 ], [ 144.946816943418469, -37.655865264681871 ], [ 144.946920843431826, -37.655823064675026 ] ] } },
{ "type": "Feature", "properties": { "gid": 172910, "osm_id": "221035516", "code": 5122.0, "fclass": "residential", "name": "Link Drive", "pixel_count": 75, "Var_line": 60.454261779785156, "Edge_contrast": 20.194562911987305, "ROI": 3141.0, "Road_detected": -1, "ROI_norm": -0.68575700982522958, "Pred": 0 }, "geometry": { "type": "LineString", "coordinates": [ [ 144.947017943404035, -37.655409964670959 ], [ 144.947060143433504, -37.655615964666787 ], [ 144.94714994346262, -37.655741564659891 ] ] } },
{ "type": "Feature", "properties": { "gid": 172911, "osm_id": "221035522", "code": 5121.0, "fclass": "unclassified", "name": "National Boulevard", "pixel_count": 75, "Var_line": 25.016063690185547, "Edge_contrast": 1.804326057434082, "ROI": 3711.5, "Road_detected": -1, "ROI_norm": -0.6346232373282934, "Pred": 0 }, "geometry": { "type": "LineString", "coordinates": [ [ 144.947816743584866, -37.655807964613963 ], [ 144.947414543520637, -37.655856164641115 ], [ 144.94725764350062, -37.655921364651441 ] ] } },
{ "type": "Feature", "properties": { "gid": 172912, "osm_id": "221035531", "code": 5122.0, "fclass": "residential", "name": "Link Drive", "pixel_count": 75, "Var_line": 16.651247024536133, "Edge_contrast": 41.209468841552734, "ROI": 1119.9999999999998, "Road_detected": -1, "ROI_norm": -0.86689873500718939, "Pred": 0 }, "geometry": { "type": "LineString", "coordinates": [ [ 144.947158343527548, -37.65632946465562 ], [ 144.947100843496202, -37.656131364660801 ], [ 144.947035643472333, -37.656014564665995 ] ] } },
{ "type": "Feature", "properties": { "gid": 172913, "osm_id": "221035533", "code": 5122.0, "fclass": "residential", "name": "Link Drive", "pixel_count": 75, "Var_line": 62.288925170898438, "Edge_contrast": 29.922992706298828, "ROI": 879.99999999999989, "Road_detected": -1, "ROI_norm": -0.88840987505848601, "Pred": 0 }, "geometry": { "type": "LineString", "coordinates": [ [ 144.947197943497457, -37.655987564655085 ], [ 144.947167843510044, -37.656152264656093 ], [ 144.947158343527548, -37.65632946465562 ] ] } },
{ "type": "Feature", "properties": { "gid": 179617, "osm_id": "197877056", "code": 5122.0, "fclass": "residential", "name": "Wharton Avenue", "pixel_count": 100, "Var_line": 13.751434326171875, "Edge_contrast": 17.153589248657227, "ROI": 7216.9999999999991, "Road_detected": -1, "ROI_norm": -0.32042614795404312, "Pred": 0 }, "geometry": { "type": "LineString", "coordinates": [ [ 144.946289645396405, -37.675014564598762 ], [ 144.94637294538731, -37.674797164594374 ], [ 144.946430745378507, -37.674623464591527 ], [ 144.94651224535275, -37.674254964588222 ] ] } },
{ "type": "Feature", "properties": { "gid": 179613, "osm_id": "197877048", "code": 5122.0, "fclass": "residential", "name": "Columbia Circuit", "pixel_count": 152, "Var_line": 36.292133331298828, "Edge_contrast": 20.078786849975586, "ROI": 13603.833333333332, "Road_detected": -1, "ROI_norm": 0.25202412836938431, "Pred": 0 }, "geometry": { "type": "LineString", "coordinates": [ [ 144.947559145548098, -37.674388964515934 ], [ 144.947580345557867, -37.674445664514117 ], [ 144.947449845606712, -37.675105964518941 ], [ 144.94742754560653, -37.675140064520249 ], [ 144.947390845603508, -37.675170864522514 ], [ 144.947304545590754, -37.675191064528313 ], [ 144.946767445490536, -37.675121764565439 ], [ 144.946289645396405, -37.675014564598762 ] ] } },
{ "type": "Feature", "properties": { "gid": 179618, "osm_id": "197877058", "code": 5121.0, "fclass": "unclassified", "name": "Corporate Place", "pixel_count": 75, "Var_line": 40.515823364257812, "Edge_contrast": 18.170806884765625, "ROI": 2364.3333333333335, "Road_detected": -1, "ROI_norm": -0.75536944915789761, "Pred": 0 }, "geometry": { "type": "LineString", "coordinates": [ [ 144.949600446710889, -37.681883564329922 ], [ 144.950367846842909, -37.68187806427752 ], [ 144.95080414691796, -37.681874864247774 ] ] } },
{ "type": "Feature", "properties": { "gid": 179650, "osm_id": "220965785", "code": 5122.0, "fclass": "residential", "name": "Hatty Court", "pixel_count": 50, "Var_line": 65.589637756347656, "Edge_contrast": 42.555477142333984, "ROI": 3489.3333333333335, "Road_detected": -1, "ROI_norm": -0.65453598016744496, "Pred": 0 }, "geometry": { "type": "LineString", "coordinates": [ [ 144.971422549586492, -37.673616062890183 ], [ 144.971813249640888, -37.67349486286421 ] ] } },
{ "type": "Feature", "properties": { "gid": 179652, "osm_id": "220965781", "code": 5122.0, "fclass": "residential", "name": "Lara Way", "pixel_count": 50, "Var_line": 6.3434929847717285, "Edge_contrast": 10.684814453125, "ROI": 5497.3333333333339, "Road_detected": -1, "ROI_norm": -0.47455944173826375, "Pred": 0 }, "geometry": { "type": "LineString", "coordinates": [ [ 144.968558047765782, -37.661360863162294 ], [ 144.967801748120991, -37.665851263186042 ] ] } },
{ "type": "Feature", "properties": { "gid": 179657, "osm_id": "220965774", "code": 5122.0, "fclass": "residential", "name": "Lever Street", "pixel_count": 50, "Var_line": 1.433083176612854, "Edge_contrast": 0.0, "ROI": 370.83333333333337, "Road_detected": -1, "ROI_norm": -0.93404635620897969, "Pred": 0 }, "geometry": { "type": "LineString", "coordinates": [ [ 144.969901148168248, -37.662937563060652 ], [ 144.971205448410473, -37.663095162970521 ] ] } },
{ "type": "Feature", "properties": { "gid": 179704, "osm_id": "241581289", "code": 5122.0, "fclass": "residential", "name": "Cornell Close", "pixel_count": 71, "Var_line": 14.021322250366211, "Edge_contrast": 6.690762996673584, "ROI": 3169.666666666667, "Road_detected": -1, "ROI_norm": -0.68318762365243579, "Pred": 0 }, "geometry": { "type": "LineString", "coordinates": [ [ 144.939588244198774, -37.67464536505846 ], [ 144.939717944230608, -37.674732465049068 ], [ 144.939773144249187, -37.67481606504478 ] ] } },
{ "type": "Feature", "properties": { "gid": 183092, "osm_id": "170415919", "code": 5122.0, "fclass": "residential", "name": "Oliver Court", "pixel_count": 50, "Var_line": 21.586807250976562, "Edge_contrast": 51.207538604736328, "ROI": 9517.6666666666661, "Road_detected": -1, "ROI_norm": -0.11421796929564186, "Pred": 0 }, "geometry": { "type": "LineString", "coordinates": [ [ 144.960365549434499, -37.689864263544898 ], [ 144.960210949526243, -37.690959063548661 ] ] } },
{ "type": "Feature", "properties": { "gid": 183185, "osm_id": "293135653", "code": 5122.0, "fclass": "residential", "name": "The Gateway", "pixel_count": 75, "Var_line": 0.0, "Edge_contrast": 12.402642250061035, "ROI": 6738.166666666667, "Road_detected": -1, "ROI_norm": -0.36334386001472008, "Pred": 0 }, "geometry": { "type": "LineString", "coordinates": [ [ 144.952852048281414, -37.691210164049856 ], [ 144.952087548153827, -37.691252464101808 ], [ 144.95061834790809, -37.691328464201675 ] ] } },
{ "type": "Feature", "properties": { "gid": 224813, "osm_id": "220965776", "code": 5122.0, "fclass": "residential", "name": "Beech Court", "pixel_count": 50, "Var_line": 83.086402893066406, "Edge_contrast": 41.900138854980469, "ROI": 4778.0, "Road_detected": -1, "ROI_norm": -0.53903310872534427, "Pred": 0 }, "geometry": { "type": "LineString", "coordinates": [ [ 144.965682648903027, -37.67646226326486 ], [ 144.965324548863322, -37.676667063288072 ] ] } },
{ "type": "Feature", "properties": { "gid": 234197, "osm_id": "220965821", "code": 5122.0, "fclass": "residential", "name": "Humeside Drive", "pixel_count": 121, "Var_line": 19.418611526489258, "Edge_contrast": 20.645204544067383, "ROI": 1503.8333333333335, "Road_detected": -1, "ROI_norm": -0.83249584921681719, "Pred": 0 }, "geometry": { "type": "LineString", "coordinates": [ [ 144.963603748077134, -37.672147363433808 ], [ 144.963866547955121, -37.670599663425492 ], [ 144.963957247963037, -37.670527963419715 ], [ 144.965546248256402, -37.670703163310023 ], [ 144.966922248510457, -37.670854763214983 ] ] } },
{ "type": "Feature", "properties": { "gid": 242632, "osm_id": "197877067", "code": 5122.0, "fclass": "residential", "name": "Dunstan Parade", "pixel_count": 235, "Var_line": 85.404335021972656, "Edge_contrast": 20.365131378173828, "ROI": 32015.666666666664, "Road_detected": -1, "ROI_norm": 1.9022721510129832, "Pred": 0 }, "geometry": { "type": "LineString", "coordinates": [ [ 144.947859544942844, -37.66830836453321 ], [ 144.947901244959553, -37.668396364529841 ], [ 144.948193145082598, -37.669068364505776 ], [ 144.948400845179293, -37.66963156448805 ], [ 144.948566245250589, -37.670026464474304 ], [ 144.948768245341, -37.670540364457274 ], [ 144.948920245417725, -37.671007464444017 ], [ 144.949054645482221, -37.671389364432478 ], [ 144.949262645572844, -37.67189526441512 ], [ 144.94931334558629, -37.671938864411381 ] ] } },
{ "type": "Feature", "properties": { "gid": 255460, "osm_id": "569452560", "code": 5121.0, "fclass": "unclassified", "name": "Northcorp Boulevard", "pixel_count": 75, "Var_line": 86.977027893066406, "Edge_contrast": 1.7082812786102295, "ROI": 3687.333333333333, "Road_detected": -1, "ROI_norm": -0.63678928962512538, "Pred": 0 }, "geometry": { "type": "LineString", "coordinates": [ [ 144.9490480470769, -37.686151764341091 ], [ 144.949049047048305, -37.685885864342687 ], [ 144.949097447033779, -37.685673764340713 ] ] } },
{ "type": "Feature", "properties": { "gid": 255484, "osm_id": "767368473", "code": 5113.0, "fclass": "primary", "name": "Camp Road", "pixel_count": 190, "Var_line": 33.498298645019531, "Edge_contrast": 21.017574310302734, "ROI": 15755.0, "Road_detected": -1, "ROI_norm": 0.44483265937083216, "Pred": 0 }, "geometry": { "type": "LineString", "coordinates": [ [ 144.956110948652025, -37.689428663838299 ], [ 144.956021948635652, -37.689419763844455 ], [ 144.95549784853921, -37.689365663880615 ], [ 144.954703948392819, -37.689280663935349 ], [ 144.954558648366032, -37.689265063945371 ], [ 144.95347714816657, -37.689149564019985 ], [ 144.953290648132452, -37.689131764032872 ], [ 144.952716648028201, -37.689085764072317 ] ] } },
{ "type": "Feature", "properties": { "gid": 255486, "osm_id": "784409809", "code": 5113.0, "fclass": "primary", "name": "Camp Road", "pixel_count": 71, "Var_line": 88.773353576660156, "Edge_contrast": 18.050237655639648, "ROI": 5266.333333333333, "Road_detected": -1, "ROI_norm": -0.49526391403763675, "Pred": 0 }, "geometry": { "type": "LineString", "coordinates": [ [ 144.956664248753839, -37.689485963800166 ], [ 144.956539748730734, -37.689471363808785 ], [ 144.956323748690806, -37.689447563823698 ] ] } },
{ "type": "Feature", "properties": { "gid": 255504, "osm_id": "23229313", "code": 5113.0, "fclass": "primary", "name": "Camp Road", "pixel_count": 175, "Var_line": 57.400173187255859, "Edge_contrast": 20.854026794433594, "ROI": 21211.5, "Road_detected": -1, "ROI_norm": 0.93389739141208084, "Pred": 0 }, "geometry": { "type": "LineString", "coordinates": [ [ 144.952225947937251, -37.68902876410619 ], [ 144.951959447887873, -37.688997864124573 ], [ 144.951803447858964, -37.68897976413534 ], [ 144.951056847720878, -37.688896564186848 ], [ 144.950804647674289, -37.688868564204256 ], [ 144.949528947438637, -37.688728464292197 ], [ 144.948344447217039, -37.688572264374123 ] ] } },
{ "type": "Feature", "properties": { "gid": 260822, "osm_id": "4879893", "code": 5122.0, "fclass": "residential", "name": "Randor Street", "pixel_count": 144, "Var_line": 10.866451263427734, "Edge_contrast": 2.2356693744659424, "ROI": 19139.833333333336, "Road_detected": -1, "ROI_norm": 0.7482144255526253, "Pred": 0 }, "geometry": { "type": "LineString", "coordinates": [ [ 144.966800847447132, -37.661219063283284 ], [ 144.966045547773092, -37.665438663308649 ], [ 144.966056847788963, -37.665567163307081 ], [ 144.966124947810329, -37.665656063301874 ], [ 144.966937647958957, -37.665732663245826 ], [ 144.967801748120991, -37.665851263186042 ] ] } },
{ "type": "Feature", "properties": { "gid": 49, "osm_id": null, "code": null, "fclass": "residential", "name": null, "pixel_count": 316, "Var_line": 40.558086395263672, "Edge_contrast": 22.349035263061523, "ROI": 16469.666666666668, "Road_detected": -1, "ROI_norm": 0.50888805419024874, "Pred": 0 }, "geometry": { "type": "LineString", "coordinates": [ [ 144.949935758594791, -37.660926489346167 ], [ 144.949503643635126, -37.658463104823646 ], [ 144.949410296594777, -37.65810259649038 ], [ 144.94922863306391, -37.657935159011764 ], [ 144.948883118476886, -37.657877794718708 ], [ 144.948775173835742, -37.65781767042548 ], [ 144.948667185708416, -37.657821915479239 ], [ 144.948472771405932, -37.657881910145051 ], [ 144.948256845774125, -37.657816017140959 ], [ 144.947868126591544, -37.65777579643013 ], [ 144.947461539389934, -37.657549610376421 ], [ 144.94730691449351, -37.657329255793101 ], [ 144.947289010717611, -37.657194787227077 ] ] } },
{ "type": "Feature", "properties": { "gid": 273, "osm_id": null, "code": null, "fclass": "residential", "name": null, "pixel_count": 299, "Var_line": 37.111568450927734, "Edge_contrast": 5.0541658401489258, "ROI": 10174.5, "Road_detected": -1, "ROI_norm": -0.055346161696919922, "Pred": 0 }, "geometry": { "type": "LineString", "coordinates": [ [ 144.958243728484803, -37.687089265351105 ], [ 144.958186065068134, -37.687177931076953 ], [ 144.958261627239665, -37.687280947431375 ], [ 144.958221941408397, -37.68741825359573 ], [ 144.958297484945547, -37.687555599908542 ], [ 144.958279404608021, -37.687692913596941 ], [ 144.958322573201656, -37.687770171111168 ], [ 144.958390975184614, -37.687798803217397 ], [ 144.95860702965004, -37.687801738898933 ], [ 144.958779841748509, -37.68786187597459 ], [ 144.958931090414239, -37.68784476292582 ], [ 144.959033686883686, -37.68790058429272 ], [ 144.959165151256911, -37.687844842939612 ] ] } },
{ "type": "Feature", "properties": { "gid": 337, "osm_id": null, "code": null, "fclass": "residential", "name": null, "pixel_count": 83, "Var_line": 8.2159633636474609, "Edge_contrast": 15.515938758850098, "ROI": 2895.333333333333, "Road_detected": -1, "ROI_norm": -0.70777605179440406, "Pred": 0 }, "geometry": { "type": "LineString", "coordinates": [ [ 144.951955226800578, -37.655159813237319 ], [ 144.951966128431451, -37.654996748140903 ], [ 144.952011184081272, -37.654896635825231 ], [ 144.952070595399078, -37.65486232920356 ] ] } },
{ "type": "Feature", "properties": { "gid": 596, "osm_id": null, "code": null, "fclass": "motorway", "name": null, "pixel_count": 125, "Var_line": 25.393636703491211, "Edge_contrast": 43.738452911376953, "ROI": 14886.333333333332, "Road_detected": -1, "ROI_norm": 0.36697428301850032, "Pred": 0 }, "geometry": { "type": "LineString", "coordinates": [ [ 144.96034424288581, -37.691690195443883 ], [ 144.960160633268941, -37.691600018424772 ], [ 144.959512433371515, -37.69159837070012 ], [ 144.959339567564285, -37.691621198783402 ], [ 144.958846239601286, -37.691575257073303 ] ] } },
{ "type": "Feature", "properties": { "gid": 614, "osm_id": null, "code": null, "fclass": "trunk", "name": null, "pixel_count": 50, "Var_line": 107.05931854248047, "Edge_contrast": 42.428955078125, "ROI": 4093.166666666667, "Road_detected": -1, "ROI_norm": -0.6004145493300509, "Pred": 0 }, "geometry": { "type": "LineString", "coordinates": [ [ 144.948174252787453, -37.668043554633947 ], [ 144.948260527451623, -37.668226686599574 ] ] } },
{ "type": "Feature", "properties": { "gid": 656, "osm_id": null, "code": null, "fclass": "trunk", "name": null, "pixel_count": 75, "Var_line": 51.118904113769531, "Edge_contrast": 36.709156036376953, "ROI": 3987.833333333333, "Road_detected": -1, "ROI_norm": -0.60985554968589784, "Pred": 0 }, "geometry": { "type": "LineString", "coordinates": [ [ 144.935368362726933, -37.656227695338835 ], [ 144.935242580897608, -37.655995897146497 ], [ 144.935109733468096, -37.655609608125175 ] ] } },
{ "type": "Feature", "properties": { "gid": 781, "osm_id": null, "code": null, "fclass": "trunk", "name": null, "pixel_count": 58, "Var_line": 101.86331176757812, "Edge_contrast": 12.148881912231445, "ROI": 2907.333333333333, "Road_detected": -1, "ROI_norm": -0.70670049479183916, "Pred": 0 }, "geometry": { "type": "LineString", "coordinates": [ [ 144.963789893313162, -37.655369959370269 ], [ 144.963806125458547, -37.655297012157362 ], [ 144.963876333315369, -37.655255550779081 ] ] } },
{ "type": "Feature", "properties": { "gid": 919, "osm_id": null, "code": null, "fclass": "primary", "name": null, "pixel_count": 42, "Var_line": 0.0, "Edge_contrast": 0.0, "ROI": 1599.0, "Road_detected": -1, "ROI_norm": -0.82396608465481003, "Pred": 0 }, "geometry": { "type": "LineString", "coordinates": [ [ 144.966320554816576, -37.662808942921608 ], [ 144.966349383305186, -37.662740290396322 ] ] } },
{ "type": "Feature", "properties": { "gid": 955, "osm_id": null, "code": null, "fclass": "primary", "name": null, "pixel_count": 67, "Var_line": 0.0, "Edge_contrast": 8.3043336868286133, "ROI": 1044.1666666666665, "Road_detected": -1, "ROI_norm": -0.87369565773173108, "Pred": 0 }, "geometry": { "type": "LineString", "coordinates": [ [ 144.937855940433963, -37.677696872003317 ], [ 144.93778042267445, -37.677585259878654 ], [ 144.937798483705876, -37.677513748153984 ] ] } },
{ "type": "Feature", "properties": { "gid": 1036, "osm_id": null, "code": null, "fclass": "primary", "name": null, "pixel_count": 50, "Var_line": 0.0, "Edge_contrast": 0.0, "ROI": 0.0, "Road_detected": -1, "ROI_norm": -0.96728405524657335, "Pred": 0 }, "geometry": { "type": "LineString", "coordinates": [ [ 144.96513563164109, -37.67194045194649 ], [ 144.964934021600669, -37.67194039308864 ] ] } },
{ "type": "Feature", "properties": { "gid": 1077, "osm_id": null, "code": null, "fclass": "primary", "name": null, "pixel_count": 50, "Var_line": 84.623046875, "Edge_contrast": 39.970661163330078, "ROI": 4615.5, "Road_detected": -1, "ROI_norm": -0.55359794313507638, "Pred": 0 }, "geometry": { "type": "LineString", "coordinates": [ [ 144.969070670423832, -37.698261220109082 ], [ 144.969185841665222, -37.698444342341425 ] ] } },
{ "type": "Feature", "properties": { "gid": 1113, "osm_id": null, "code": null, "fclass": "primary", "name": null, "pixel_count": 100, "Var_line": 64.737144470214844, "Edge_contrast": 35.864093780517578, "ROI": 7943.333333333333, "Road_detected": -1, "ROI_norm": -0.25532507271546634, "Pred": 0 }, "geometry": { "type": "LineString", "coordinates": [ [ 144.939284055727796, -37.692734157940187 ], [ 144.939121951351439, -37.692798444299889 ], [ 144.93840885652358, -37.692875322163665 ], [ 144.938217941675958, -37.692939592482169 ] ] } },
{ "type": "Feature", "properties": { "gid": 1152, "osm_id": null, "code": null, "fclass": "primary", "name": null, "pixel_count": 67, "Var_line": 90.589309692382812, "Edge_contrast": 33.628616333007812, "ROI": 4165.1666666666661, "Road_detected": -1, "ROI_norm": -0.59396120731466207, "Pred": 0 }, "geometry": { "type": "LineString", "coordinates": [ [ 144.963310466194656, -37.693956915793699 ], [ 144.963342914667493, -37.69387968342194 ], [ 144.963512179065447, -37.693865430962184 ] ] } },
{ "type": "Feature", "properties": { "gid": 1189, "osm_id": null, "code": null, "fclass": "tertiary", "name": null, "pixel_count": 30, "Var_line": 121.95051574707031, "Edge_contrast": 58.308395385742188, "ROI": 2714.0, "Road_detected": -1, "ROI_norm": -0.72402891316649476, "Pred": 0 }, "geometry": { "type": "LineString", "coordinates": [ [ 144.962444535581227, -37.697252317032614 ], [ 144.962415724509924, -37.697252307998106 ] ] } },
{ "type": "Feature", "properties": { "gid": 1205, "osm_id": null, "code": null, "fclass": "tertiary", "name": null, "pixel_count": 75, "Var_line": 16.540254592895508, "Edge_contrast": 8.3493442535400391, "ROI": 249.33333333333326, "Road_detected": -1, "ROI_norm": -0.94493637085994853, "Pred": 0 }, "geometry": { "type": "LineString", "coordinates": [ [ 144.940562060591589, -37.679506298229967 ], [ 144.940717011526715, -37.679343307018073 ], [ 144.940763941615188, -37.679185983909157 ] ] } },
{ "type": "Feature", "properties": { "gid": 1331, "osm_id": null, "code": null, "fclass": "tertiary", "name": null, "pixel_count": 38, "Var_line": 42.205482482910156, "Edge_contrast": 40.704685211181641, "ROI": 2062.1666666666661, "Road_detected": -1, "ROI_norm": -0.7824525720141482, "Pred": 0 }, "geometry": { "type": "LineString", "coordinates": [ [ 144.972614338738396, -37.698651154162228 ], [ 144.972671970216993, -37.698628280754555 ] ] } },
{ "type": "Feature", "properties": { "gid": 1379, "osm_id": null, "code": null, "fclass": "tertiary", "name": null, "pixel_count": 50, "Var_line": 0.0, "Edge_contrast": 0.0, "ROI": 0.0, "Road_detected": -1, "ROI_norm": -0.96728405524657335, "Pred": 0 }, "geometry": { "type": "LineString", "coordinates": [ [ 144.96513563164109, -37.67194045194649 ], [ 144.964934021600669, -37.67194039308864 ] ] } },
{ "type": "Feature", "properties": { "gid": 1391, "osm_id": null, "code": null, "fclass": "tertiary", "name": null, "pixel_count": 121, "Var_line": 67.519309997558594, "Edge_contrast": 27.784036636352539, "ROI": 7922.0, "Road_detected": -1, "ROI_norm": -0.25723717405335939, "Pred": 0 }, "geometry": { "type": "LineString", "coordinates": [ [ 144.939341711124172, -37.692688413901649 ], [ 144.939244424495087, -37.692757024470531 ], [ 144.939114752462274, -37.692794149399958 ], [ 144.938466475324788, -37.692875351771896 ], [ 144.938217941675958, -37.692939592482169 ] ] } },
{ "type": "Feature", "properties": { "gid": 1706, "osm_id": null, "code": null, "fclass": "unclassified", "name": null, "pixel_count": 125, "Var_line": 58.758651733398438, "Edge_contrast": 41.630226135253906, "ROI": 7675.6666666666652, "Road_detected": -1, "ROI_norm": -0.27931596918934304, "Pred": 0 }, "geometry": { "type": "LineString", "coordinates": [ [ 144.936116438491894, -37.691061786740448 ], [ 144.93556547923464, -37.691052909184457 ], [ 144.93526305759255, -37.690971212498376 ], [ 144.934809495996802, -37.690767847625075 ], [ 144.934676279701876, -37.690740597174553 ] ] } },
{ "type": "Feature", "properties": { "gid": 1897, "osm_id": null, "code": null, "fclass": "unclassified", "name": null, "pixel_count": 144, "Var_line": 82.374435424804688, "Edge_contrast": 6.6210455894470215, "ROI": 14701.166666666668, "Road_detected": -1, "ROI_norm": 0.35037784093725716, "Pred": 0 }, "geometry": { "type": "LineString", "coordinates": [ [ 144.956119960187237, -37.673356469363178 ], [ 144.956253230504416, -37.673250666721856 ], [ 144.956262310480469, -37.673113349305915 ], [ 144.956052314823182, -37.672049036521685 ], [ 144.956001947174258, -37.671988940182821 ], [ 144.955861583483966, -37.671914506439187 ] ] } },
{ "type": "Feature", "properties": { "gid": 1992, "osm_id": null, "code": null, "fclass": "unclassified", "name": null, "pixel_count": 150, "Var_line": 48.696315765380859, "Edge_contrast": 4.9276776313781738, "ROI": 13107.166666666666, "Road_detected": -1, "ROI_norm": 0.20750801909656233, "Pred": 0 }, "geometry": { "type": "LineString", "coordinates": [ [ 144.959136825874452, -37.686952253313144 ], [ 144.960076622111131, -37.68702266062926 ], [ 144.96026023855157, -37.687078507937173 ], [ 144.960315981966716, -37.687212985590293 ], [ 144.960405582399943, -37.688019770138439 ], [ 144.960461332747457, -37.68814280434826 ] ] } },
{ "type": "Feature", "properties": { "gid": 2196, "osm_id": null, "code": null, "fclass": "unclassified", "name": null, "pixel_count": 117, "Var_line": 0.0, "Edge_contrast": 0.0, "ROI": 717.33333333333314, "Road_detected": -1, "ROI_norm": -0.9029896477599203, "Pred": 0 }, "geometry": { "type": "LineString", "coordinates": [ [ 144.939869465767742, -37.681130910341857 ], [ 144.940014463431254, -37.679903682265497 ], [ 144.940111739628577, -37.679826488215859 ], [ 144.940219774332718, -37.679803655448382 ], [ 144.940878639763127, -37.679849755927968 ] ] } },
{ "type": "Feature", "properties": { "gid": 1, "osm_id": null, "code": null, "fclass": "residential", "name": null, "pixel_count": 80, "Var_line": 43.032737731933594, "Edge_contrast": 29.748525619506836, "ROI": 6515.333333333333, "Road_detected": -1, "ROI_norm": -0.38331635602068093, "Pred": 0 }, "geometry": { "type": "LineString", "coordinates": [ [ 144.974489416331807, -37.691762702494152 ], [ 144.974419202177444, -37.691739800895327 ], [ 144.974408418651961, -37.691681151610275 ], [ 144.974547088197426, -37.691602508369563 ] ] } },
{ "type": "Feature", "properties": { "gid": 3, "osm_id": null, "code": null, "fclass": "residential", "name": null, "pixel_count": 71, "Var_line": 10.303586006164551, "Edge_contrast": 24.589786529541016, "ROI": 3543.0, "Road_detected": -1, "ROI_norm": -0.64972585023930784, "Pred": 0 }, "geometry": { "type": "LineString", "coordinates": [ [ 144.950227268133006, -37.655548185446506 ], [ 144.950317303819901, -37.655470979415831 ], [ 144.950486484773592, -37.655456745154389 ] ] } },
{ "type": "Feature", "properties": { "gid": 5, "osm_id": null, "code": null, "fclass": "residential", "name": null, "pixel_count": 97, "Var_line": 23.045232772827148, "Edge_contrast": 8.7332687377929688, "ROI": 1327.1666666666667, "Road_detected": -1, "ROI_norm": -0.84833043842124389, "Pred": 0 }, "geometry": { "type": "LineString", "coordinates": [ [ 144.950227268133006, -37.655548185446506 ], [ 144.95032442375026, -37.655591138802414 ], [ 144.950432409538621, -37.655585461817331 ], [ 144.950486417398935, -37.655559736355272 ], [ 144.950515264970051, -37.655479643991676 ] ] } },
{ "type": "Feature", "properties": { "gid": 19, "osm_id": null, "code": null, "fclass": "residential", "name": null, "pixel_count": 50, "Var_line": 83.067176818847656, "Edge_contrast": 36.413200378417969, "ROI": 7635.5, "Road_detected": -1, "ROI_norm": -0.28291609748959462, "Pred": 0 }, "geometry": { "type": "LineString", "coordinates": [ [ 144.968180095398395, -37.692127378848461 ], [ 144.967892043051563, -37.69203575549664 ] ] } },
{ "type": "Feature", "properties": { "gid": 76, "osm_id": null, "code": null, "fclass": "residential", "name": null, "pixel_count": 73, "Var_line": 85.804618835449219, "Edge_contrast": 34.387779235839844, "ROI": 4171.1666666666661, "Road_detected": -1, "ROI_norm": -0.59342342881337962, "Pred": 0 }, "geometry": { "type": "LineString", "coordinates": [ [ 144.959280319621598, -37.687959315450136 ], [ 144.959229827814141, -37.688105200736366 ], [ 144.959309004057332, -37.688188191796549 ] ] } },
{ "type": "Feature", "properties": { "gid": 92, "osm_id": null, "code": null, "fclass": "residential", "name": null, "pixel_count": 138, "Var_line": 102.43492126464844, "Edge_contrast": 14.6865234375, "ROI": 7817.0, "Road_detected": -1, "ROI_norm": -0.26664829782580163, "Pred": 0 }, "geometry": { "type": "LineString", "coordinates": [ [ 144.959136813515499, -37.686975139979275 ], [ 144.958974816693313, -37.686894981265787 ], [ 144.958845170617451, -37.686920684300034 ], [ 144.958701163045419, -37.686869139731776 ], [ 144.958636325135046, -37.686909169034301 ], [ 144.958618259650308, -37.687020735309616 ] ] } },
{ "type": "Feature", "properties": { "gid": 114, "osm_id": null, "code": null, "fclass": "residential", "name": null, "pixel_count": 74, "Var_line": 12.030508995056152, "Edge_contrast": 36.030357360839844, "ROI": 3598.833333333333, "Road_detected": -1, "ROI_norm": -0.64472152251904102, "Pred": 0 }, "geometry": { "type": "LineString", "coordinates": [ [ 144.951465564242966, -37.655388485181682 ], [ 144.951577207617277, -37.655291260882251 ], [ 144.951782398199668, -37.65525129153648 ] ] } },
{ "type": "Feature", "properties": { "gid": 281, "osm_id": null, "code": null, "fclass": "residential", "name": null, "pixel_count": 100, "Var_line": 8.1576337814331055, "Edge_contrast": 6.0421428680419922, "ROI": 4557.5, "Road_detected": -1, "ROI_norm": -0.5587964686474729, "Pred": 0 }, "geometry": { "type": "LineString", "coordinates": [ [ 144.936606685190782, -37.690466994533921 ], [ 144.936530854112021, -37.690715846604846 ], [ 144.93636863261068, -37.690921740303182 ], [ 144.936174133149791, -37.690970270943211 ] ] } },
{ "type": "Feature", "properties": { "gid": 532, "osm_id": null, "code": null, "fclass": "residential", "name": null, "pixel_count": 75, "Var_line": 39.256179809570312, "Edge_contrast": 22.069208145141602, "ROI": 7328.0, "Road_detected": -1, "ROI_norm": -0.31047724568031837, "Pred": 0 }, "geometry": { "type": "LineString", "coordinates": [ [ 144.946144395455406, -37.687519283571973 ], [ 144.945442280985134, -37.687428849615706 ], [ 144.945280224247085, -37.687450231951154 ] ] } },
{ "type": "Feature", "properties": { "gid": 611, "osm_id": null, "code": null, "fclass": "motorway", "name": null, "pixel_count": 50, "Var_line": 94.089561462402344, "Edge_contrast": 23.35693359375, "ROI": 6209.3333333333339, "Road_detected": -1, "ROI_norm": -0.41074305958608393, "Pred": 0 }, "geometry": { "type": "LineString", "coordinates": [ [ 144.958183824461742, -37.691231728223542 ], [ 144.957953176153922, -37.691552060331908 ] ] } },
{ "type": "Feature", "properties": { "gid": 635, "osm_id": null, "code": null, "fclass": "trunk", "name": null, "pixel_count": 50, "Var_line": 139.53263854980469, "Edge_contrast": 39.329441070556641, "ROI": 3939.6666666666661, "Road_detected": -1, "ROI_norm": -0.6141727159878595, "Pred": 0 }, "geometry": { "type": "LineString", "coordinates": [ [ 144.948231664809185, -37.668318221454307 ], [ 144.948289139802256, -37.668501340928145 ] ] } },
{ "type": "Feature", "properties": { "gid": 644, "osm_id": null, "code": null, "fclass": "trunk", "name": null, "pixel_count": 50, "Var_line": 124.99043273925781, "Edge_contrast": 44.087184906005859, "ROI": 2459.1666666666665, "Road_detected": -1, "ROI_norm": -0.74686956117929515, "Pred": 0 }, "geometry": { "type": "LineString", "coordinates": [ [ 144.969453481731875, -37.677800644904472 ], [ 144.969223005862204, -37.677915019642157 ] ] } },
{ "type": "Feature", "properties": { "gid": 651, "osm_id": null, "code": null, "fclass": "trunk", "name": null, "pixel_count": 67, "Var_line": 144.75685119628906, "Edge_contrast": 97.082038879394531, "ROI": 4160.6666666666661, "Road_detected": -1, "ROI_norm": -0.59436454119062387, "Pred": 0 }, "geometry": { "type": "LineString", "coordinates": [ [ 144.934301211559699, -37.691381217919364 ], [ 144.934144487585456, -37.691468387162189 ], [ 144.934128219078673, -37.691541329362614 ] ] } },
{ "type": "Feature", "properties": { "gid": 686, "osm_id": null, "code": null, "fclass": "trunk", "name": null, "pixel_count": 40, "Var_line": 148.24940490722656, "Edge_contrast": 65.524566650390625, "ROI": 5620.1666666666661, "Road_detected": -1, "ROI_norm": -0.46354992075367663, "Pred": 0 }, "geometry": { "type": "LineString", "coordinates": [ [ 144.969879204737452, -37.693706994658854 ], [ 144.969879177399406, -37.693775654481236 ] ] } },
{ "type": "Feature", "properties": { "gid": 687, "osm_id": null, "code": null, "fclass": "trunk", "name": null, "pixel_count": 50, "Var_line": 116.61297607421875, "Edge_contrast": 12.141263008117676, "ROI": 10190.5, "Road_detected": -1, "ROI_norm": -0.053912085693500152, "Pred": 0 }, "geometry": { "type": "LineString", "coordinates": [ [ 144.963433781229043, -37.677249676445904 ], [ 144.96300209870077, -37.676494280923109 ] ] } },
{ "type": "Feature", "properties": { "gid": 691, "osm_id": null, "code": null, "fclass": "trunk", "name": null, "pixel_count": 75, "Var_line": 21.106178283691406, "Edge_contrast": 11.629033088684082, "ROI": 4149.166666666667, "Road_detected": -1, "ROI_norm": -0.59539528331808178, "Pred": 0 }, "geometry": { "type": "LineString", "coordinates": [ [ 144.94157325122427, -37.675570274190612 ], [ 144.941656171809711, -37.67542441144775 ], [ 144.941688691757122, -37.675272802419904 ] ] } },
{ "type": "Feature", "properties": { "gid": 702, "osm_id": null, "code": null, "fclass": "trunk", "name": null, "pixel_count": 34, "Var_line": 54.117755889892578, "Edge_contrast": 20.635576248168945, "ROI": 4762.0, "Road_detected": -1, "ROI_norm": -0.54046718472876409, "Pred": 0 }, "geometry": { "type": "LineString", "coordinates": [ [ 144.941633451964293, -37.672205946218121 ], [ 144.941604668094129, -37.672183045388564 ] ] } },
{ "type": "Feature", "properties": { "gid": 703, "osm_id": null, "code": null, "fclass": "trunk", "name": null, "pixel_count": 30, "Var_line": 43.937530517578125, "Edge_contrast": 26.166610717773438, "ROI": 4611.9999999999991, "Road_detected": -1, "ROI_norm": -0.55391164726082454, "Pred": 0 }, "geometry": { "type": "LineString", "coordinates": [ [ 144.941633451964293, -37.672205946218121 ], [ 144.941604650432367, -37.672205932178969 ] ] } },
{ "type": "Feature", "properties": { "gid": 739, "osm_id": null, "code": null, "fclass": "trunk", "name": null, "pixel_count": 30, "Var_line": 60.798519134521484, "Edge_contrast": 2.0961365699768066, "ROI": 5607.1666666666652, "Road_detected": -1, "ROI_norm": -0.46471510750645528, "Pred": 0 }, "geometry": { "type": "LineString", "coordinates": [ [ 144.941604685755891, -37.672160158597919 ], [ 144.941604668094129, -37.672183045388564 ] ] } },
{ "type": "Feature", "properties": { "gid": 775, "osm_id": null, "code": null, "fclass": "trunk", "name": null, "pixel_count": 50, "Var_line": 129.51498413085938, "Edge_contrast": 65.384307861328125, "ROI": 3640.0000000000005, "Road_detected": -1, "ROI_norm": -0.64103176446857546, "Pred": 0 }, "geometry": { "type": "LineString", "coordinates": [ [ 144.935437998551862, -37.675864652254944 ], [ 144.935207535970306, -37.675910301344537 ] ] } },
{ "type": "Feature", "properties": { "gid": 776, "osm_id": null, "code": null, "fclass": "trunk", "name": null, "pixel_count": 75, "Var_line": 0.0, "Edge_contrast": 12.374716758728027, "ROI": 5525.1666666666661, "Road_detected": -1, "ROI_norm": -0.47206474702398155, "Pred": 0 }, "geometry": { "type": "LineString", "coordinates": [ [ 144.964961487762793, -37.674824136176454 ], [ 144.964876780730407, -37.675038674861547 ], [ 144.964874888934645, -37.675236072707193 ] ] } },
{ "type": "Feature", "properties": { "gid": 777, "osm_id": null, "code": null, "fclass": "trunk", "name": null, "pixel_count": 50, "Var_line": 79.462249755859375, "Edge_contrast": 27.031387329101562, "ROI": 3867.1666666666661, "Road_detected": -1, "ROI_norm": -0.62067087287835532, "Pred": 0 }, "geometry": { "type": "LineString", "coordinates": [ [ 144.940422364103398, -37.674013406419938 ], [ 144.940306992732644, -37.67421933002062 ] ] } },
{ "type": "Feature", "properties": { "gid": 824, "osm_id": null, "code": null, "fclass": "trunk", "name": null, "pixel_count": 50, "Var_line": 147.15362548828125, "Edge_contrast": 98.72906494140625, "ROI": 2809.3333333333335, "Road_detected": -1, "ROI_norm": -0.7154842103127852, "Pred": 0 }, "geometry": { "type": "LineString", "coordinates": [ [ 144.933585411098449, -37.686345758785492 ], [ 144.933527616296118, -37.686551706827125 ] ] } },
{ "type": "Feature", "properties": { "gid": 827, "osm_id": null, "code": null, "fclass": "trunk", "name": null, "pixel_count": 67, "Var_line": 132.36146545410156, "Edge_contrast": 63.584556579589844, "ROI": 5298.0, "Road_detected": -1, "ROI_norm": -0.49242563861420174, "Pred": 0 }, "geometry": { "type": "LineString", "coordinates": [ [ 144.960198897695449, -37.694161901957088 ], [ 144.960231268219587, -37.694239155003984 ], [ 144.960429316989803, -37.694276411316437 ] ] } },
{ "type": "Feature", "properties": { "gid": 869, "osm_id": null, "code": null, "fclass": "primary", "name": null, "pixel_count": 50, "Var_line": 51.871799468994141, "Edge_contrast": 33.605648040771484, "ROI": 2073.1666666666661, "Road_detected": -1, "ROI_norm": -0.78146664476179706, "Pred": 0 }, "geometry": { "type": "LineString", "coordinates": [ [ 144.967400602145261, -37.695949232703171 ], [ 144.967458154378477, -37.696109454479014 ] ] } },
{ "type": "Feature", "properties": { "gid": 885, "osm_id": null, "code": null, "fclass": "primary", "name": null, "pixel_count": 50, "Var_line": 151.56919860839844, "Edge_contrast": 23.891157150268555, "ROI": 5719.5, "Road_detected": -1, "ROI_norm": -0.45464669889911219, "Pred": 0 }, "geometry": { "type": "LineString", "coordinates": [ [ 144.957436341440513, -37.688485067622722 ], [ 144.957349853732865, -37.688599470142783 ] ] } },
{ "type": "Feature", "properties": { "gid": 891, "osm_id": null, "code": null, "fclass": "primary", "name": null, "pixel_count": 34, "Var_line": 104.60962677001953, "Edge_contrast": 8.7440872192382812, "ROI": 2345.3333333333335, "Road_detected": -1, "ROI_norm": -0.75707241441195861, "Pred": 0 }, "geometry": { "type": "LineString", "coordinates": [ [ 144.9322596422152, -37.654898534414698 ], [ 144.93223086776328, -37.654875631185192 ] ] } },
{ "type": "Feature", "properties": { "gid": 892, "osm_id": null, "code": null, "fclass": "primary", "name": null, "pixel_count": 30, "Var_line": 102.99739074707031, "Edge_contrast": 10.508967399597168, "ROI": 1863.9999999999998, "Road_detected": -1, "ROI_norm": -0.80021420084817008, "Pred": 0 }, "geometry": { "type": "LineString", "coordinates": [ [ 144.9322596422152, -37.654898534414698 ], [ 144.932259662698726, -37.654875647478626 ] ] } },
{ "type": "Feature", "properties": { "gid": 894, "osm_id": null, "code": null, "fclass": "primary", "name": null, "pixel_count": 30, "Var_line": 118.79794311523438, "Edge_contrast": 10.476103782653809, "ROI": 1651.3333333333333, "Road_detected": -1, "ROI_norm": -0.81927546106029114, "Pred": 0 }, "geometry": { "type": "LineString", "coordinates": [ [ 144.9322596422152, -37.654898534414698 ], [ 144.932259621731703, -37.654921421350586 ] ] } },
{ "type": "Feature", "properties": { "gid": 907, "osm_id": null, "code": null, "fclass": "primary", "name": null, "pixel_count": 50, "Var_line": 0.0, "Edge_contrast": 12.146767616271973, "ROI": 3008.1666666666665, "Road_detected": -1, "ROI_norm": -0.69766282831195425, "Pred": 0 }, "geometry": { "type": "LineString", "coordinates": [ [ 144.941486842786816, -37.675570232008937 ], [ 144.941486754295767, -37.675684665813776 ] ] } },
{ "type": "Feature", "properties": { "gid": 908, "osm_id": null, "code": null, "fclass": "primary", "name": null, "pixel_count": 34, "Var_line": 136.61993408203125, "Edge_contrast": 89.446006774902344, "ROI": 4281.9999999999991, "Road_detected": -1, "ROI_norm": -0.58348946483135733, "Pred": 0 }, "geometry": { "type": "LineString", "coordinates": [ [ 144.946041881642344, -37.669690464427525 ], [ 144.946070665907172, -37.669713364212058 ] ] } },
{ "type": "Feature", "properties": { "gid": 913, "osm_id": null, "code": null, "fclass": "primary", "name": null, "pixel_count": 83, "Var_line": 138.63198852539062, "Edge_contrast": 86.579765319824219, "ROI": 3824.3333333333335, "Road_detected": -1, "ROI_norm": -0.62451001384584348, "Pred": 0 }, "geometry": { "type": "LineString", "coordinates": [ [ 144.959952172989915, -37.670428301733111 ], [ 144.960043982523047, -37.670415458565756 ], [ 144.960092617909311, -37.670351105622046 ], [ 144.96006752135122, -37.670153698491774 ] ] } },
{ "type": "Feature", "properties": { "gid": 928, "osm_id": null, "code": null, "fclass": "primary", "name": null, "pixel_count": 71, "Var_line": 113.03982543945312, "Edge_contrast": 37.260417938232422, "ROI": 3984.333333333333, "Road_detected": -1, "ROI_norm": -0.61016925381164588, "Pred": 0 }, "geometry": { "type": "LineString", "coordinates": [ [ 144.947238787937977, -37.687931730535993 ], [ 144.947357630900513, -37.687914617822003 ], [ 144.947498135028269, -37.687817411164012 ] ] } },
{ "type": "Feature", "properties": { "gid": 929, "osm_id": null, "code": null, "fclass": "primary", "name": null, "pixel_count": 50, "Var_line": 93.530738830566406, "Edge_contrast": 24.352285385131836, "ROI": 1476.6666666666665, "Road_detected": -1, "ROI_norm": -0.83493079076429044, "Pred": 0 }, "geometry": { "type": "LineString", "coordinates": [ [ 144.946743115153055, -37.696376676189665 ], [ 144.946685413030735, -37.696491083469759 ] ] } },
{ "type": "Feature", "properties": { "gid": 933, "osm_id": null, "code": null, "fclass": "primary", "name": null, "pixel_count": 50, "Var_line": 107.5992431640625, "Edge_contrast": 9.7566299438476562, "ROI": 2717.8333333333335, "Road_detected": -1, "ROI_norm": -0.72368533245734201, "Pred": 0 }, "geometry": { "type": "LineString", "coordinates": [ [ 144.932227283322703, -37.691036763075211 ], [ 144.932111904760291, -37.691196904209036 ] ] } },
{ "type": "Feature", "properties": { "gid": 946, "osm_id": null, "code": null, "fclass": "primary", "name": null, "pixel_count": 40, "Var_line": 108.5889892578125, "Edge_contrast": 20.875091552734375, "ROI": 3787.833333333333, "Road_detected": -1, "ROI_norm": -0.62778149972864494, "Pred": 0 }, "geometry": { "type": "LineString", "coordinates": [ [ 144.931780770207098, -37.675038701260249 ], [ 144.931867178031723, -37.675038750444138 ] ] } },
{ "type": "Feature", "properties": { "gid": 951, "osm_id": null, "code": null, "fclass": "primary", "name": null, "pixel_count": 100, "Var_line": 86.500709533691406, "Edge_contrast": 41.024372100830078, "ROI": 4595.5, "Road_detected": -1, "ROI_norm": -0.55539053813935102, "Pred": 0 }, "geometry": { "type": "LineString", "coordinates": [ [ 144.967297796525628, -37.667180603562493 ], [ 144.96724728203435, -37.667446649247573 ], [ 144.967268770463932, -37.667704132022344 ], [ 144.967124740281946, -37.667775613928718 ] ] } },
{ "type": "Feature", "properties": { "gid": 963, "osm_id": null, "code": null, "fclass": "primary", "name": null, "pixel_count": 30, "Var_line": 130.398681640625, "Edge_contrast": 63.853145599365234, "ROI": 4378.6666666666661, "Road_detected": -1, "ROI_norm": -0.57482525564402953, "Pred": 0 }, "geometry": { "type": "LineString", "coordinates": [ [ 144.93189598063995, -37.675038766824912 ], [ 144.931896001238897, -37.675015880060307 ] ] } },
{ "type": "Feature", "properties": { "gid": 965, "osm_id": null, "code": null, "fclass": "primary", "name": null, "pixel_count": 44, "Var_line": 116.15345001220703, "Edge_contrast": 14.626944541931152, "ROI": 3637.6666666666661, "Road_detected": -1, "ROI_norm": -0.64124090055240757, "Pred": 0 }, "geometry": { "type": "LineString", "coordinates": [ [ 144.93189598063995, -37.675038766824912 ], [ 144.931982347319092, -37.675084589454272 ] ] } },
{ "type": "Feature", "properties": { "gid": 974, "osm_id": null, "code": null, "fclass": "primary", "name": null, "pixel_count": 50, "Var_line": 20.21904182434082, "Edge_contrast": 26.866922378540039, "ROI": 2783.333333333333, "Road_detected": -1, "ROI_norm": -0.7178145838183424, "Pred": 0 }, "geometry": { "type": "LineString", "coordinates": [ [ 144.96393349815699, -37.656148158540148 ], [ 144.963818480570609, -37.65580481982694 ] ] } },
{ "type": "Feature", "properties": { "gid": 986, "osm_id": null, "code": null, "fclass": "primary", "name": null, "pixel_count": 50, "Var_line": 72.26123046875, "Edge_contrast": 24.397039413452148, "ROI": 5294.833333333333, "Road_detected": -1, "ROI_norm": -0.49270946615654526, "Pred": 0 }, "geometry": { "type": "LineString", "coordinates": [ [ 144.959912981777762, -37.690042214147923 ], [ 144.960114652120495, -37.690019394818357 ] ] } },
{ "type": "Feature", "properties": { "gid": 1003, "osm_id": null, "code": null, "fclass": "primary", "name": null, "pixel_count": 75, "Var_line": 83.512939453125, "Edge_contrast": 24.23811149597168, "ROI": 4448.666666666667, "Road_detected": -1, "ROI_norm": -0.56855117312906789, "Pred": 0 }, "geometry": { "type": "LineString", "coordinates": [ [ 144.953502524742873, -37.667588005153462 ], [ 144.953462835326178, -37.667733893318285 ], [ 144.953387170567538, -37.667839715505067 ] ] } },
{ "type": "Feature", "properties": { "gid": 1005, "osm_id": null, "code": null, "fclass": "primary", "name": null, "pixel_count": 30, "Var_line": 156.55618286132812, "Edge_contrast": 37.611679077148438, "ROI": 4900.666666666667, "Road_detected": -1, "ROI_norm": -0.52803852603245938, "Pred": 0 }, "geometry": { "type": "LineString", "coordinates": [ [ 144.957349853732865, -37.688599470142783 ], [ 144.957321045957428, -37.688599459883086 ] ] } },
{ "type": "Feature", "properties": { "gid": 1006, "osm_id": null, "code": null, "fclass": "primary", "name": null, "pixel_count": 34, "Var_line": 142.98255920410156, "Edge_contrast": 24.867025375366211, "ROI": 4334.833333333333, "Road_detected": -1, "ROI_norm": -0.57875402636173157, "Pred": 0 }, "geometry": { "type": "LineString", "coordinates": [ [ 144.957349853732865, -37.688599470142783 ], [ 144.957321033046298, -37.68862234653399 ] ] } },
{ "type": "Feature", "properties": { "gid": 1029, "osm_id": null, "code": null, "fclass": "primary", "name": null, "pixel_count": 30, "Var_line": 126.12157440185547, "Edge_contrast": 84.109382629394531, "ROI": 3487.8333333333335, "Road_detected": -1, "ROI_norm": -0.6546704247927656, "Pred": 0 }, "geometry": { "type": "LineString", "coordinates": [ [ 144.957321045957428, -37.688599459883086 ], [ 144.957321033046298, -37.68862234653399 ] ] } },
{ "type": "Feature", "properties": { "gid": 1044, "osm_id": null, "code": null, "fclass": "primary", "name": null, "pixel_count": 50, "Var_line": 109.79081726074219, "Edge_contrast": 26.220985412597656, "ROI": 4645.333333333333, "Road_detected": -1, "ROI_norm": -0.55092398892036665, "Pred": 0 }, "geometry": { "type": "LineString", "coordinates": [ [ 144.932112623583379, -37.69039587221453 ], [ 144.932314200862891, -37.690487532846745 ] ] } },
{ "type": "Feature", "properties": { "gid": 1051, "osm_id": null, "code": null, "fclass": "primary", "name": null, "pixel_count": 50, "Var_line": 126.47505950927734, "Edge_contrast": 29.201189041137695, "ROI": 3467.5, "Road_detected": -1, "ROI_norm": -0.65649289638044495, "Pred": 0 }, "geometry": { "type": "LineString", "coordinates": [ [ 144.946648097543971, -37.667699581956491 ], [ 144.946907328018028, -37.667653923484927 ] ] } },
{ "type": "Feature", "properties": { "gid": 1059, "osm_id": null, "code": null, "fclass": "primary", "name": null, "pixel_count": 75, "Var_line": 85.151359558105469, "Edge_contrast": 42.167678833007812, "ROI": 4365.5, "Road_detected": -1, "ROI_norm": -0.57600538068851026, "Pred": 0 }, "geometry": { "type": "LineString", "coordinates": [ [ 144.935022886981642, -37.689688000017846 ], [ 144.935087860044376, -37.68950780287247 ], [ 144.935253548343127, -37.689459258402728 ] ] } },
{ "type": "Feature", "properties": { "gid": 1067, "osm_id": null, "code": null, "fclass": "primary", "name": null, "pixel_count": 50, "Var_line": 158.35893249511719, "Edge_contrast": 37.810672760009766, "ROI": 4847.833333333333, "Road_detected": -1, "ROI_norm": -0.53277396450208514, "Pred": 0 }, "geometry": { "type": "LineString", "coordinates": [ [ 144.957148212268208, -37.688576511528346 ], [ 144.957292238181964, -37.688599449616468 ] ] } },
{ "type": "Feature", "properties": { "gid": 1070, "osm_id": null, "code": null, "fclass": "primary", "name": null, "pixel_count": 50, "Var_line": 120.11241149902344, "Edge_contrast": 18.237154006958008, "ROI": 4472.1666666666661, "Road_detected": -1, "ROI_norm": -0.5664448739990452, "Pred": 0 }, "geometry": { "type": "LineString", "coordinates": [ [ 144.959392908638023, -37.692879981177846 ], [ 144.959335203709003, -37.693040167927393 ] ] } },
{ "type": "Feature", "properties": { "gid": 1075, "osm_id": null, "code": null, "fclass": "primary", "name": null, "pixel_count": 75, "Var_line": 135.25498962402344, "Edge_contrast": 46.387813568115234, "ROI": 3061.0, "Road_detected": -1, "ROI_norm": -0.69292738984232849, "Pred": 0 }, "geometry": { "type": "LineString", "coordinates": [ [ 144.934272422613333, -37.691358315493325 ], [ 144.934185886638801, -37.691484144473215 ], [ 144.934041772449319, -37.691564168432336 ] ] } },
{ "type": "Feature", "properties": { "gid": 1077, "osm_id": null, "code": null, "fclass": "primary", "name": null, "pixel_count": 50, "Var_line": 149.41404724121094, "Edge_contrast": 52.130512237548828, "ROI": 4970.0, "Road_detected": -1, "ROI_norm": -0.52182419668430702, "Pred": 0 }, "geometry": { "type": "LineString", "coordinates": [ [ 144.94207080126219, -37.665248562657908 ], [ 144.942301139987478, -37.66531733442941 ] ] } },
{ "type": "Feature", "properties": { "gid": 1080, "osm_id": null, "code": null, "fclass": "primary", "name": null, "pixel_count": 69, "Var_line": 82.023696899414062, "Edge_contrast": 19.911067962646484, "ROI": 6528.6666666666661, "Road_detected": -1, "ROI_norm": -0.38212129268449779, "Pred": 0 }, "geometry": { "type": "LineString", "coordinates": [ [ 144.9318985348132, -37.67220080651925 ], [ 144.932058804959752, -37.672132237140161 ], [ 144.932129070203786, -37.672063616574682 ] ] } },
{ "type": "Feature", "properties": { "gid": 1090, "osm_id": null, "code": null, "fclass": "primary", "name": null, "pixel_count": 40, "Var_line": 144.90121459960938, "Edge_contrast": 67.892829895019531, "ROI": 3035.333333333333, "Road_detected": -1, "ROI_norm": -0.695227886764481, "Pred": 0 }, "geometry": { "type": "LineString", "coordinates": [ [ 144.962637093953731, -37.657383655145871 ], [ 144.96263706005891, -37.657452315901992 ] ] } },
{ "type": "Feature", "properties": { "gid": 1115, "osm_id": null, "code": null, "fclass": "tertiary", "name": null, "pixel_count": 71, "Var_line": 108.95535278320312, "Edge_contrast": 8.3959751129150391, "ROI": 3973.5, "Road_detected": -1, "ROI_norm": -0.61114024277229462, "Pred": 0 }, "geometry": { "type": "LineString", "coordinates": [ [ 144.932256133010554, -37.690991006116214 ], [ 144.93219840026822, -37.691119710793373 ], [ 144.932111904760291, -37.691196904209036 ] ] } },
{ "type": "Feature", "properties": { "gid": 1137, "osm_id": null, "code": null, "fclass": "tertiary", "name": null, "pixel_count": 34, "Var_line": 104.60962677001953, "Edge_contrast": 8.7440872192382812, "ROI": 2345.3333333333335, "Road_detected": -1, "ROI_norm": -0.75707241441195861, "Pred": 0 }, "geometry": { "type": "LineString", "coordinates": [ [ 144.9322596422152, -37.654898534414698 ], [ 144.93223086776328, -37.654875631185192 ] ] } },
{ "type": "Feature", "properties": { "gid": 1138, "osm_id": null, "code": null, "fclass": "tertiary", "name": null, "pixel_count": 30, "Var_line": 102.99739074707031, "Edge_contrast": 10.508967399597168, "ROI": 1863.9999999999998, "Road_detected": -1, "ROI_norm": -0.80021420084817008, "Pred": 0 }, "geometry": { "type": "LineString", "coordinates": [ [ 144.9322596422152, -37.654898534414698 ], [ 144.932259662698726, -37.654875647478626 ] ] } },
{ "type": "Feature", "properties": { "gid": 1139, "osm_id": null, "code": null, "fclass": "tertiary", "name": null, "pixel_count": 38, "Var_line": 131.1376953125, "Edge_contrast": 45.53460693359375, "ROI": 2603.0, "Road_detected": -1, "ROI_norm": -0.73397781544021945, "Pred": 0 }, "geometry": { "type": "LineString", "coordinates": [ [ 144.9322596422152, -37.654898534414698 ], [ 144.93223080628664, -37.654944291992834 ] ] } },
{ "type": "Feature", "properties": { "gid": 1140, "osm_id": null, "code": null, "fclass": "tertiary", "name": null, "pixel_count": 75, "Var_line": 90.707550048828125, "Edge_contrast": 17.432350158691406, "ROI": 5844.3333333333339, "Road_detected": -1, "ROI_norm": -0.44345791841409743, "Pred": 0 }, "geometry": { "type": "LineString", "coordinates": [ [ 144.932157912717486, -37.672017859312028 ], [ 144.932075008372635, -37.672129385480616 ], [ 144.9318985348132, -37.67220080651925 ] ] } },
{ "type": "Feature", "properties": { "gid": 1154, "osm_id": null, "code": null, "fclass": "tertiary", "name": null, "pixel_count": 34, "Var_line": 136.61993408203125, "Edge_contrast": 89.446006774902344, "ROI": 4281.9999999999991, "Road_detected": -1, "ROI_norm": -0.58348946483135733, "Pred": 0 }, "geometry": { "type": "LineString", "coordinates": [ [ 144.946041881642344, -37.669690464427525 ], [ 144.946070665907172, -37.669713364212058 ] ] } },
{ "type": "Feature", "properties": { "gid": 1158, "osm_id": null, "code": null, "fclass": "tertiary", "name": null, "pixel_count": 75, "Var_line": 103.01021575927734, "Edge_contrast": 23.767572402954102, "ROI": 6545.666666666667, "Road_detected": -1, "ROI_norm": -0.38059758693086421, "Pred": 0 }, "geometry": { "type": "LineString", "coordinates": [ [ 144.934234680937806, -37.668494447892598 ], [ 144.934274407821164, -37.668348566144388 ], [ 144.934378899836048, -37.668242771838798 ] ] } },
{ "type": "Feature", "properties": { "gid": 1162, "osm_id": null, "code": null, "fclass": "tertiary", "name": null, "pixel_count": 42, "Var_line": 109.54338073730469, "Edge_contrast": 8.4088964462280273, "ROI": 4668.1666666666661, "Road_detected": -1, "ROI_norm": -0.54887744295715302, "Pred": 0 }, "geometry": { "type": "LineString", "coordinates": [ [ 144.931982367891891, -37.675061702690058 ], [ 144.93189598063995, -37.675038766824912 ] ] } },
{ "type": "Feature", "properties": { "gid": 1164, "osm_id": null, "code": null, "fclass": "tertiary", "name": null, "pixel_count": 75, "Var_line": 88.545242309570312, "Edge_contrast": 24.706951141357422, "ROI": 6589.833333333333, "Road_detected": -1, "ROI_norm": -0.37663893962975759, "Pred": 0 }, "geometry": { "type": "LineString", "coordinates": [ [ 144.93225187807991, -37.663572669241489 ], [ 144.932316773914295, -37.66346113242345 ], [ 144.932453670063239, -37.663343914479313 ] ] } },
{ "type": "Feature", "properties": { "gid": 1173, "osm_id": null, "code": null, "fclass": "tertiary", "name": null, "pixel_count": 50, "Var_line": 85.966278076171875, "Edge_contrast": 23.782438278198242, "ROI": 1088.6666666666667, "Road_detected": -1, "ROI_norm": -0.86970713384721987, "Pred": 0 }, "geometry": { "type": "LineString", "coordinates": [ [ 144.938622694138019, -37.655680121145949 ], [ 144.938853000610635, -37.655748899793323 ] ] } },
{ "type": "Feature", "properties": { "gid": 1177, "osm_id": null, "code": null, "fclass": "tertiary", "name": null, "pixel_count": 71, "Var_line": 106.28977966308594, "Edge_contrast": 24.315603256225586, "ROI": 4599.5, "Road_detected": -1, "ROI_norm": -0.55503201913849609, "Pred": 0 }, "geometry": { "type": "LineString", "coordinates": [ [ 144.947238787937977, -37.687931730535993 ], [ 144.947357630900513, -37.687914617822003 ], [ 144.947555781710889, -37.687771663087133 ] ] } },
{ "type": "Feature", "properties": { "gid": 1178, "osm_id": null, "code": null, "fclass": "tertiary", "name": null, "pixel_count": 71, "Var_line": 45.829128265380859, "Edge_contrast": 36.044349670410156, "ROI": 3199.333333333333, "Road_detected": -1, "ROI_norm": -0.68052860772942836, "Pred": 0 }, "geometry": { "type": "LineString", "coordinates": [ [ 144.967429432429043, -37.695903467362569 ], [ 144.967477965380965, -37.69610087738738 ], [ 144.967400503516558, -37.696178098573206 ] ] } },
{ "type": "Feature", "properties": { "gid": 1189, "osm_id": null, "code": null, "fclass": "tertiary", "name": null, "pixel_count": 69, "Var_line": 16.014232635498047, "Edge_contrast": 9.6679353713989258, "ROI": 6205.0, "Road_detected": -1, "ROI_norm": -0.4111314551703435, "Pred": 0 }, "geometry": { "type": "LineString", "coordinates": [ [ 144.941515680978227, -37.675524472553107 ], [ 144.941504753869168, -37.675687535451843 ], [ 144.941457898318816, -37.675753312019907 ] ] } },
{ "type": "Feature", "properties": { "gid": 1214, "osm_id": null, "code": null, "fclass": "tertiary", "name": null, "pixel_count": 30, "Var_line": 130.398681640625, "Edge_contrast": 63.853145599365234, "ROI": 4378.6666666666661, "Road_detected": -1, "ROI_norm": -0.57482525564402953, "Pred": 0 }, "geometry": { "type": "LineString", "coordinates": [ [ 144.93189598063995, -37.675038766824912 ], [ 144.931896001238897, -37.675015880060307 ] ] } },
{ "type": "Feature", "properties": { "gid": 1252, "osm_id": null, "code": null, "fclass": "tertiary", "name": null, "pixel_count": 40, "Var_line": 91.478187561035156, "Edge_contrast": 22.508094787597656, "ROI": 2849.9999999999995, "Road_detected": -1, "ROI_norm": -0.71183926713742673, "Pred": 0 }, "geometry": { "type": "LineString", "coordinates": [ [ 144.931867178031723, -37.675038750444138 ], [ 144.931694362382586, -37.675038652014052 ] ] } },
{ "type": "Feature", "properties": { "gid": 1259, "osm_id": null, "code": null, "fclass": "tertiary", "name": null, "pixel_count": 75, "Var_line": 147.10896301269531, "Edge_contrast": 26.963563919067383, "ROI": 3995.9999999999995, "Road_detected": -1, "ROI_norm": -0.60912357339248557, "Pred": 0 }, "geometry": { "type": "LineString", "coordinates": [ [ 144.942042019905898, -37.665225661873926 ], [ 144.942182368524641, -37.665285807717538 ], [ 144.942329956338625, -37.665294461451836 ] ] } },
{ "type": "Feature", "properties": { "gid": 1265, "osm_id": null, "code": null, "fclass": "tertiary", "name": null, "pixel_count": 50, "Var_line": 109.01315307617188, "Edge_contrast": 7.1268796920776367, "ROI": 4510.333333333333, "Road_detected": -1, "ROI_norm": -0.56302400519922091, "Pred": 0 }, "geometry": { "type": "LineString", "coordinates": [ [ 144.964211149765077, -37.677936513742488 ], [ 144.964268854468202, -37.677730550238735 ] ] } },
{ "type": "Feature", "properties": { "gid": 1270, "osm_id": null, "code": null, "fclass": "tertiary", "name": null, "pixel_count": 50, "Var_line": 85.542449951171875, "Edge_contrast": 21.454544067382812, "ROI": 7200.0, "Road_detected": -1, "ROI_norm": -0.32194985370767654, "Pred": 0 }, "geometry": { "type": "LineString", "coordinates": [ [ 144.95988418558855, -37.690019317865698 ], [ 144.96017228080234, -37.689996527348193 ] ] } },
{ "type": "Feature", "properties": { "gid": 1272, "osm_id": null, "code": null, "fclass": "tertiary", "name": null, "pixel_count": 34, "Var_line": 92.187522888183594, "Edge_contrast": 37.020763397216797, "ROI": 6236.5, "Road_detected": -1, "ROI_norm": -0.40830811803861083, "Pred": 0 }, "geometry": { "type": "LineString", "coordinates": [ [ 144.965680191225857, -37.67782250993416 ], [ 144.965709005271407, -37.677799631438731 ] ] } },
{ "type": "Feature", "properties": { "gid": 1284, "osm_id": null, "code": null, "fclass": "tertiary", "name": null, "pixel_count": 50, "Var_line": 111.16938018798828, "Edge_contrast": 20.301509857177734, "ROI": 2071.8333333333335, "Road_detected": -1, "ROI_norm": -0.78158615109541529, "Pred": 0 }, "geometry": { "type": "LineString", "coordinates": [ [ 144.946907344075044, -37.667631036654839 ], [ 144.946648097543971, -37.667699581956491 ] ] } },
{ "type": "Feature", "properties": { "gid": 1297, "osm_id": null, "code": null, "fclass": "tertiary", "name": null, "pixel_count": 50, "Var_line": 71.650352478027344, "Edge_contrast": 15.58836841583252, "ROI": 7911.6666666666661, "Road_detected": -1, "ROI_norm": -0.25816334813890135, "Pred": 0 }, "geometry": { "type": "LineString", "coordinates": [ [ 144.959277572455534, -37.693063034968411 ], [ 144.959421742596419, -37.69283421771086 ] ] } },
{ "type": "Feature", "properties": { "gid": 1299, "osm_id": null, "code": null, "fclass": "tertiary", "name": null, "pixel_count": 50, "Var_line": 111.52799224853516, "Edge_contrast": 34.407619476318359, "ROI": 3711.166666666667, "Road_detected": -1, "ROI_norm": -0.63465311391169799, "Pred": 0 }, "geometry": { "type": "LineString", "coordinates": [ [ 144.962694719585556, -37.657315012343894 ], [ 144.96263706005891, -37.657452315901992 ] ] } },
{ "type": "Feature", "properties": { "gid": 1306, "osm_id": null, "code": null, "fclass": "tertiary", "name": null, "pixel_count": 50, "Var_line": 87.59228515625, "Edge_contrast": 21.180461883544922, "ROI": 2126.1666666666665, "Road_detected": -1, "ROI_norm": -0.77671626800046911, "Pred": 0 }, "geometry": { "type": "LineString", "coordinates": [ [ 144.953531352626555, -37.667542242668361 ], [ 144.953358356589376, -37.667862591121448 ] ] } },
{ "type": "Feature", "properties": { "gid": 1307, "osm_id": null, "code": null, "fclass": "tertiary", "name": null, "pixel_count": 50, "Var_line": 95.686973571777344, "Edge_contrast": 38.063648223876953, "ROI": 2599.5, "Road_detected": -1, "ROI_norm": -0.7342915195659675, "Pred": 0 }, "geometry": { "type": "LineString", "coordinates": [ [ 144.931924927379498, -37.674878575842463 ], [ 144.931896001238897, -37.675015880060307 ] ] } },
{ "type": "Feature", "properties": { "gid": 1320, "osm_id": null, "code": null, "fclass": "tertiary", "name": null, "pixel_count": 65, "Var_line": 84.636421203613281, "Edge_contrast": 38.355239868164062, "ROI": 2000.6666666666665, "Road_detected": -1, "ROI_norm": -0.78796480165229288, "Pred": 0 }, "geometry": { "type": "LineString", "coordinates": [ [ 144.935774717107449, -37.686369839241102 ], [ 144.93568824891787, -37.686425579127672 ], [ 144.935659372634831, -37.686507097408608 ] ] } },
{ "type": "Feature", "properties": { "gid": 1323, "osm_id": null, "code": null, "fclass": "tertiary", "name": null, "pixel_count": 50, "Var_line": 108.37689208984375, "Edge_contrast": 13.345952987670898, "ROI": 2377.3333333333335, "Road_detected": -1, "ROI_norm": -0.75420426240511906, "Pred": 0 }, "geometry": { "type": "LineString", "coordinates": [ [ 144.962743715358499, -37.674777693309089 ], [ 144.962714969230973, -37.674663250489822 ] ] } },
{ "type": "Feature", "properties": { "gid": 1325, "osm_id": null, "code": null, "fclass": "tertiary", "name": null, "pixel_count": 75, "Var_line": 93.483932495117188, "Edge_contrast": 11.66031551361084, "ROI": 5455.833333333333, "Road_detected": -1, "ROI_norm": -0.47827907637213385, "Pred": 0 }, "geometry": { "type": "LineString", "coordinates": [ [ 144.954738848174628, -37.671044388885107 ], [ 144.954965593779434, -37.671150325840543 ], [ 144.955113221643671, -37.671113190199499 ] ] } },
{ "type": "Feature", "properties": { "gid": 1328, "osm_id": null, "code": null, "fclass": "tertiary", "name": null, "pixel_count": 69, "Var_line": 95.4266357421875, "Edge_contrast": 42.533966064453125, "ROI": 3437.9999999999991, "Road_detected": -1, "ROI_norm": -0.6591369740117502, "Pred": 0 }, "geometry": { "type": "LineString", "coordinates": [ [ 144.932122192749119, -37.67973068021719 ], [ 144.93221945114766, -37.679682100978106 ], [ 144.932237574301752, -37.67954765165338 ] ] } },
{ "type": "Feature", "properties": { "gid": 1331, "osm_id": null, "code": null, "fclass": "tertiary", "name": null, "pixel_count": 54, "Var_line": 107.71483612060547, "Edge_contrast": 5.5746231079101562, "ROI": 3039.5, "Road_detected": -1, "ROI_norm": -0.69485442947192377, "Pred": 0 }, "geometry": { "type": "LineString", "coordinates": [ [ 144.967429146657423, -37.696567178342264 ], [ 144.967358903023523, -37.696607210749455 ], [ 144.967342674702792, -37.696658701142667 ] ] } },
{ "type": "Feature", "properties": { "gid": 1335, "osm_id": null, "code": null, "fclass": "tertiary", "name": null, "pixel_count": 75, "Var_line": 141.05514526367188, "Edge_contrast": 34.333560943603516, "ROI": 3410.833333333333, "Road_detected": -1, "ROI_norm": -0.66157191555922334, "Pred": 0 }, "geometry": { "type": "LineString", "coordinates": [ [ 144.934330079991497, -37.691312573842701 ], [ 144.934200317200805, -37.691454113693041 ], [ 144.934041772449319, -37.691564168432336 ] ] } },
{ "type": "Feature", "properties": { "gid": 1628, "osm_id": null, "code": null, "fclass": "unclassified", "name": null, "pixel_count": 160, "Var_line": 52.885608673095703, "Edge_contrast": 9.993443489074707, "ROI": 20154.833333333332, "Road_detected": -1, "ROI_norm": 0.83918862201956668, "Pred": 0 }, "geometry": { "type": "LineString", "coordinates": [ [ 144.959193946403445, -37.687867739414266 ], [ 144.959278342066682, -37.688288310508781 ], [ 144.959367895831946, -37.689163755443978 ], [ 144.959416458672194, -37.689258179337074 ], [ 144.959484862414541, -37.689286810802528 ], [ 144.95967931666766, -37.689286876408772 ], [ 144.96057601454541, -37.689195628259988 ] ] } },
{ "type": "Feature", "properties": { "gid": 1631, "osm_id": null, "code": null, "fclass": "unclassified", "name": null, "pixel_count": 219, "Var_line": 11.155116081237793, "Edge_contrast": 15.194588661193848, "ROI": 11029.166666666666, "Road_detected": -1, "ROI_norm": 0.021257398152419608, "Pred": 0 }, "geometry": { "type": "LineString", "coordinates": [ [ 144.948447518524119, -37.689671642572144 ], [ 144.948551861609729, -37.689798994401421 ], [ 144.949264548763068, -37.690271335385063 ], [ 144.949523734748652, -37.690405903889882 ], [ 144.94969655698813, -37.690448889033618 ], [ 144.950668782516999, -37.690542270299638 ], [ 144.950814631200643, -37.690533747779057 ], [ 144.95086688750294, -37.690470830962703 ], [ 144.950838567950768, -37.68971842094345 ] ] } },
{ "type": "Feature", "properties": { "gid": 1797, "osm_id": null, "code": null, "fclass": "unclassified", "name": null, "pixel_count": 67, "Var_line": 50.303066253662109, "Edge_contrast": 15.41610050201416, "ROI": 5696.0, "Road_detected": -1, "ROI_norm": -0.45675299802913499, "Pred": 0 }, "geometry": { "type": "LineString", "coordinates": [ [ 144.952761345284642, -37.655389003383604 ], [ 144.952664172441104, -37.655371799803703 ], [ 144.951868667012349, -37.655434421771723 ] ] } },
{ "type": "Feature", "properties": { "gid": 1868, "osm_id": null, "code": null, "fclass": "unclassified", "name": null, "pixel_count": 75, "Var_line": 19.152778625488281, "Edge_contrast": 43.397174835205078, "ROI": 7038.1666666666661, "Road_detected": -1, "ROI_norm": -0.33645493495059947, "Pred": 0 }, "geometry": { "type": "LineString", "coordinates": [ [ 144.950860821852785, -37.655456899358278 ], [ 144.951015668046978, -37.655345388968009 ], [ 144.951811178710045, -37.655274190063992 ] ] } },
{ "type": "Feature", "properties": { "gid": 1914, "osm_id": null, "code": null, "fclass": "unclassified", "name": null, "pixel_count": 225, "Var_line": 34.740676879882812, "Edge_contrast": 12.886545181274414, "ROI": 18650.833333333336, "Road_detected": -1, "ROI_norm": 0.70438547769810855, "Pred": 0 }, "geometry": { "type": "LineString", "coordinates": [ [ 144.936176874913713, -37.687720367822656 ], [ 144.936457591243965, -37.687906471206482 ], [ 144.936552915347846, -37.688026676716497 ], [ 144.936655341050084, -37.688267040874706 ], [ 144.936779201077712, -37.688713396161113 ], [ 144.936809321916058, -37.689297021751486 ], [ 144.936566917607223, -37.690652927444887 ], [ 144.936352395248605, -37.690960352879415 ], [ 144.936145266521805, -37.691038915473158 ] ] } }
]
}
