{
"type": "FeatureCollection",
"crs": { "type": "name", "properties": { "name": "urn:ogc:def:crs:OGC:1.3:CRS84" } },
"features": [
{ "type": "Feature", "properties": { "gid": 10, "fclass": "residential", "length": 185.5519985275607, "status": "disappeared" }, "geometry": { "type": "LineString", "coordinates": [ [ 144.948083330934821, -37.67463491522129 ], [ 144.947967619462617, -37.675364380933715 ], [ 144.947935186858416, -37.675407279535207 ], [ 144.94784875888638, -37.675435850397726 ], [ 144.947459938479113, -37.675411363275884 ], [ 144.946844359018513, -37.675298088232168 ] ] } },
{ "type": "Feature", "properties": { "gid": 25, "fclass": "residential", "length": 64.169201793879338, "status": "disappeared" }, "geometry": { "type": "LineString", "coordinates": [ [ 144.935572016188161, -37.687605610710591 ], [ 144.935669255736315, -37.687588497968243 ], [ 144.936292162479845, -37.687651769190076 ] ] } },
{ "type": "Feature", "properties": { "gid": 52, "fclass": "residential", "length": 644.12077833019305, "status": "disappeared" }, "geometry": { "type": "LineString", "coordinates": [ [ 144.953074388285017, -37.661362611324257 ], [ 144.953130092903393, -37.661508537058332 ], [ 144.953732614949615, -37.665147784182352 ], [ 144.953734267963227, -37.665388096814929 ], [ 144.953678375459219, -37.665542561479704 ], [ 144.953572094908452, -37.665679841446035 ], [ 144.953550442942543, -37.66576565874778 ], [ 144.95344416184642, -37.665902938589184 ], [ 144.95284051497876, -37.666969801630934 ] ] } },
{ "type": "Feature", "properties": { "gid": 94, "fclass": "residential", "length": 92.433188251630028, "status": "disappeared" }, "geometry": { "type": "LineString", "coordinates": [ [ 144.952423018997166, -37.689719060676921 ], [ 144.953017158831415, -37.689766498870483 ], [ 144.953460043845126, -37.689833901265899 ] ] } },
{ "type": "Feature", "properties": { "gid": 149, "fclass": "residential", "length": 165.84827530327829, "status": "disappeared" }, "geometry": { "type": "LineString", "coordinates": [ [ 144.949604419551406, -37.682806131743362 ], [ 144.951476693454168, -37.682944225033978 ] ] } },
{ "type": "Feature", "properties": { "gid": 162, "fclass": "residential", "length": 160.48739901522168, "status": "disappeared" }, "geometry": { "type": "LineString", "coordinates": [ [ 144.940191222758529, -37.674928762410858 ], [ 144.940272290951896, -37.674851559995247 ], [ 144.940593406480986, -37.673976300354902 ], [ 144.940780795453321, -37.673753247000427 ], [ 144.940941089865589, -37.673647474761808 ] ] } },
{ "type": "Feature", "properties": { "gid": 197, "fclass": "residential", "length": 151.44661398292746, "status": "disappeared" }, "geometry": { "type": "LineString", "coordinates": [ [ 144.945807150034625, -37.675732472058804 ], [ 144.94584687069144, -37.675569421796411 ], [ 144.946286856860524, -37.674522550009861 ], [ 144.946297724767675, -37.674428146920526 ] ] } },
{ "type": "Feature", "properties": { "gid": 218, "fclass": "residential", "length": 26.08485643505761, "status": "disappeared" }, "geometry": { "type": "LineString", "coordinates": [ [ 144.956866619748496, -37.677201718052309 ], [ 144.956733356417004, -37.67728463447078 ], [ 144.956607336324709, -37.677293171415371 ] ] } },
{ "type": "Feature", "properties": { "gid": 251, "fclass": "residential", "length": 71.84245440187324, "status": "disappeared" }, "geometry": { "type": "LineString", "coordinates": [ [ 144.949129389705519, -37.660994810194659 ], [ 144.949014632351691, -37.660353928297262 ] ] } },
{ "type": "Feature", "properties": { "gid": 285, "fclass": "residential", "length": 33.412222996018784, "status": "disappeared" }, "geometry": { "type": "LineString", "coordinates": [ [ 144.971619053292699, -37.663680016988749 ], [ 144.971590316216407, -37.663516941232629 ], [ 144.971619164869907, -37.663382487709612 ] ] } },
{ "type": "Feature", "properties": { "gid": 322, "fclass": "residential", "length": 87.28934999519052, "status": "disappeared" }, "geometry": { "type": "LineString", "coordinates": [ [ 144.952672827542159, -37.658799120411118 ], [ 144.952529333454294, -37.658020908504994 ] ] } },
{ "type": "Feature", "properties": { "gid": 355, "fclass": "residential", "length": 128.65070796938514, "status": "disappeared" }, "geometry": { "type": "LineString", "coordinates": [ [ 144.949129374321899, -37.661017697081483 ], [ 144.9476893840081, -37.661200171852514 ] ] } },
{ "type": "Feature", "properties": { "gid": 389, "fclass": "residential", "length": 27.813658593398486, "status": "disappeared" }, "geometry": { "type": "LineString", "coordinates": [ [ 144.967517583905334, -37.691898334800513 ], [ 144.967614810717265, -37.691906943607435 ], [ 144.967805635275369, -37.691989959057466 ] ] } },
{ "type": "Feature", "properties": { "gid": 393, "fclass": "residential", "length": 167.37249793544896, "status": "disappeared" }, "geometry": { "type": "LineString", "coordinates": [ [ 144.944626232168048, -37.67573193192441 ], [ 144.944723711466651, -37.675362927787262 ], [ 144.945048303182631, -37.674590648501891 ], [ 144.945134810070954, -37.674453367488354 ], [ 144.94514572917916, -37.674290304183089 ] ] } },
{ "type": "Feature", "properties": { "gid": 431, "fclass": "residential", "length": 120.90317980337821, "status": "disappeared" }, "geometry": { "type": "LineString", "coordinates": [ [ 144.946786753598815, -37.67529806265312 ], [ 144.946624465923293, -37.675684204686881 ], [ 144.946559621106388, -37.675738531846811 ], [ 144.946321968955289, -37.6757784774207 ], [ 144.945868323398088, -37.675778273257201 ], [ 144.945807133643143, -37.675755358819401 ] ] } },
{ "type": "Feature", "properties": { "gid": 458, "fclass": "residential", "length": 30.767341911906961, "status": "disappeared" }, "geometry": { "type": "LineString", "coordinates": [ [ 144.935556757772446, -37.671699321092127 ], [ 144.935562106864126, -37.671759401830542 ], [ 144.935632257860789, -37.671820947836835 ], [ 144.935787110212743, -37.671768105226917 ] ] } },
{ "type": "Feature", "properties": { "gid": 491, "fclass": "residential", "length": 41.59259020706746, "status": "disappeared" }, "geometry": { "type": "LineString", "coordinates": [ [ 144.952358487118119, -37.654953991872453 ], [ 144.952585247498462, -37.654954081879076 ], [ 144.952714848987142, -37.654915511409641 ], [ 144.952819220888273, -37.654931287354316 ] ] } },
{ "type": "Feature", "properties": { "gid": 494, "fclass": "residential", "length": 203.95166947735521, "status": "disappeared" }, "geometry": { "type": "LineString", "coordinates": [ [ 144.941635305476581, -37.669802832154062 ], [ 144.940783961108508, -37.669708006113851 ], [ 144.940724590162546, -37.669669355234312 ], [ 144.940715747993835, -37.669467660742143 ], [ 144.940831540485561, -37.668712452756168 ], [ 144.940887436970826, -37.668589463650235 ] ] } },
{ "type": "Feature", "properties": { "gid": 521, "fclass": "residential", "length": 222.40910308753928, "status": "disappeared" }, "geometry": { "type": "LineString", "coordinates": [ [ 144.95209786943596, -37.657265468274865 ], [ 144.952038864142963, -37.656656080218056 ], [ 144.951841604206805, -37.655540262986747 ], [ 144.951839973800702, -37.655274201648844 ] ] } },
{ "type": "Feature", "properties": { "gid": 559, "fclass": "residential", "length": 173.97947523214776, "status": "disappeared" }, "geometry": { "type": "LineString", "coordinates": [ [ 144.943589755243636, -37.675159278989199 ], [ 144.943421986852201, -37.6756312395161 ], [ 144.943432678841702, -37.675777147716495 ], [ 144.943535272064395, -37.675800082893154 ], [ 144.943988917745969, -37.67580029589309 ], [ 144.944597412536098, -37.675754805365386 ] ] } },
{ "type": "Feature", "properties": { "gid": 601, "fclass": "residential", "length": 49.399470412777575, "status": "disappeared" }, "geometry": { "type": "LineString", "coordinates": [ [ 144.960576718197984, -37.687845315789794 ], [ 144.960607500437789, -37.687510608465665 ], [ 144.960663366762105, -37.687410497663414 ] ] } },
{ "type": "Feature", "properties": { "gid": 612, "fclass": "residential", "length": 113.90068495769111, "status": "disappeared" }, "geometry": { "type": "LineString", "coordinates": [ [ 144.935798765786274, -37.691977082246432 ], [ 144.936308954636161, -37.691230678188965 ], [ 144.936375716880548, -37.691061924721346 ] ] } },
{ "type": "Feature", "properties": { "gid": 624, "fclass": "residential", "length": 101.76036312469409, "status": "disappeared" }, "geometry": { "type": "LineString", "coordinates": [ [ 144.936349758046902, -37.68767468647264 ], [ 144.936576604486504, -37.687689110954416 ], [ 144.936830332571731, -37.687853742926833 ], [ 144.936920187807061, -37.688055479001122 ], [ 144.936954179842928, -37.688315832674682 ] ] } },
{ "type": "Feature", "properties": { "gid": 626, "fclass": "residential", "length": 101.07990797244402, "status": "disappeared" }, "geometry": { "type": "LineString", "coordinates": [ [ 144.968957678689634, -37.692768408245151 ], [ 144.969292621227169, -37.692685530572028 ], [ 144.969703078602635, -37.692874449675472 ], [ 144.97002358889975, -37.692860226164633 ] ] } },
{ "type": "Feature", "properties": { "gid": 659, "fclass": "residential", "length": 279.19950291807004, "status": "disappeared" }, "geometry": { "type": "LineString", "coordinates": [ [ 144.946944535790124, -37.655661210625254 ], [ 144.945529870954005, -37.655797897089592 ], [ 144.945313907321434, -37.655796368220699 ], [ 144.945162757967751, -37.655760538255009 ], [ 144.945011640973348, -37.655680364668854 ], [ 144.944864177885677, -37.655525810017018 ], [ 144.944439938220171, -37.65485903170201 ] ] } },
{ "type": "Feature", "properties": { "gid": 661, "fclass": "residential", "length": 253.75474498869593, "status": "disappeared" }, "geometry": { "type": "LineString", "coordinates": [ [ 144.968725746700585, -37.696292884779012 ], [ 144.968694968393606, -37.696696252815912 ], [ 144.968350259534049, -37.6985585573686 ] ] } },
{ "type": "Feature", "properties": { "gid": 675, "fclass": "residential", "length": 27.229575118678571, "status": "disappeared" }, "geometry": { "type": "LineString", "coordinates": [ [ 144.968871410693197, -37.692379313321098 ], [ 144.96901184390353, -37.692407958004992 ], [ 144.969101828336733, -37.692516692696152 ] ] } },
{ "type": "Feature", "properties": { "gid": 719, "fclass": "residential", "length": 211.4508823949555, "status": "disappeared" }, "geometry": { "type": "LineString", "coordinates": [ [ 144.943618574953376, -37.675136405785601 ], [ 144.944083740663757, -37.674158214105951 ], [ 144.94414856162058, -37.67413678799231 ], [ 144.944558964585809, -37.674177030533592 ], [ 144.945145745770361, -37.674267417410015 ] ] } },
{ "type": "Feature", "properties": { "gid": 724, "fclass": "residential", "length": 64.487328528831412, "status": "disappeared" }, "geometry": { "type": "LineString", "coordinates": [ [ 144.952394210796086, -37.689719049232444 ], [ 144.952309408165917, -37.690002237738007 ], [ 144.952278617073034, -37.69029116934113 ] ] } },
{ "type": "Feature", "properties": { "gid": 753, "fclass": "motorway", "length": 142.23988690645018, "status": "disappeared" }, "geometry": { "type": "LineString", "coordinates": [ [ 144.931850234326504, -37.693851604147945 ], [ 144.931855752124903, -37.693722870082446 ], [ 144.931947648739396, -37.693649971232603 ], [ 144.932617499616697, -37.693621741586256 ], [ 144.933262175601868, -37.693554873009397 ] ] } },
{ "type": "Feature", "properties": { "gid": 759, "fclass": "motorway", "length": 61.480610973068302, "status": "disappeared" }, "geometry": { "type": "LineString", "coordinates": [ [ 144.958903733093393, -37.691804143096242 ], [ 144.959325065429908, -37.691802856473842 ], [ 144.959595173447099, -37.691758605035261 ] ] } },
{ "type": "Feature", "properties": { "gid": 776, "fclass": "motorway", "length": 33.158373771408435, "status": "disappeared" }, "geometry": { "type": "LineString", "coordinates": [ [ 144.957405639539076, -37.691849393082741 ], [ 144.957227378918532, -37.691857912056243 ], [ 144.957178799329029, -37.69179495647618 ], [ 144.95717524516968, -37.691711991178416 ] ] } },
{ "type": "Feature", "properties": { "gid": 778, "fclass": "motorway", "length": 58.134235064602237, "status": "disappeared" }, "geometry": { "type": "LineString", "coordinates": [ [ 144.957463077403332, -37.692169826254045 ], [ 144.957617863997569, -37.692281453405066 ], [ 144.958068005812891, -37.692284472633254 ] ] } },
{ "type": "Feature", "properties": { "gid": 781, "fclass": "motorway", "length": 44.657555109662461, "status": "disappeared" }, "geometry": { "type": "LineString", "coordinates": [ [ 144.957434551570799, -37.69166631033341 ], [ 144.957704650609543, -37.691639228123549 ], [ 144.95792435452492, -37.691574936842599 ] ] } },
{ "type": "Feature", "properties": { "gid": 800, "fclass": "trunk", "length": 51.183618258935248, "status": "disappeared" }, "geometry": { "type": "LineString", "coordinates": [ [ 144.967689656113862, -37.693729310771701 ], [ 144.967660886741868, -37.693634895741269 ], [ 144.967689851614637, -37.69327157858401 ] ] } },
{ "type": "Feature", "properties": { "gid": 808, "fclass": "trunk", "length": 24.285169654695704, "status": "disappeared" }, "geometry": { "type": "LineString", "coordinates": [ [ 144.935373629340404, -37.683783427661041 ], [ 144.935344918747802, -37.683671839501741 ], [ 144.93540261114353, -37.683577462982718 ] ] } },
{ "type": "Feature", "properties": { "gid": 831, "fclass": "trunk", "length": 40.143946129153647, "status": "disappeared" }, "geometry": { "type": "LineString", "coordinates": [ [ 144.957666380677324, -37.689240408693898 ], [ 144.957421623608184, -37.689042924588072 ], [ 144.957378455208357, -37.688965666786473 ] ] } },
{ "type": "Feature", "properties": { "gid": 832, "fclass": "trunk", "length": 2.5400000000372529, "status": "disappeared" }, "geometry": { "type": "LineString", "coordinates": [ [ 144.957666380677324, -37.689240408693898 ], [ 144.957666367870559, -37.689263295339259 ] ] } },
{ "type": "Feature", "properties": { "gid": 833, "fclass": "trunk", "length": 3.592609205897253, "status": "disappeared" }, "geometry": { "type": "LineString", "coordinates": [ [ 144.957666380677324, -37.689240408693898 ], [ 144.957695175898863, -37.689263305515887 ] ] } },
{ "type": "Feature", "properties": { "gid": 850, "fclass": "trunk", "length": 56.734480394083128, "status": "disappeared" }, "geometry": { "type": "LineString", "coordinates": [ [ 144.934275544323185, -37.687765113091267 ], [ 144.934273512715436, -37.688031169455556 ], [ 144.9342247233715, -37.688234261809555 ], [ 144.934246299258518, -37.688268603646819 ] ] } },
{ "type": "Feature", "properties": { "gid": 864, "fclass": "trunk", "length": 84.754445996483184, "status": "disappeared" }, "geometry": { "type": "LineString", "coordinates": [ [ 144.966083565760101, -37.67754798384415 ], [ 144.966027693337679, -37.677693871039025 ], [ 144.96596801179038, -37.678303213719097 ] ] } },
{ "type": "Feature", "properties": { "gid": 883, "fclass": "trunk", "length": 236.9041596063289, "status": "disappeared" }, "geometry": { "type": "LineString", "coordinates": [ [ 144.955044905328606, -37.689147907036912 ], [ 144.955379797299287, -37.689149462656466 ], [ 144.956092716884655, -37.689284185144203 ], [ 144.956827307928961, -37.68930876919498 ], [ 144.957108163665453, -37.68934892171734 ], [ 144.95751867531996, -37.689354789654651 ], [ 144.957666367870559, -37.689263295339259 ] ] } },
{ "type": "Feature", "properties": { "gid": 888, "fclass": "trunk", "length": 2.5407166122458875, "status": "disappeared" }, "geometry": { "type": "LineString", "coordinates": [ [ 144.969534124053126, -37.692127730833178 ], [ 144.969505314932633, -37.692127723503496 ] ] } },
{ "type": "Feature", "properties": { "gid": 889, "fclass": "trunk", "length": 2.5407166122458875, "status": "disappeared" }, "geometry": { "type": "LineString", "coordinates": [ [ 144.969534124053126, -37.692127730833178 ], [ 144.969562933173506, -37.692127738155961 ] ] } },
{ "type": "Feature", "properties": { "gid": 890, "fclass": "trunk", "length": 2.5400000000372529, "status": "disappeared" }, "geometry": { "type": "LineString", "coordinates": [ [ 144.969534124053126, -37.692127730833178 ], [ 144.969534114836193, -37.692150617454566 ] ] } },
{ "type": "Feature", "properties": { "gid": 894, "fclass": "trunk", "length": 5.679933177819894, "status": "disappeared" }, "geometry": { "type": "LineString", "coordinates": [ [ 144.933547437358868, -37.663985358857602 ], [ 144.933576195585033, -37.664031148552411 ] ] } },
{ "type": "Feature", "properties": { "gid": 917, "fclass": "trunk", "length": 3.5926092055679342, "status": "disappeared" }, "geometry": { "type": "LineString", "coordinates": [ [ 144.969534114836193, -37.692150617454566 ], [ 144.969505314932633, -37.692127723503496 ] ] } },
{ "type": "Feature", "properties": { "gid": 918, "fclass": "trunk", "length": 3.5926092055679342, "status": "disappeared" }, "geometry": { "type": "LineString", "coordinates": [ [ 144.969534114836193, -37.692150617454566 ], [ 144.969562933173506, -37.692127738155961 ] ] } },
{ "type": "Feature", "properties": { "gid": 927, "fclass": "trunk", "length": 2.5407166127115488, "status": "disappeared" }, "geometry": { "type": "LineString", "coordinates": [ [ 144.957695175898863, -37.689263305515887 ], [ 144.957666367870559, -37.689263295339259 ] ] } },
{ "type": "Feature", "properties": { "gid": 929, "fclass": "trunk", "length": 84.234660455345889, "status": "disappeared" }, "geometry": { "type": "LineString", "coordinates": [ [ 144.970484833960057, -37.692105082205003 ], [ 144.970366014303892, -37.69205927962453 ], [ 144.969739416500715, -37.692059122991353 ], [ 144.969562933173506, -37.692127738155961 ] ] } },
{ "type": "Feature", "properties": { "gid": 941, "fclass": "trunk", "length": 20.320000000298023, "status": "disappeared" }, "geometry": { "type": "LineString", "coordinates": [ [ 144.963828878745886, -37.694300372537015 ], [ 144.963828966291345, -37.694117279714007 ] ] } },
{ "type": "Feature", "properties": { "gid": 946, "fclass": "trunk", "length": 20.478223578129377, "status": "disappeared" }, "geometry": { "type": "LineString", "coordinates": [ [ 144.932150791911994, -37.679959563768627 ], [ 144.932121823174754, -37.680142641220534 ] ] } },
{ "type": "Feature", "properties": { "gid": 973, "fclass": "trunk", "length": 12.955023065105172, "status": "disappeared" }, "geometry": { "type": "LineString", "coordinates": [ [ 144.967833296035963, -37.694690586868774 ], [ 144.967977356205694, -37.694667738859188 ] ] } },
{ "type": "Feature", "properties": { "gid": 989, "fclass": "trunk", "length": 17.960613600682333, "status": "disappeared" }, "geometry": { "type": "LineString", "coordinates": [ [ 144.943734279075613, -37.674472743681093 ], [ 144.943705595868408, -37.674312522743904 ] ] } },
{ "type": "Feature", "properties": { "gid": 990, "fclass": "trunk", "length": 33.888310198975823, "status": "disappeared" }, "geometry": { "type": "LineString", "coordinates": [ [ 144.962521967040516, -37.657269184553428 ], [ 144.96243572715602, -37.656971627508682 ] ] } },
{ "type": "Feature", "properties": { "gid": 997, "fclass": "trunk", "length": 33.020000000018626, "status": "disappeared" }, "geometry": { "type": "LineString", "coordinates": [ [ 144.959171166343111, -37.676699017146611 ], [ 144.95917100579922, -37.676996544931761 ] ] } },
{ "type": "Feature", "properties": { "gid": 1030, "fclass": "primary", "length": 17.960613600221354, "status": "disappeared" }, "geometry": { "type": "LineString", "coordinates": [ [ 144.967833286304199, -37.694713473467722 ], [ 144.96780454438246, -37.694553259532384 ] ] } },
{ "type": "Feature", "properties": { "gid": 1036, "fclass": "primary", "length": 25.40458655184101, "status": "disappeared" }, "geometry": { "type": "LineString", "coordinates": [ [ 144.956034897322809, -37.671044871661095 ], [ 144.956265226697241, -37.671182276829008 ] ] } },
{ "type": "Feature", "properties": { "gid": 1042, "fclass": "primary", "length": 77.580559324239687, "status": "disappeared" }, "geometry": { "type": "LineString", "coordinates": [ [ 144.96593913581583, -37.678463412712794 ], [ 144.965939247856426, -37.678214519409629 ], [ 144.966045592257956, -37.677924174016063 ], [ 144.965910620613187, -37.677822575736869 ] ] } },
{ "type": "Feature", "properties": { "gid": 1046, "fclass": "primary", "length": 33.752256868409887, "status": "disappeared" }, "geometry": { "type": "LineString", "coordinates": [ [ 144.93688789655431, -37.698706321257767 ], [ 144.937132852396587, -37.698637790328092 ], [ 144.937176145820388, -37.698546266752025 ] ] } },
{ "type": "Feature", "properties": { "gid": 1053, "fclass": "primary", "length": 28.128079999771447, "status": "disappeared" }, "geometry": { "type": "LineString", "coordinates": [ [ 144.940481822728231, -37.671656096228695 ], [ 144.940424120980566, -37.671781944958312 ], [ 144.940280087035603, -37.671816203429529 ] ] } },
{ "type": "Feature", "properties": { "gid": 1061, "fclass": "primary", "length": 45.558829636670154, "status": "disappeared" }, "geometry": { "type": "LineString", "coordinates": [ [ 144.964471823228564, -37.674869765476394 ], [ 144.964374537850347, -37.675032804834807 ], [ 144.964338461778709, -37.675187279805485 ], [ 144.964270032472285, -37.675235893799027 ] ] } },
{ "type": "Feature", "properties": { "gid": 1063, "fclass": "primary", "length": 23.423938893101752, "status": "disappeared" }, "geometry": { "type": "LineString", "coordinates": [ [ 144.941777847030608, -37.671702506874972 ], [ 144.941518599592541, -37.671748154174452 ] ] } },
{ "type": "Feature", "properties": { "gid": 1072, "fclass": "primary", "length": 11.361789228378488, "status": "disappeared" }, "geometry": { "type": "LineString", "coordinates": [ [ 144.959200068313947, -37.676515932923294 ], [ 144.959084830861883, -37.676561667133143 ] ] } },
{ "type": "Feature", "properties": { "gid": 1081, "fclass": "primary", "length": 26.383365990516733, "status": "disappeared" }, "geometry": { "type": "LineString", "coordinates": [ [ 144.939444755348603, -37.671930218007745 ], [ 144.939572653060537, -37.67181584859425 ], [ 144.939675276233032, -37.671793013524507 ] ] } },
{ "type": "Feature", "properties": { "gid": 1083, "fclass": "primary", "length": 42.589102732413103, "status": "disappeared" }, "geometry": { "type": "LineString", "coordinates": [ [ 144.967632261880112, -37.693202903195711 ], [ 144.96809316609145, -37.693317459903717 ] ] } },
{ "type": "Feature", "properties": { "gid": 1084, "fclass": "primary", "length": 18.956608861827313, "status": "disappeared" }, "geometry": { "type": "LineString", "coordinates": [ [ 144.937263282813831, -37.697699509123943 ], [ 144.937311837765378, -37.697776776742089 ], [ 144.937291961243716, -37.697859730185684 ] ] } },
{ "type": "Feature", "properties": { "gid": 1104, "fclass": "primary", "length": 8.0342248002509802, "status": "disappeared" }, "geometry": { "type": "LineString", "coordinates": [ [ 144.96066204583758, -37.689950915886023 ], [ 144.960748482583625, -37.689928057594344 ] ] } },
{ "type": "Feature", "properties": { "gid": 1111, "fclass": "primary", "length": 12.702293276060178, "status": "disappeared" }, "geometry": { "type": "LineString", "coordinates": [ [ 144.963424178410264, -37.697115300624077 ], [ 144.963539389393816, -37.697183995482185 ] ] } },
{ "type": "Feature", "properties": { "gid": 1114, "fclass": "primary", "length": 48.046442702901111, "status": "disappeared" }, "geometry": { "type": "LineString", "coordinates": [ [ 144.951213222149903, -37.689489707628518 ], [ 144.951126847709105, -37.689412429981736 ], [ 144.951022540641844, -37.689223572519275 ], [ 144.951011817294187, -37.689100552383074 ] ] } },
{ "type": "Feature", "properties": { "gid": 1124, "fclass": "primary", "length": 38.842449035207935, "status": "disappeared" }, "geometry": { "type": "LineString", "coordinates": [ [ 144.959250057450049, -37.690659929770781 ], [ 144.959498530517351, -37.690661444446512 ], [ 144.959682161461444, -37.690705849246982 ] ] } },
{ "type": "Feature", "properties": { "gid": 1181, "fclass": "primary", "length": 20.34808754185002, "status": "disappeared" }, "geometry": { "type": "LineString", "coordinates": [ [ 144.933489840555296, -37.663985326883264 ], [ 144.93355997261412, -37.664058317711024 ], [ 144.933662530657642, -37.664099857016851 ] ] } },
{ "type": "Feature", "properties": { "gid": 1182, "fclass": "primary", "length": 12.703583061695099, "status": "disappeared" }, "geometry": { "type": "LineString", "coordinates": [ [ 144.962448761948224, -37.688738496886621 ], [ 144.962304722803054, -37.688738451649606 ] ] } },
{ "type": "Feature", "properties": { "gid": 1192, "fclass": "primary", "length": 29.737346038843512, "status": "disappeared" }, "geometry": { "type": "LineString", "coordinates": [ [ 144.964391888417794, -37.66111475559125 ], [ 144.964075161414598, -37.661023113428641 ] ] } },
{ "type": "Feature", "properties": { "gid": 1197, "fclass": "primary", "length": 10.472862116287512, "status": "disappeared" }, "geometry": { "type": "LineString", "coordinates": [ [ 144.94712301399349, -37.688709825904702 ], [ 144.947151885759354, -37.688618292019875 ] ] } },
{ "type": "Feature", "properties": { "gid": 1203, "fclass": "primary", "length": 12.951650122994881, "status": "disappeared" }, "geometry": { "type": "LineString", "coordinates": [ [ 144.970431661572917, -37.680730392464689 ], [ 144.970460511030154, -37.680615965967789 ] ] } },
{ "type": "Feature", "properties": { "gid": 1238, "fclass": "primary", "length": 5.679933177819894, "status": "disappeared" }, "geometry": { "type": "LineString", "coordinates": [ [ 144.943912488083981, -37.667194821581312 ], [ 144.9438836545161, -37.667240581756737 ] ] } },
{ "type": "Feature", "properties": { "gid": 1250, "fclass": "tertiary", "length": 35.45215728885794, "status": "disappeared" }, "geometry": { "type": "LineString", "coordinates": [ [ 144.936916708175403, -37.698706336431037 ], [ 144.937125654253606, -37.698632064908196 ], [ 144.937176183835959, -37.698500493628273 ] ] } },
{ "type": "Feature", "properties": { "gid": 1252, "fclass": "tertiary", "length": 23.96717375641661, "status": "disappeared" }, "geometry": { "type": "LineString", "coordinates": [ [ 144.956265239924733, -37.671159390027903 ], [ 144.956034897322809, -37.671044871661095 ] ] } },
{ "type": "Feature", "properties": { "gid": 1316, "fclass": "tertiary", "length": 18.49187290742184, "status": "disappeared" }, "geometry": { "type": "LineString", "coordinates": [ [ 144.963856135928182, -37.697550276713649 ], [ 144.96379843688797, -37.697710465327589 ] ] } },
{ "type": "Feature", "properties": { "gid": 1318, "fclass": "tertiary", "length": 34.04243255446265, "status": "disappeared" }, "geometry": { "type": "LineString", "coordinates": [ [ 144.940280087035603, -37.671816203429529 ], [ 144.940438527295214, -37.671774799997628 ], [ 144.940510660035699, -37.671610336947779 ] ] } },
{ "type": "Feature", "properties": { "gid": 1322, "fclass": "tertiary", "length": 29.638701158154451, "status": "disappeared" }, "geometry": { "type": "LineString", "coordinates": [ [ 144.939444755348603, -37.671930218007745 ], [ 144.939572653060537, -37.67181584859425 ], [ 144.939704095843922, -37.671770141233978 ] ] } },
{ "type": "Feature", "properties": { "gid": 1323, "fclass": "tertiary", "length": 16.480712546834081, "status": "disappeared" }, "geometry": { "type": "LineString", "coordinates": [ [ 144.959084843237434, -37.676538780377882 ], [ 144.959160443102832, -37.676554540825826 ], [ 144.959257674664485, -37.676515952532149 ] ] } },
{ "type": "Feature", "properties": { "gid": 1328, "fclass": "tertiary", "length": 12.955023065105172, "status": "disappeared" }, "geometry": { "type": "LineString", "coordinates": [ [ 144.95734968600101, -37.688896996589278 ], [ 144.957493712585944, -37.688919934432384 ] ] } },
{ "type": "Feature", "properties": { "gid": 1329, "fclass": "tertiary", "length": 21.022659503563212, "status": "disappeared" }, "geometry": { "type": "LineString", "coordinates": [ [ 144.95734968600101, -37.688896996589278 ], [ 144.957263218700518, -37.688974208226533 ], [ 144.957234363884282, -37.689057162042808 ] ] } },
{ "type": "Feature", "properties": { "gid": 1331, "fclass": "tertiary", "length": 28.968060850402072, "status": "disappeared" }, "geometry": { "type": "LineString", "coordinates": [ [ 144.964391899185927, -37.661091868703551 ], [ 144.964075161414598, -37.661023113428641 ] ] } },
{ "type": "Feature", "properties": { "gid": 1345, "fclass": "tertiary", "length": 28.968060850402072, "status": "disappeared" }, "geometry": { "type": "LineString", "coordinates": [ [ 144.941835467303179, -37.671679648068348 ], [ 144.941518599592541, -37.671748154174452 ] ] } },
{ "type": "Feature", "properties": { "gid": 1347, "fclass": "tertiary", "length": 16.06482379693329, "status": "disappeared" }, "geometry": { "type": "LineString", "coordinates": [ [ 144.943826004264537, -37.667309215252011 ], [ 144.943883705430153, -37.66717192125661 ] ] } },
{ "type": "Feature", "properties": { "gid": 1359, "fclass": "tertiary", "length": 14.81369037772458, "status": "disappeared" }, "geometry": { "type": "LineString", "coordinates": [ [ 144.963424178410264, -37.697115300624077 ], [ 144.963568200439283, -37.697184004246509 ] ] } },
{ "type": "Feature", "properties": { "gid": 1361, "fclass": "tertiary", "length": 56.123439485929822, "status": "disappeared" }, "geometry": { "type": "LineString", "coordinates": [ [ 144.95106947763216, -37.689031915991244 ], [ 144.951015412732801, -37.689109136347774 ], [ 144.951017168776104, -37.689177797020669 ], [ 144.951213222149903, -37.689489707628518 ] ] } },
{ "type": "Feature", "properties": { "gid": 1365, "fclass": "tertiary", "length": 38.195298185564177, "status": "disappeared" }, "geometry": { "type": "LineString", "coordinates": [ [ 144.959682173658621, -37.690682962613899 ], [ 144.959250057450049, -37.690659929770781 ] ] } },
{ "type": "Feature", "properties": { "gid": 1372, "fclass": "tertiary", "length": 50.806697518234728, "status": "disappeared" }, "geometry": { "type": "LineString", "coordinates": [ [ 144.964500647252237, -37.674824000475738 ], [ 144.964302441570425, -37.67522302965434 ], [ 144.964270032472285, -37.675235893799027 ] ] } },
{ "type": "Feature", "properties": { "gid": 1384, "fclass": "tertiary", "length": 99.721539720024495, "status": "disappeared" }, "geometry": { "type": "LineString", "coordinates": [ [ 144.965968341190745, -37.677570837911766 ], [ 144.965943080115494, -37.677699568697804 ], [ 144.966047393131817, -37.677922744104855 ], [ 144.965939247856426, -37.678214519409629 ], [ 144.965939146118444, -37.678440525973222 ] ] } },
{ "type": "Feature", "properties": { "gid": 1390, "fclass": "tertiary", "length": 27.849839488076825, "status": "disappeared" }, "geometry": { "type": "LineString", "coordinates": [ [ 144.93720566033852, -37.697699478937132 ], [ 144.937310046544724, -37.697765332515665 ], [ 144.937263111982389, -37.697905488237623 ] ] } },
{ "type": "Feature", "properties": { "gid": 1413, "fclass": "tertiary", "length": 23.58536626480139, "status": "disappeared" }, "geometry": { "type": "LineString", "coordinates": [ [ 144.933489880783156, -37.663939553164482 ], [ 144.933554579188069, -37.664051162571859 ], [ 144.933662550719362, -37.664076970158497 ] ] } },
{ "type": "Feature", "properties": { "gid": 1426, "fclass": "tertiary", "length": 38.836944527423057, "status": "disappeared" }, "geometry": { "type": "LineString", "coordinates": [ [ 144.968034957039407, -37.694713527444598 ], [ 144.967894507777345, -37.694713489889438 ], [ 144.96784049977623, -37.694687727977502 ], [ 144.967804516378635, -37.694619058507186 ], [ 144.967833373889874, -37.694507494070237 ] ] } },
{ "type": "Feature", "properties": { "gid": 1447, "fclass": "tertiary", "length": 26.638701467303683, "status": "disappeared" }, "geometry": { "type": "LineString", "coordinates": [ [ 144.970431733124769, -37.680547298696119 ], [ 144.970458687277585, -37.68067604316645 ], [ 144.970402838886656, -37.68077615879097 ] ] } },
{ "type": "Feature", "properties": { "gid": 1450, "fclass": "tertiary", "length": 12.951650123086232, "status": "disappeared" }, "geometry": { "type": "LineString", "coordinates": [ [ 144.947094206177553, -37.688709813185717 ], [ 144.947123093974454, -37.688595392658073 ] ] } },
{ "type": "Feature", "properties": { "gid": 1468, "fclass": "tertiary", "length": 21.342502245656782, "status": "disappeared" }, "geometry": { "type": "LineString", "coordinates": [ [ 144.969803875160352, -37.665899598382765 ], [ 144.969825505310979, -37.665822360716014 ], [ 144.969775149150905, -37.665716496332962 ] ] } }
]
}
