{
"type": "FeatureCollection",
"crs": { "type": "name", "properties": { "name": "urn:ogc:def:crs:OGC:1.3:CRS84" } },
"features": [
{ "type": "Feature", "properties": { "gid": 7, "fclass": "residential", "length": 34.657214208309384, "status": "disappeared" }, "geometry": { "type": "LineString", "coordinates": [ [ 144.822095397123576, -37.66487867560555 ], [ 144.822257339409305, -37.664900372534376 ], [ 144.822469887584532, -37.664833457547843 ] ] } },
{ "type": "Feature", "properties": { "gid": 11, "fclass": "residential", "length": 554.83587917649822, "status": "disappeared" }, "geometry": { "type": "LineString", "coordinates": [ [ 144.831826205742033, -37.66631172279056 ], [ 144.83164652865284, -37.666168427333446 ], [ 144.831484686074987, -37.666099539064355 ], [ 144.831382289829492, -37.666009277834917 ], [ 144.83116835475974, -37.665893111578228 ], [ 144.830607214368996, -37.665694919799968 ], [ 144.830002643945733, -37.665601085158784 ], [ 144.825838701494888, -37.665113046890653 ] ] } },
{ "type": "Feature", "properties": { "gid": 21, "fclass": "residential", "length": 221.20626306582116, "status": "disappeared" }, "geometry": { "type": "LineString", "coordinates": [ [ 144.833345761868827, -37.669403574030298 ], [ 144.833277518429412, -37.66933195763032 ], [ 144.833076824351224, -37.668919714667915 ], [ 144.832553992588402, -37.667665929043565 ], [ 144.832543502873733, -37.667525732301513 ] ] } },
{ "type": "Feature", "properties": { "gid": 42, "fclass": "residential", "length": 50.920646835904925, "status": "disappeared" }, "geometry": { "type": "LineString", "coordinates": [ [ 144.8232771592414, -37.664445574263993 ], [ 144.823325626532608, -37.664501432595458 ], [ 144.823247872944222, -37.664654374000307 ], [ 144.823247345088248, -37.664880381334768 ] ] } },
{ "type": "Feature", "properties": { "gid": 48, "fclass": "residential", "length": 46.621898065608647, "status": "disappeared" }, "geometry": { "type": "LineString", "coordinates": [ [ 144.804240289978594, -37.69821971972712 ], [ 144.804024797554717, -37.697990501250658 ], [ 144.803866454122044, -37.69794446890284 ] ] } },
{ "type": "Feature", "properties": { "gid": 49, "fclass": "residential", "length": 169.2806998017077, "status": "disappeared" }, "geometry": { "type": "LineString", "coordinates": [ [ 144.840786058156141, -37.692140241770801 ], [ 144.840948524285636, -37.691943060172562 ], [ 144.841102293229909, -37.691599964357231 ], [ 144.841337121389557, -37.691239810687037 ], [ 144.841538018733814, -37.690745152472317 ] ] } },
{ "type": "Feature", "properties": { "gid": 53, "fclass": "residential", "length": 250.37645617719627, "status": "disappeared" }, "geometry": { "type": "LineString", "coordinates": [ [ 144.831068842237784, -37.670155650114971 ], [ 144.830107801554618, -37.67007275629971 ], [ 144.83001402262056, -37.670151296777476 ], [ 144.829946726655265, -37.670460173683985 ], [ 144.829946302342847, -37.670648989555048 ], [ 144.829987539735328, -37.670721999915578 ], [ 144.830761353509445, -37.670817504095446 ], [ 144.830980957661268, -37.670819244637173 ] ] } },
{ "type": "Feature", "properties": { "gid": 63, "fclass": "residential", "length": 23.423938893101752, "status": "disappeared" }, "geometry": { "type": "LineString", "coordinates": [ [ 144.837037606116041, -37.680279887003671 ], [ 144.83729694566432, -37.680234466033539 ] ] } },
{ "type": "Feature", "properties": { "gid": 78, "fclass": "motorway", "length": 94.436171723360076, "status": "disappeared" }, "geometry": { "type": "LineString", "coordinates": [ [ 144.8030919454784, -37.696638660794761 ], [ 144.802957868472305, -37.696955992366313 ], [ 144.802830500951046, -37.697462149458033 ] ] } },
{ "type": "Feature", "properties": { "gid": 82, "fclass": "trunk", "length": 133.2622713571985, "status": "disappeared" }, "geometry": { "type": "LineString", "coordinates": [ [ 144.824214829071735, -37.694703264354381 ], [ 144.824312092901522, -37.694690533290832 ], [ 144.82438246682824, -37.694626267795577 ], [ 144.824480975102233, -37.694077132741512 ], [ 144.824560679789641, -37.693871269676841 ], [ 144.824591907046425, -37.69360525812445 ] ] } },
{ "type": "Feature", "properties": { "gid": 87, "fclass": "trunk", "length": 66.166607867238795, "status": "disappeared" }, "geometry": { "type": "LineString", "coordinates": [ [ 144.802193784297913, -37.698559657728651 ], [ 144.802377595939703, -37.698507035755746 ], [ 144.802447950957912, -37.698458517721363 ], [ 144.802419853100474, -37.698185262387618 ], [ 144.80236784925367, -37.698102212621521 ] ] } },
{ "type": "Feature", "properties": { "gid": 92, "fclass": "primary", "length": 28.70926537829375, "status": "disappeared" }, "geometry": { "type": "LineString", "coordinates": [ [ 144.800205790240057, -37.698556359113866 ], [ 144.800328412828861, -37.698490764507767 ], [ 144.800350391422739, -37.698350620598291 ] ] } },
{ "type": "Feature", "properties": { "gid": 98, "fclass": "primary", "length": 21.707137486826038, "status": "disappeared" }, "geometry": { "type": "LineString", "coordinates": [ [ 144.841567498307882, -37.690424778113474 ], [ 144.84179782219698, -37.690493742498909 ] ] } },
{ "type": "Feature", "properties": { "gid": 99, "fclass": "primary", "length": 19.940505697608423, "status": "disappeared" }, "geometry": { "type": "LineString", "coordinates": [ [ 144.836722089364656, -37.679661514768171 ], [ 144.836653833477556, -37.679589900567485 ], [ 144.836636022267754, -37.679501190061409 ] ] } },
{ "type": "Feature", "properties": { "gid": 101, "fclass": "primary", "length": 26.061858319395647, "status": "disappeared" }, "geometry": { "type": "LineString", "coordinates": [ [ 144.832825786827499, -37.670112341724959 ], [ 144.832852503121643, -37.670241117529613 ], [ 144.832940534878247, -37.670318483462403 ] ] } },
{ "type": "Feature", "properties": { "gid": 103, "fclass": "primary", "length": 18.961934451014585, "status": "disappeared" }, "geometry": { "type": "LineString", "coordinates": [ [ 144.834148662617395, -37.67100676784073 ], [ 144.834191704325974, -37.671079779236607 ], [ 144.834292417215323, -37.671121401018475 ] ] } },
{ "type": "Feature", "properties": { "gid": 108, "fclass": "primary", "length": 28.824534175419274, "status": "disappeared" }, "geometry": { "type": "LineString", "coordinates": [ [ 144.839035083235729, -37.689139748415002 ], [ 144.839218724752499, -37.689144286276999 ], [ 144.839351873411232, -37.689185947013442 ] ] } },
{ "type": "Feature", "properties": { "gid": 110, "fclass": "tertiary", "length": 32.108888745153067, "status": "disappeared" }, "geometry": { "type": "LineString", "coordinates": [ [ 144.800379323644165, -37.698304895568576 ], [ 144.800332029366842, -37.698485048880471 ], [ 144.800234601746922, -37.698556407155458 ] ] } },
{ "type": "Feature", "properties": { "gid": 111, "fclass": "tertiary", "length": 35.55691878969175, "status": "disappeared" }, "geometry": { "type": "LineString", "coordinates": [ [ 144.832969386170276, -37.670295636856949 ], [ 144.832883012303341, -37.670282642514245 ], [ 144.832836429096432, -37.670183877977912 ], [ 144.832883539849462, -37.670043761780938 ] ] } },
{ "type": "Feature", "properties": { "gid": 112, "fclass": "tertiary", "length": 25.486100063889971, "status": "disappeared" }, "geometry": { "type": "LineString", "coordinates": [ [ 144.834177563959543, -37.670961034179655 ], [ 144.83415763159249, -37.67102108453517 ], [ 144.834184519731735, -37.671072617152703 ], [ 144.834321268405375, -37.6710985540942 ] ] } },
{ "type": "Feature", "properties": { "gid": 117, "fclass": "tertiary", "length": 19.34867448478575, "status": "disappeared" }, "geometry": { "type": "LineString", "coordinates": [ [ 144.841769061605874, -37.690470817846681 ], [ 144.841567546237542, -37.690401891507584 ] ] } },
{ "type": "Feature", "properties": { "gid": 132, "fclass": "tertiary", "length": 27.029177507884008, "status": "disappeared" }, "geometry": { "type": "LineString", "coordinates": [ [ 144.836750943077448, -37.679638667331844 ], [ 144.83665378406846, -37.679612787264894 ], [ 144.836635966676454, -37.679526937596833 ], [ 144.836664925351045, -37.679455455945806 ] ] } },
{ "type": "Feature", "properties": { "gid": 138, "fclass": "tertiary", "length": 28.824534175419274, "status": "disappeared" }, "geometry": { "type": "LineString", "coordinates": [ [ 144.839035083235729, -37.689139748415002 ], [ 144.839218724752499, -37.689144286276999 ], [ 144.839351873411232, -37.689185947013442 ] ] } },
{ "type": "Feature", "properties": { "gid": 139, "fclass": "unclassified", "length": 788.94067645895689, "status": "disappeared" }, "geometry": { "type": "LineString", "coordinates": [ [ 144.831883753397307, -37.666334690469299 ], [ 144.831786632210651, -37.666300223772026 ], [ 144.831290610579543, -37.665956222799181 ], [ 144.830945388691106, -37.665791236488815 ], [ 144.830254577250059, -37.665627190262015 ], [ 144.825914295027673, -37.665114587231919 ], [ 144.823862867364511, -37.664902744682934 ], [ 144.823276304123539, -37.664811763381984 ] ] } },
{ "type": "Feature", "properties": { "gid": 149, "fclass": "unclassified", "length": 117.9644748809062, "status": "disappeared" }, "geometry": { "type": "LineString", "coordinates": [ [ 144.826103160705884, -37.687885793048515 ], [ 144.824821480553794, -37.687775213855012 ], [ 144.82477822967499, -37.687792315624712 ] ] } },
{ "type": "Feature", "properties": { "gid": 156, "fclass": "unclassified", "length": 692.58885183556663, "status": "disappeared" }, "geometry": { "type": "LineString", "coordinates": [ [ 144.814782433250315, -37.664089433858074 ], [ 144.815030815902958, -37.664091248187191 ], [ 144.822556015314234, -37.664948019678285 ] ] } },
{ "type": "Feature", "properties": { "gid": 163, "fclass": "unclassified", "length": 55.895765472203493, "status": "disappeared" }, "geometry": { "type": "LineString", "coordinates": [ [ 144.799024457684453, -37.698577269959458 ], [ 144.799658311002219, -37.698578331523372 ] ] } },
{ "type": "Feature", "properties": { "gid": 164, "fclass": "unclassified", "length": 493.64113403204766, "status": "disappeared" }, "geometry": { "type": "LineString", "coordinates": [ [ 144.81771970422966, -37.664162601412059 ], [ 144.817816795604585, -37.664205662102084 ], [ 144.818162263466405, -37.664253391399392 ], [ 144.823247505449871, -37.664811720880735 ] ] } },
{ "type": "Feature", "properties": { "gid": 176, "fclass": "unclassified", "length": 241.09920993493643, "status": "disappeared" }, "geometry": { "type": "LineString", "coordinates": [ [ 144.841599852814312, -37.688731206836593 ], [ 144.838891287214011, -37.689025121707651 ] ] } },
{ "type": "Feature", "properties": { "gid": 179, "fclass": "unclassified", "length": 582.14551070187542, "status": "disappeared" }, "geometry": { "type": "LineString", "coordinates": [ [ 144.841538114611382, -37.690699379265972 ], [ 144.841527113648539, -37.690793772212977 ], [ 144.841317207364881, -37.691291279300749 ], [ 144.840872647891302, -37.692063114355413 ], [ 144.840704761521977, -37.692268871130487 ], [ 144.840558662035335, -37.692388831707582 ], [ 144.839985292913696, -37.692759975334013 ], [ 144.839621956605356, -37.693428923908328 ], [ 144.839194010676607, -37.693994794641505 ], [ 144.838956049743217, -37.694126073177401 ], [ 144.838523752508678, -37.694195581623759 ], [ 144.838264469814533, -37.694192371045496 ], [ 144.838026923174766, -37.694129111869564 ], [ 144.83790823888728, -37.6940560001918 ], [ 144.83784547497288, -37.693935760400066 ], [ 144.837872809085269, -37.693784173398448 ] ] } },
{ "type": "Feature", "properties": { "gid": 181, "fclass": "unclassified", "length": 254.0825850383157, "status": "disappeared" }, "geometry": { "type": "LineString", "coordinates": [ [ 144.830980957661268, -37.670819244637173 ], [ 144.829976761885348, -37.670711971621429 ], [ 144.829922914472291, -37.670643234633772 ], [ 144.829946778086878, -37.670437286910833 ], [ 144.830003312329666, -37.670111229590148 ], [ 144.83005740357774, -37.670071254369553 ], [ 144.831068842237784, -37.670155650114971 ] ] } }
]
}
