{
"type": "FeatureCollection",
"crs": { "type": "name", "properties": { "name": "urn:ogc:def:crs:OGC:1.3:CRS84" } },
"features": [
{ "type": "Feature", "properties": { "gid": 4776, "osm_id": "33113209", "code": 5122.0, "fclass": "residential", "name": "Hedley Street", "pixel_count": 211, "Var_line": 44.018466949462891, "Edge_contrast": 21.923654556274414, "ROI": 22123.666666666672, "Road_detected": -1, "ROI_norm": 0.93803635323687895, "Pred": 0 }, "geometry": { "type": "LineString", "coordinates": [ [ 144.96315475031372, -37.693534163331471 ], [ 144.962724350234424, -37.693488663361173 ], [ 144.96213445012512, -37.693420263401926 ], [ 144.961095749932895, -37.693303263473624 ], [ 144.9602380497723, -37.693189363532959 ], [ 144.960114149750041, -37.693181963541477 ], [ 144.960022649734128, -37.693181063547748 ], [ 144.959608549666626, -37.693219063575796 ], [ 144.959007449567707, -37.693264763616575 ] ] } },
{ "type": "Feature", "properties": { "gid": 20676, "osm_id": "134469771", "code": 5121.0, "fclass": "unclassified", "name": "Park Street", "pixel_count": 110, "Var_line": 23.056634902954102, "Edge_contrast": 34.68878173828125, "ROI": 9370.6666666666679, "Road_detected": -1, "ROI_norm": -0.17580824614452636, "Pred": 0 }, "geometry": { "type": "LineString", "coordinates": [ [ 144.94388594601125, -37.684546164703541 ], [ 144.943780446058383, -37.685151464706969 ], [ 144.943564346160002, -37.686436864713734 ], [ 144.94355654616362, -37.686482464713976 ], [ 144.943286946291551, -37.688097264722352 ] ] } },
{ "type": "Feature", "properties": { "gid": 20756, "osm_id": "293135237", "code": 5121.0, "fclass": "unclassified", "name": "3rd Street", "pixel_count": 50, "Var_line": 47.963798522949219, "Edge_contrast": 11.087082862854004, "ROI": 7039.9999999999991, "Road_detected": -1, "ROI_norm": -0.37936823043253154, "Pred": 0 }, "geometry": { "type": "LineString", "coordinates": [ [ 144.945655546404595, -37.685356164577705 ], [ 144.943780446058383, -37.685151464706969 ] ] } },
{ "type": "Feature", "properties": { "gid": 20791, "osm_id": "33810559", "code": 5115.0, "fclass": "tertiary", "name": null, "pixel_count": 302, "Var_line": 40.732208251953125, "Edge_contrast": 35.865875244140625, "ROI": 9291.0000000000018, "Road_detected": -1, "ROI_norm": -0.18276631768984, "Pred": 0 }, "geometry": { "type": "LineString", "coordinates": [ [ 144.935635043226142, -37.671962865344902 ], [ 144.93554174320451, -37.671911865351589 ], [ 144.935475743183702, -37.671824965356649 ], [ 144.935463743171056, -37.671726665358058 ], [ 144.935475843168462, -37.671683665357513 ], [ 144.935569043173075, -37.671577265351836 ], [ 144.935629043180285, -37.671548065347913 ], [ 144.935727743195201, -37.671528065341306 ], [ 144.935829743213787, -37.671536865334282 ], [ 144.93591314323163, -37.671568865328375 ], [ 144.935995643253534, -37.671639765322318 ], [ 144.936033243275062, -37.67177866531889 ], [ 144.936012743278326, -37.671841765319876 ], [ 144.93592354327285, -37.671933965325415 ], [ 144.935823843259868, -37.671973265331957 ], [ 144.93572604324379, -37.671980665338594 ], [ 144.935635043226142, -37.671962865344902 ] ] } },
{ "type": "Feature", "properties": { "gid": 24467, "osm_id": "801334916", "code": 5122.0, "fclass": "residential", "name": null, "pixel_count": 50, "Var_line": 11.351936340332031, "Edge_contrast": 11.817930221557617, "ROI": 2691.3333333333339, "Road_detected": -1, "ROI_norm": -0.7591799516884401, "Pred": 0 }, "geometry": { "type": "LineString", "coordinates": [ [ 144.956002946468374, -37.669410263970171 ], [ 144.955973546504339, -37.669790063969877 ] ] } },
{ "type": "Feature", "properties": { "gid": 24552, "osm_id": "202339377", "code": 5122.0, "fclass": "residential", "name": "Somerset Road", "pixel_count": 220, "Var_line": 17.828807830810547, "Edge_contrast": 24.701345443725586, "ROI": 12652.333333333332, "Road_detected": -1, "ROI_norm": 0.11081189763628138, "Pred": 0 }, "geometry": { "type": "LineString", "coordinates": [ [ 144.956647747578842, -37.678649563868682 ], [ 144.9568785476161, -37.678625063853069 ], [ 144.957474347712179, -37.678561963812747 ], [ 144.957778547761251, -37.678529763792163 ], [ 144.958138147819255, -37.678491663767844 ], [ 144.95889104794071, -37.678411863716889 ], [ 144.959014447960669, -37.678399163708534 ], [ 144.959132447981489, -37.678403363700454 ], [ 144.959770848099566, -37.678475563656406 ] ] } },
{ "type": "Feature", "properties": { "gid": 24666, "osm_id": "800567398", "code": 5121.0, "fclass": "unclassified", "name": "Barry Road", "pixel_count": 85, "Var_line": 41.311237335205078, "Edge_contrast": 5.0532293319702148, "ROI": 2827.3333333333339, "Road_detected": -1, "ROI_norm": -0.74730173750229789, "Pred": 0 }, "geometry": { "type": "LineString", "coordinates": [ [ 144.967167548286341, -37.668391863213571 ], [ 144.967072348267124, -37.668366063220255 ], [ 144.966948548241874, -37.668330263228924 ], [ 144.966837948219222, -37.66829776323673 ] ] } },
{ "type": "Feature", "properties": { "gid": 25253, "osm_id": "590956889", "code": 5122.0, "fclass": "residential", "name": "Merlynston Close", "pixel_count": 75, "Var_line": 32.102313995361328, "Edge_contrast": 28.933620452880859, "ROI": 3373.833333333333, "Road_detected": -1, "ROI_norm": -0.69957053123224877, "Pred": 0 }, "geometry": { "type": "LineString", "coordinates": [ [ 144.937493144117411, -37.677242565185345 ], [ 144.938111744232771, -37.677321365142589 ], [ 144.938753344352477, -37.677403165098333 ] ] } },
{ "type": "Feature", "properties": { "gid": 25259, "osm_id": "590956890", "code": 5122.0, "fclass": "residential", "name": "Dhemre Place", "pixel_count": 87, "Var_line": 13.993378639221191, "Edge_contrast": 9.1474924087524414, "ROI": 2914.166666666667, "Road_detected": -1, "ROI_norm": -0.73971773065060664, "Pred": 0 }, "geometry": { "type": "LineString", "coordinates": [ [ 144.938111744232771, -37.677321365142589 ], [ 144.938008444271162, -37.677841965146428 ], [ 144.938005144274172, -37.67787476514642 ], [ 144.938010144279531, -37.677916665145794 ], [ 144.938023344289775, -37.677990065144449 ] ] } },
{ "type": "Feature", "properties": { "gid": 25308, "osm_id": "33810506", "code": 5115.0, "fclass": "tertiary", "name": "Blair Street", "pixel_count": 20, "Var_line": 59.0689697265625, "Edge_contrast": 9.2616815567016602, "ROI": 10191.666666666668, "Road_detected": -1, "ROI_norm": -0.10410226197671225, "Pred": 0 }, "geometry": { "type": "LineString", "coordinates": [ [ 144.929564042541983, -37.67533976573808 ], [ 144.929825742551031, -37.675005165722311 ], [ 144.930153442561959, -37.67458166570259 ], [ 144.930564042579221, -37.674084865677663 ], [ 144.930773242585417, -37.673807565665136 ], [ 144.930933742590213, -37.673594765655508 ], [ 144.931137542596218, -37.673324565643291 ], [ 144.931144842596439, -37.673314865642844 ], [ 144.931497042606878, -37.672847865621748 ], [ 144.931564242608886, -37.672758865617702 ], [ 144.931622842607908, -37.672656165614313 ], [ 144.931657742600379, -37.672530265612714 ], [ 144.931663342597716, -37.672496865612572 ], [ 144.931739042562242, -37.672047365610226 ] ] } },
{ "type": "Feature", "properties": { "gid": 25311, "osm_id": "33810561", "code": 5115.0, "fclass": "tertiary", "name": "Lismore Street", "pixel_count": 125, "Var_line": 31.806709289550781, "Edge_contrast": 19.29975700378418, "ROI": 17706.666666666664, "Road_detected": -1, "ROI_norm": 0.55225641161783445, "Pred": 0 }, "geometry": { "type": "LineString", "coordinates": [ [ 144.935475843168462, -37.671683665357513 ], [ 144.934720243019768, -37.671515265410108 ], [ 144.933649642807467, -37.671261865484709 ], [ 144.93309514270419, -37.671192565522993 ], [ 144.93202454250391, -37.671050265596911 ] ] } },
{ "type": "Feature", "properties": { "gid": 28933, "osm_id": "33198942", "code": 5122.0, "fclass": "residential", "name": "Sandra Avenue", "pixel_count": 50, "Var_line": 66.236061096191406, "Edge_contrast": 23.885770797729492, "ROI": 14125.333333333334, "Road_detected": -1, "ROI_norm": 0.2394634380494243, "Pred": 0 }, "geometry": { "type": "LineString", "coordinates": [ [ 144.962543150481252, -37.69605866335754 ], [ 144.960267850061854, -37.695817263514591 ] ] } },
{ "type": "Feature", "properties": { "gid": 28970, "osm_id": "202339376", "code": 5122.0, "fclass": "residential", "name": "Somerset Road", "pixel_count": 75, "Var_line": 30.320804595947266, "Edge_contrast": 30.779928207397461, "ROI": 8735.5, "Road_detected": -1, "ROI_norm": -0.23128358225161938, "Pred": 0 }, "geometry": { "type": "LineString", "coordinates": [ [ 144.969153249833994, -37.679524263008567 ], [ 144.970045449998622, -37.679621762946951 ], [ 144.970305050049319, -37.679675162928916 ] ] } },
{ "type": "Feature", "properties": { "gid": 28987, "osm_id": "242714225", "code": 5115.0, "fclass": "tertiary", "name": "Kyabram Street", "pixel_count": 50, "Var_line": 56.921161651611328, "Edge_contrast": 41.499923706054688, "ROI": 1582.3333333333333, "Road_detected": -1, "ROI_norm": -0.85603980119161405, "Pred": 0 }, "geometry": { "type": "LineString", "coordinates": [ [ 144.937908642748425, -37.663902865239926 ], [ 144.938059542770191, -37.66386306522984 ] ] } },
{ "type": "Feature", "properties": { "gid": 28994, "osm_id": "255532499", "code": 5122.0, "fclass": "residential", "name": "Jeffrey Street", "pixel_count": 50, "Var_line": 82.728462219238281, "Edge_contrast": 32.010791778564453, "ROI": 3167.9999999999995, "Road_detected": -1, "ROI_norm": -0.71754797549681437, "Pred": 0 }, "geometry": { "type": "LineString", "coordinates": [ [ 144.960690349461572, -37.689595963524383 ], [ 144.960647649421531, -37.689293863529187 ] ] } },
{ "type": "Feature", "properties": { "gid": 34535, "osm_id": "31149561", "code": 5115.0, "fclass": "tertiary", "name": "McBryde Street", "pixel_count": 45, "Var_line": 48.775272369384766, "Edge_contrast": 30.000068664550781, "ROI": 1578.0000000000002, "Road_detected": -1, "ROI_norm": -0.85641827370244716, "Pred": 0 }, "geometry": { "type": "LineString", "coordinates": [ [ 144.974712254762267, -37.716154062400683 ], [ 144.974790354721307, -37.71565126239846 ], [ 144.974929254657155, -37.71483786239402 ], [ 144.974890054646266, -37.714799962396938 ], [ 144.974934754648984, -37.714753762394167 ], [ 144.974950254645933, -37.714700762393448 ], [ 144.975223454522478, -37.713125462384546 ], [ 144.975359354466065, -37.712388162379817 ], [ 144.97536365446183, -37.712342262379799 ], [ 144.975357254457037, -37.71230836238049 ], [ 144.975314354445743, -37.712272662383619 ], [ 144.975355154450057, -37.712247262380984 ], [ 144.975380854451203, -37.712216662379404 ], [ 144.975404454449404, -37.712162362378145 ], [ 144.97562455434786, -37.710873862371088 ], [ 144.975786854272968, -37.709923962365899 ], [ 144.975911454227571, -37.709306262361238 ], [ 144.975943854211891, -37.709110062360246 ], [ 144.976067254152326, -37.708363462356431 ], [ 144.97606105414684, -37.708322562357111 ], [ 144.976037454139828, -37.708295362358875 ], [ 144.976015954134255, -37.70827836236046 ], [ 144.976058954138381, -37.708247862357709 ], [ 144.976095354138408, -37.708190062355563 ], [ 144.976110454136233, -37.708145962354841 ], [ 144.97619425410312, -37.707706662351818 ], [ 144.976349454027854, -37.706764362347073 ], [ 144.976427153990102, -37.706291862344699 ], [ 144.976608353975564, -37.705868562334906 ], [ 144.976739153960182, -37.705518062328103 ], [ 144.977039553931377, -37.704772762312238 ], [ 144.97705245392865, -37.704726962311639 ], [ 144.977063153919261, -37.704623362311565 ], [ 144.977063153916163, -37.704594562311698 ], [ 144.977029653838571, -37.703931762318135 ], [ 144.976994453756532, -37.703231262324891 ], [ 144.976994453750279, -37.70317356232529 ], [ 144.977003053746643, -37.703125962324968 ], [ 144.977020953739952, -37.703035762324312 ], [ 144.977162453680023, -37.702257162319455 ], [ 144.977272353628507, -37.701606162316025 ], [ 144.977304753613311, -37.701414262315012 ], [ 144.977445953546123, -37.700568762310581 ], [ 144.977589053477629, -37.699708062306122 ], [ 144.977713953417918, -37.698957762302271 ], [ 144.977565353305295, -37.698155562317424 ], [ 144.977491253282039, -37.698059362323079 ], [ 144.977275353224428, -37.697872162339031 ], [ 144.976824553104223, -37.697481562372296 ], [ 144.976650853058942, -37.697340962385034 ], [ 144.976056852905202, -37.696869562428617 ], [ 144.975934852876605, -37.696800262437378 ], [ 144.97586955286323, -37.696781162441951 ], [ 144.975706352830173, -37.696736362453393 ] ] } },
{ "type": "Feature", "properties": { "gid": 54873, "osm_id": "235973940", "code": 5122.0, "fclass": "residential", "name": "William Street", "pixel_count": 155, "Var_line": 59.88726806640625, "Edge_contrast": 15.700677871704102, "ROI": 21519.333333333332, "Road_detected": -1, "ROI_norm": 0.8852539946107123, "Pred": 0 }, "geometry": { "type": "LineString", "coordinates": [ [ 144.96834945176397, -37.698634662944677 ], [ 144.968357251761091, -37.698595762944386 ], [ 144.968487651700684, -37.697829762940245 ], [ 144.968539851676468, -37.697522862938563 ], [ 144.968682651611402, -37.696693862933984 ], [ 144.968744651583137, -37.696334062931939 ], [ 144.968826651546806, -37.695867362929249 ] ] } },
{ "type": "Feature", "properties": { "gid": 79600, "osm_id": "215504835", "code": 5115.0, "fclass": "tertiary", "name": "Blair Street", "pixel_count": 50, "Var_line": 77.415679931640625, "Edge_contrast": 14.463234901428223, "ROI": 7012.8333333333339, "Road_detected": -1, "ROI_norm": -0.38174096194275348, "Pred": 0 }, "geometry": { "type": "LineString", "coordinates": [ [ 144.931801742543257, -37.671771065607636 ], [ 144.931911542504139, -37.671233265603497 ] ] } },
{ "type": "Feature", "properties": { "gid": 79646, "osm_id": "233725413", "code": 5121.0, "fclass": "unclassified", "name": "Northcorp Boulevard", "pixel_count": 125, "Var_line": 95.519538879394531, "Edge_contrast": 12.938027381896973, "ROI": 5839.6666666666679, "Road_detected": -1, "ROI_norm": -0.48420511593326165, "Pred": 0 }, "geometry": { "type": "LineString", "coordinates": [ [ 144.949676747281131, -37.687035464292656 ], [ 144.94936294719389, -37.686730264316012 ], [ 144.949201547139921, -37.686488964328525 ], [ 144.949111847102955, -37.686290264335916 ], [ 144.9490480470769, -37.686151764341091 ] ] } },
{ "type": "Feature", "properties": { "gid": 79660, "osm_id": "241578579", "code": 5121.0, "fclass": "unclassified", "name": "Northcorp Boulevard", "pixel_count": 288, "Var_line": 72.247184753417969, "Edge_contrast": 4.3453574180603027, "ROI": 8776.8333333333339, "Road_detected": -1, "ROI_norm": -0.22767353676367416, "Pred": 0 }, "geometry": { "type": "LineString", "coordinates": [ [ 144.949589346727009, -37.682050364329648 ], [ 144.949658946789583, -37.682517964321981 ], [ 144.949684446824364, -37.682798664318476 ], [ 144.949680746840585, -37.682954564317768 ], [ 144.949677446850302, -37.683049964317398 ], [ 144.949670046853726, -37.683093364317656 ], [ 144.949633446870507, -37.68330686431883 ], [ 144.949496646891674, -37.683721464325565 ], [ 144.949429446923119, -37.684119564327695 ], [ 144.94934594696042, -37.684598364330405 ], [ 144.949308846974276, -37.68478556433179 ], [ 144.949219846978451, -37.684966764336728 ] ] } },
{ "type": "Feature", "properties": { "gid": 79664, "osm_id": "241580487", "code": 5122.0, "fclass": "residential", "name": "Sunshine Street", "pixel_count": 75, "Var_line": 88.388832092285156, "Edge_contrast": 21.428001403808594, "ROI": 9413.1666666666661, "Road_detected": -1, "ROI_norm": -0.1720963042113571, "Pred": 0 }, "geometry": { "type": "LineString", "coordinates": [ [ 144.957154648194404, -37.683530863803689 ], [ 144.956906848152954, -37.683543363820554 ], [ 144.955319547865429, -37.68342146392974 ] ] } },
{ "type": "Feature", "properties": { "gid": 79670, "osm_id": "242714102", "code": 5115.0, "fclass": "tertiary", "name": "Kyabram Street", "pixel_count": 50, "Var_line": 46.064212799072266, "Edge_contrast": 42.263481140136719, "ROI": 1875.3333333333333, "Road_detected": -1, "ROI_norm": -0.83044923680529315, "Pred": 0 }, "geometry": { "type": "LineString", "coordinates": [ [ 144.935596141715195, -37.658031265434261 ], [ 144.935756941744017, -37.658041465423203 ] ] } },
{ "type": "Feature", "properties": { "gid": 79676, "osm_id": "242714108", "code": 5115.0, "fclass": "tertiary", "name": "Kyabram Street", "pixel_count": 75, "Var_line": 32.197269439697266, "Edge_contrast": 35.346237182617188, "ROI": 5340.0000000000009, "Road_detected": -1, "ROI_norm": -0.52784590775930851, "Pred": 0 }, "geometry": { "type": "LineString", "coordinates": [ [ 144.936872842241314, -37.660862865329499 ], [ 144.936895442265836, -37.661053465326766 ], [ 144.936861142263865, -37.661090465328904 ], [ 144.936805042257447, -37.661120665332525 ] ] } },
{ "type": "Feature", "properties": { "gid": 172839, "osm_id": "33910766", "code": 5122.0, "fclass": "residential", "name": "Ventnor Crescent", "pixel_count": 25, "Var_line": 11.16060733795166, "Edge_contrast": 49.943527221679688, "ROI": 8614.8333333333321, "Road_detected": -1, "ROI_norm": -0.24182258601481424, "Pred": 0 }, "geometry": { "type": "LineString", "coordinates": [ [ 144.931295340695357, -37.655462065743635 ], [ 144.931619340635365, -37.654388065728213 ], [ 144.931634140632553, -37.654337965727521 ], [ 144.932331640761703, -37.654419065679434 ], [ 144.932506940794156, -37.654439465667366 ], [ 144.932676940825786, -37.654460565655654 ], [ 144.933496640978291, -37.654562165599096 ], [ 144.933651941077159, -37.655230165584307 ] ] } },
{ "type": "Feature", "properties": { "gid": 172925, "osm_id": "242714106", "code": 5115.0, "fclass": "tertiary", "name": "Kyabram Street", "pixel_count": 72, "Var_line": 32.033470153808594, "Edge_contrast": 28.825578689575195, "ROI": 3740.6666666666665, "Road_detected": -1, "ROI_norm": -0.66753137752673541, "Pred": 0 }, "geometry": { "type": "LineString", "coordinates": [ [ 144.935957141833285, -37.658547865406405 ], [ 144.93597584185764, -37.658743565403917 ], [ 144.935941541856806, -37.658790465405964 ], [ 144.935912841854758, -37.658817665407781 ] ] } },
{ "type": "Feature", "properties": { "gid": 179600, "osm_id": "187875131", "code": 5122.0, "fclass": "residential", "name": "Congram Street", "pixel_count": 45, "Var_line": 66.840248107910156, "Edge_contrast": 37.371284484863281, "ROI": 4645.833333333333, "Road_detected": -1, "ROI_norm": -0.58847429266774265, "Pred": 0 }, "geometry": { "type": "LineString", "coordinates": [ [ 144.932676844521382, -37.688687265442745 ], [ 144.932792544539325, -37.688668465434937 ] ] } },
{ "type": "Feature", "properties": { "gid": 179621, "osm_id": "202341818", "code": 5122.0, "fclass": "residential", "name": "Somerset Road", "pixel_count": 50, "Var_line": 17.024936676025391, "Edge_contrast": 17.503307342529297, "ROI": 4829.333333333333, "Road_detected": -1, "ROI_norm": -0.57244743749746985, "Pred": 0 }, "geometry": { "type": "LineString", "coordinates": [ [ 144.959770848099566, -37.678475563656406 ], [ 144.960849148299189, -37.678598663581909 ] ] } },
{ "type": "Feature", "properties": { "gid": 179634, "osm_id": "203834541", "code": 5121.0, "fclass": "unclassified", "name": "Lakeside Drive", "pixel_count": 72, "Var_line": 56.140785217285156, "Edge_contrast": 43.470222473144531, "ROI": 3275.3333333333335, "Road_detected": -1, "ROI_norm": -0.7081735025361825, "Pred": 0 }, "geometry": { "type": "LineString", "coordinates": [ [ 144.949111847102955, -37.686290264335916 ], [ 144.948986347075845, -37.686240664344773 ], [ 144.948766547033131, -37.686196964360015 ] ] } },
{ "type": "Feature", "properties": { "gid": 179736, "osm_id": "287660207", "code": 5121.0, "fclass": "unclassified", "name": "Military Road", "pixel_count": 75, "Var_line": 41.476081848144531, "Edge_contrast": 16.54570198059082, "ROI": 8811.1666666666679, "Road_detected": -1, "ROI_norm": -0.22467486994707447, "Pred": 0 }, "geometry": { "type": "LineString", "coordinates": [ [ 144.942649645022215, -37.677371564832555 ], [ 144.941405044808107, -37.677380064917443 ], [ 144.940938444998636, -37.679889364933672 ] ] } },
{ "type": "Feature", "properties": { "gid": 179763, "osm_id": "801337634", "code": 5122.0, "fclass": "residential", "name": "Princeton Place", "pixel_count": 50, "Var_line": 42.325126647949219, "Edge_contrast": 34.276786804199219, "ROI": 873.66666666666674, "Road_detected": -1, "ROI_norm": -0.91793461334783544, "Pred": 0 }, "geometry": { "type": "LineString", "coordinates": [ [ 144.940270344382242, -37.675252465008121 ], [ 144.940414344408111, -37.675261964998242 ] ] } },
{ "type": "Feature", "properties": { "gid": 183022, "osm_id": "712020257", "code": 5113.0, "fclass": "primary", "name": "Sydney Road", "pixel_count": 71, "Var_line": 125.60955810546875, "Edge_contrast": 17.005334854125977, "ROI": 5169.3333333333339, "Road_detected": -1, "ROI_norm": -0.54275190203211443, "Pred": 0 }, "geometry": { "type": "LineString", "coordinates": [ [ 144.958292649286648, -37.691809263674479 ], [ 144.958237049252631, -37.691583463679663 ], [ 144.958215849236922, -37.691472663681751 ] ] } },
{ "type": "Feature", "properties": { "gid": 183101, "osm_id": "187875129", "code": 5122.0, "fclass": "residential", "name": "Metelman Court", "pixel_count": 50, "Var_line": 77.42529296875, "Edge_contrast": 31.79693603515625, "ROI": 4852.1666666666679, "Road_detected": -1, "ROI_norm": -0.57045317849808075, "Pred": 0 }, "geometry": { "type": "LineString", "coordinates": [ [ 144.933460844894995, -37.690891465375543 ], [ 144.934023045037122, -37.691307165334585 ] ] } },
{ "type": "Feature", "properties": { "gid": 183176, "osm_id": "267201669", "code": 5115.0, "fclass": "tertiary", "name": "Anderson Road", "pixel_count": 139, "Var_line": 13.73572826385498, "Edge_contrast": 40.318336486816406, "ROI": 6872.3333333333339, "Road_detected": -1, "ROI_norm": -0.39401220527476061, "Pred": 0 }, "geometry": { "type": "LineString", "coordinates": [ [ 144.969052151584208, -37.69585286291391 ], [ 144.968932151562711, -37.695845862922184 ], [ 144.968826651546806, -37.695867362929249 ], [ 144.968698651519702, -37.695821762938309 ], [ 144.968038551396688, -37.695739162983926 ], [ 144.96783105135907, -37.695723062998212 ] ] } },
{ "type": "Feature", "properties": { "gid": 234089, "osm_id": "33198936", "code": 5122.0, "fclass": "residential", "name": "Rebecca Close", "pixel_count": 67, "Var_line": 43.219310760498047, "Edge_contrast": 39.797702789306641, "ROI": 4771.333333333333, "Road_detected": -1, "ROI_norm": -0.57751314648861873, "Pred": 0 }, "geometry": { "type": "LineString", "coordinates": [ [ 144.960456750193231, -37.696729863496017 ], [ 144.961075550294311, -37.696675363454027 ], [ 144.961134050308402, -37.696712263449804 ] ] } },
{ "type": "Feature", "properties": { "gid": 251372, "osm_id": "243007231", "code": 5113.0, "fclass": "primary", "name": null, "pixel_count": 50, "Var_line": 0.0, "Edge_contrast": 37.114910125732422, "ROI": 2405.333333333333, "Road_detected": -1, "ROI_norm": -0.7841591374034157, "Pred": 0 }, "geometry": { "type": "LineString", "coordinates": [ [ 144.958007148986667, -37.689492763708344 ], [ 144.95827444903523, -37.689514663689941 ] ] } },
{ "type": "Feature", "properties": { "gid": 251387, "osm_id": "784225244", "code": 5113.0, "fclass": "primary", "name": "Mahoneys Road", "pixel_count": 50, "Var_line": 9.9764528274536133, "Edge_contrast": 39.200599670410156, "ROI": 3741.5, "Road_detected": -1, "ROI_norm": -0.66745859435157517, "Pred": 0 }, "geometry": { "type": "LineString", "coordinates": [ [ 144.95827444903523, -37.689514663689941 ], [ 144.958687949111919, -37.689562963661416 ] ] } },
{ "type": "Feature", "properties": { "gid": 251432, "osm_id": "23229632", "code": 5122.0, "fclass": "residential", "name": "Mahoneys Road", "pixel_count": 122, "Var_line": 39.569091796875, "Edge_contrast": 9.6381559371948242, "ROI": 4767.0, "Road_detected": -1, "ROI_norm": -0.57789161899945174, "Pred": 0 }, "geometry": { "type": "LineString", "coordinates": [ [ 144.966984850652068, -37.690543763088264 ], [ 144.966878350636733, -37.690572063095367 ], [ 144.96678945062618, -37.690616663101174 ], [ 144.966746550626112, -37.690684563103702 ], [ 144.966712250627552, -37.690752463105632 ], [ 144.966703650637811, -37.690861163105524 ] ] } },
{ "type": "Feature", "properties": { "gid": 255450, "osm_id": "545813305", "code": 5113.0, "fclass": "primary", "name": "Camp Road", "pixel_count": 75, "Var_line": 16.571514129638672, "Edge_contrast": 22.880868911743164, "ROI": 6023.5, "Road_detected": -1, "ROI_norm": -0.46814914749292497, "Pred": 0 }, "geometry": { "type": "LineString", "coordinates": [ [ 144.956801448767976, -37.689397563791346 ], [ 144.95695354879598, -37.689413263780843 ], [ 144.957361248871052, -37.689456063752729 ] ] } },
{ "type": "Feature", "properties": { "gid": 3, "osm_id": null, "code": null, "fclass": "residential", "name": null, "pixel_count": 50, "Var_line": 24.287622451782227, "Edge_contrast": 3.4196314811706543, "ROI": 1912.3333333333333, "Road_detected": -1, "ROI_norm": -0.82721766382818085, "Pred": 0 }, "geometry": { "type": "LineString", "coordinates": [ [ 144.940046684040482, -37.675592406564185 ], [ 144.940075686236327, -37.675340666594437 ] ] } },
{ "type": "Feature", "properties": { "gid": 103, "osm_id": null, "code": null, "fclass": "residential", "name": null, "pixel_count": 117, "Var_line": 56.261348724365234, "Edge_contrast": 41.456226348876953, "ROI": 6447.3333333333339, "Road_detected": -1, "ROI_norm": -0.43113162460645488, "Pred": 0 }, "geometry": { "type": "LineString", "coordinates": [ [ 144.949577413779025, -37.680105487614391 ], [ 144.949548717970941, -37.679942407575233 ], [ 144.949549141450007, -37.679307300881639 ], [ 144.94952039160961, -37.679225754767593 ], [ 144.948108994385052, -37.67921227785191 ] ] } },
{ "type": "Feature", "properties": { "gid": 243, "osm_id": null, "code": null, "fclass": "residential", "name": null, "pixel_count": 334, "Var_line": 13.261970520019531, "Edge_contrast": 2.0655319690704346, "ROI": 8985.1666666666679, "Road_detected": -1, "ROI_norm": -0.2094777429736279, "Pred": 0 }, "geometry": { "type": "LineString", "coordinates": [ [ 144.968296022460635, -37.690479572143772 ], [ 144.968369853792069, -37.690456705021589 ], [ 144.968531953278813, -37.690332301611129 ], [ 144.968659861232481, -37.690162115754134 ], [ 144.968784281484034, -37.689715858701895 ], [ 144.968735781140566, -37.689441206301716 ], [ 144.968800648911412, -37.689321068312395 ], [ 144.968768282370348, -37.689218069959338 ], [ 144.968840351889924, -37.689097933815702 ], [ 144.968844023575372, -37.688926284888502 ], [ 144.968682149666989, -37.688514282916792 ], [ 144.968518434191026, -37.688205270140536 ], [ 144.968376262305298, -37.688047886915776 ], [ 144.968268241129579, -37.688030693356808 ] ] } },
{ "type": "Feature", "properties": { "gid": 290, "osm_id": null, "code": null, "fclass": "residential", "name": null, "pixel_count": 50, "Var_line": 31.467815399169922, "Edge_contrast": 26.006088256835938, "ROI": 6548.1666666666661, "Road_detected": -1, "ROI_norm": -0.42232486041207262, "Pred": 0 }, "geometry": { "type": "LineString", "coordinates": [ [ 144.96725898606249, -37.690319086737475 ], [ 144.966740474544281, -37.69022739734536 ] ] } },
{ "type": "Feature", "properties": { "gid": 454, "osm_id": null, "code": null, "fclass": "residential", "name": null, "pixel_count": 112, "Var_line": 14.537493705749512, "Edge_contrast": 3.3333237171173096, "ROI": 4028.6666666666665, "Road_detected": -1, "ROI_norm": -0.64237751219137551, "Pred": 0 }, "geometry": { "type": "LineString", "coordinates": [ [ 144.941606416553299, -37.669917252166549 ], [ 144.941379593620212, -37.669940028179084 ], [ 144.940774833300225, -37.669871070190197 ], [ 144.940724465788747, -37.669828132486359 ], [ 144.940742540108545, -37.669733733298855 ] ] } },
{ "type": "Feature", "properties": { "gid": 536, "osm_id": null, "code": null, "fclass": "residential", "name": null, "pixel_count": 71, "Var_line": 75.500953674316406, "Edge_contrast": 26.525674819946289, "ROI": 4359.6666666666661, "Road_detected": -1, "ROI_norm": -0.61346803501775016, "Pred": 0 }, "geometry": { "type": "LineString", "coordinates": [ [ 144.960346342256429, -37.687685033115251 ], [ 144.960393203750414, -37.687590641130406 ], [ 144.960288823506488, -37.687501920749654 ] ] } },
{ "type": "Feature", "properties": { "gid": 585, "osm_id": null, "code": null, "fclass": "motorway", "name": null, "pixel_count": 86, "Var_line": 37.745182037353516, "Edge_contrast": 16.948760986328125, "ROI": 8507.8333333333339, "Road_detected": -1, "ROI_norm": -0.25116794570538181, "Pred": 0 }, "geometry": { "type": "LineString", "coordinates": [ [ 144.957434255388193, -37.692192702640753 ], [ 144.957477428098514, -37.692265669086446 ], [ 144.957560232800432, -37.692304319625904 ], [ 144.958183217223819, -37.692330286148959 ] ] } },
{ "type": "Feature", "properties": { "gid": 604, "osm_id": null, "code": null, "fclass": "trunk", "name": null, "pixel_count": 42, "Var_line": 131.67120361328125, "Edge_contrast": 85.83575439453125, "ROI": 3446.1666666666665, "Road_detected": -1, "ROI_norm": -0.69325295162834477, "Pred": 0 }, "geometry": { "type": "LineString", "coordinates": [ [ 144.931944672888392, -37.684948750129152 ], [ 144.931858233132544, -37.684971587680359 ] ] } },
{ "type": "Feature", "properties": { "gid": 640, "osm_id": null, "code": null, "fclass": "trunk", "name": null, "pixel_count": 50, "Var_line": 48.436252593994141, "Edge_contrast": 10.250054359436035, "ROI": 2833.666666666667, "Road_detected": -1, "ROI_norm": -0.74674858537108046, "Pred": 0 }, "geometry": { "type": "LineString", "coordinates": [ [ 144.937798163861629, -37.67790282277695 ], [ 144.937769642508329, -37.677559506680673 ] ] } },
{ "type": "Feature", "properties": { "gid": 641, "osm_id": null, "code": null, "fclass": "trunk", "name": null, "pixel_count": 50, "Var_line": 152.34977722167969, "Edge_contrast": 70.449020385742188, "ROI": 3216.1666666666661, "Road_detected": -1, "ROI_norm": -0.71334110797255579, "Pred": 0 }, "geometry": { "type": "LineString", "coordinates": [ [ 144.963205167678211, -37.673519063073982 ], [ 144.963003553433396, -37.673519000966607 ] ] } },
{ "type": "Feature", "properties": { "gid": 652, "osm_id": null, "code": null, "fclass": "trunk", "name": null, "pixel_count": 50, "Var_line": 154.47065734863281, "Edge_contrast": 60.507762908935547, "ROI": 6252.1666666666661, "Road_detected": -1, "ROI_norm": -0.44817744422897032, "Pred": 0 }, "geometry": { "type": "LineString", "coordinates": [ [ 144.968763733809851, -37.674069924502639 ], [ 144.968504570759023, -37.673932535950257 ] ] } },
{ "type": "Feature", "properties": { "gid": 655, "osm_id": null, "code": null, "fclass": "trunk", "name": null, "pixel_count": 50, "Var_line": 158.50033569335938, "Edge_contrast": 55.710319519042969, "ROI": 4725.0, "Road_detected": -1, "ROI_norm": -0.58155989102752503, "Pred": 0 }, "geometry": { "type": "LineString", "coordinates": [ [ 144.9640692722013, -37.673427778275872 ], [ 144.963752450197774, -37.673427682811933 ] ] } },
{ "type": "Feature", "properties": { "gid": 679, "osm_id": null, "code": null, "fclass": "trunk", "name": null, "pixel_count": 50, "Var_line": 122.56767272949219, "Edge_contrast": 31.034086227416992, "ROI": 1967.6666666666665, "Road_detected": -1, "ROI_norm": -0.82238486099754471, "Pred": 0 }, "geometry": { "type": "LineString", "coordinates": [ [ 144.943302500378763, -37.674129238354418 ], [ 144.94333116552292, -37.674312346171725 ] ] } },
{ "type": "Feature", "properties": { "gid": 682, "osm_id": null, "code": null, "fclass": "trunk", "name": null, "pixel_count": 61, "Var_line": 105.30865478515625, "Edge_contrast": 32.871566772460938, "ROI": 3824.9999999999995, "Road_detected": -1, "ROI_norm": -0.66016572020052466, "Pred": 0 }, "geometry": { "type": "LineString", "coordinates": [ [ 144.935698255662771, -37.674651793251826 ], [ 144.935773848769514, -37.674667568471492 ], [ 144.935871089829902, -37.674628999136317 ] ] } },
{ "type": "Feature", "properties": { "gid": 696, "osm_id": null, "code": null, "fclass": "trunk", "name": null, "pixel_count": 64, "Var_line": 8.9470415115356445, "Edge_contrast": 29.288963317871094, "ROI": 3361.1666666666665, "Road_detected": -1, "ROI_norm": -0.70067683549468363, "Pred": 0 }, "geometry": { "type": "LineString", "coordinates": [ [ 144.964925747182235, -37.689792033570249 ], [ 144.964860883484619, -37.68988928279942 ], [ 144.96478165275812, -37.689906424515975 ] ] } },
{ "type": "Feature", "properties": { "gid": 698, "osm_id": null, "code": null, "fclass": "trunk", "name": null, "pixel_count": 40, "Var_line": 139.97798156738281, "Edge_contrast": 133.03736877441406, "ROI": 2362.0, "Road_detected": -1, "ROI_norm": -0.7879438625117452, "Pred": 0 }, "geometry": { "type": "LineString", "coordinates": [ [ 144.933749026169153, -37.66398547054888 ], [ 144.933748966062495, -37.664054131125681 ] ] } },
{ "type": "Feature", "properties": { "gid": 699, "osm_id": null, "code": null, "fclass": "trunk", "name": null, "pixel_count": 72, "Var_line": 24.278402328491211, "Edge_contrast": 19.532384872436523, "ROI": 2555.5, "Road_detected": -1, "ROI_norm": -0.77104360923955029, "Pred": 0 }, "geometry": { "type": "LineString", "coordinates": [ [ 144.948432890882771, -37.668867592158875 ], [ 144.948375354762419, -37.668773159210446 ], [ 144.948404231061062, -37.668661598368608 ] ] } },
{ "type": "Feature", "properties": { "gid": 705, "osm_id": null, "code": null, "fclass": "trunk", "name": null, "pixel_count": 48, "Var_line": 113.98157501220703, "Edge_contrast": 5.2632355690002441, "ROI": 3144.5, "Road_detected": -1, "ROI_norm": -0.71960046103633157, "Pred": 0 }, "geometry": { "type": "LineString", "coordinates": [ [ 144.931742924982473, -37.68506306879349 ], [ 144.931829426742979, -37.684971571290532 ] ] } },
{ "type": "Feature", "properties": { "gid": 712, "osm_id": null, "code": null, "fclass": "trunk", "name": null, "pixel_count": 67, "Var_line": 97.938545227050781, "Edge_contrast": 37.456069946289062, "ROI": 5424.833333333333, "Road_detected": -1, "ROI_norm": -0.52043658052800179, "Pred": 0 }, "geometry": { "type": "LineString", "coordinates": [ [ 144.935287211523956, -37.683783381006201 ], [ 144.935384453553837, -37.683757685961567 ], [ 144.935431397468733, -37.683600365203958 ] ] } },
{ "type": "Feature", "properties": { "gid": 728, "osm_id": null, "code": null, "fclass": "trunk", "name": null, "pixel_count": 50, "Var_line": 119.08733367919922, "Edge_contrast": 35.233890533447266, "ROI": 4373.333333333333, "Road_detected": -1, "ROI_norm": -0.61227439094512304, "Pred": 0 }, "geometry": { "type": "LineString", "coordinates": [ [ 144.967350596902889, -37.67830359856282 ], [ 144.967350438891543, -37.678669786392646 ] ] } },
{ "type": "Feature", "properties": { "gid": 740, "osm_id": null, "code": null, "fclass": "trunk", "name": null, "pixel_count": 50, "Var_line": 148.63880920410156, "Edge_contrast": 42.660091400146484, "ROI": 2740.8333333333335, "Road_detected": -1, "ROI_norm": -0.75485663108392509, "Pred": 0 }, "geometry": { "type": "LineString", "coordinates": [ [ 144.971442601768103, -37.673383989706615 ], [ 144.971673034779201, -37.673338270856277 ] ] } },
{ "type": "Feature", "properties": { "gid": 748, "osm_id": null, "code": null, "fclass": "trunk", "name": null, "pixel_count": 50, "Var_line": 131.74191284179688, "Edge_contrast": 100.86048126220703, "ROI": 4919.5, "Road_detected": -1, "ROI_norm": -0.56457229794513786, "Pred": 0 }, "geometry": { "type": "LineString", "coordinates": [ [ 144.953321467556634, -37.680976700747998 ], [ 144.953638096773631, -37.681343011243278 ] ] } },
{ "type": "Feature", "properties": { "gid": 751, "osm_id": null, "code": null, "fclass": "trunk", "name": null, "pixel_count": 50, "Var_line": 100.81243133544922, "Edge_contrast": 43.455718994140625, "ROI": 1596.0, "Road_detected": -1, "ROI_norm": -0.85484615711898715, "Pred": 0 }, "geometry": { "type": "LineString", "coordinates": [ [ 144.932150791909407, -37.679959563767866 ], [ 144.93217943227458, -37.680142673851861 ] ] } },
{ "type": "Feature", "properties": { "gid": 789, "osm_id": null, "code": null, "fclass": "trunk", "name": null, "pixel_count": 34, "Var_line": 141.88677978515625, "Edge_contrast": 8.9038772583007812, "ROI": 3920.8333333333339, "Road_detected": -1, "ROI_norm": -0.65179565505710335, "Pred": 0 }, "geometry": { "type": "LineString", "coordinates": [ [ 144.931858233132544, -37.684971587680359 ], [ 144.931829447364748, -37.684948684611591 ] ] } },
{ "type": "Feature", "properties": { "gid": 790, "osm_id": null, "code": null, "fclass": "trunk", "name": null, "pixel_count": 30, "Var_line": 145.70436096191406, "Edge_contrast": 9.0302705764770508, "ROI": 2072.3333333333335, "Road_detected": -1, "ROI_norm": -0.81324329419742536, "Pred": 0 }, "geometry": { "type": "LineString", "coordinates": [ [ 144.931858233132544, -37.684971587680359 ], [ 144.931829426742979, -37.684971571290532 ] ] } },
{ "type": "Feature", "properties": { "gid": 813, "osm_id": null, "code": null, "fclass": "trunk", "name": null, "pixel_count": 68, "Var_line": 0.0, "Edge_contrast": 0.0, "ROI": 1072.1666666666667, "Road_detected": -1, "ROI_norm": -0.90059766102467942, "Pred": 0 }, "geometry": { "type": "LineString", "coordinates": [ [ 144.970901313596784, -37.65791234772162 ], [ 144.971009305534324, -37.65789520872724 ], [ 144.971074133912083, -37.657797955003645 ] ] } },
{ "type": "Feature", "properties": { "gid": 817, "osm_id": null, "code": null, "fclass": "trunk", "name": null, "pixel_count": 50, "Var_line": 123.85930633544922, "Edge_contrast": 70.735435485839844, "ROI": 3310.0000000000005, "Road_detected": -1, "ROI_norm": -0.7051457224495189, "Pred": 0 }, "geometry": { "type": "LineString", "coordinates": [ [ 144.939371187118496, -37.655909371855323 ], [ 144.939543739725593, -37.656184102339047 ] ] } },
{ "type": "Feature", "properties": { "gid": 820, "osm_id": null, "code": null, "fclass": "trunk", "name": null, "pixel_count": 30, "Var_line": 145.70436096191406, "Edge_contrast": 9.4612579345703125, "ROI": 3871.0, "Road_detected": -1, "ROI_norm": -0.65614808893168242, "Pred": 0 }, "geometry": { "type": "LineString", "coordinates": [ [ 144.931829447364748, -37.684948684611591 ], [ 144.931829426742979, -37.684971571290532 ] ] } },
{ "type": "Feature", "properties": { "gid": 830, "osm_id": null, "code": null, "fclass": "primary", "name": null, "pixel_count": 71, "Var_line": 75.039932250976562, "Edge_contrast": 39.463066101074219, "ROI": 1128.3333333333335, "Road_detected": -1, "ROI_norm": -0.89569207501888282, "Pred": 0 }, "geometry": { "type": "LineString", "coordinates": [ [ 144.969423096532864, -37.681714268142557 ], [ 144.969531105496856, -37.681740043218049 ], [ 144.969595853889501, -37.6818974058232 ] ] } },
{ "type": "Feature", "properties": { "gid": 838, "osm_id": null, "code": null, "fclass": "primary", "name": null, "pixel_count": 50, "Var_line": 123.32907867431641, "Edge_contrast": 43.587715148925781, "ROI": 3411.0, "Road_detected": -1, "ROI_norm": -0.69632440162010445, "Pred": 0 }, "geometry": { "type": "LineString", "coordinates": [ [ 144.958923293088901, -37.65578035369581 ], [ 144.95903837513606, -37.655963488603824 ] ] } },
{ "type": "Feature", "properties": { "gid": 840, "osm_id": null, "code": null, "fclass": "primary", "name": null, "pixel_count": 66, "Var_line": 99.756759643554688, "Edge_contrast": 34.685329437255859, "ROI": 2423.5, "Road_detected": -1, "ROI_norm": -0.78257246418492354, "Pred": 0 }, "geometry": { "type": "LineString", "coordinates": [ [ 144.9662338852321, -37.663426864102497 ], [ 144.966163722249661, -37.663353892396557 ], [ 144.966061147383698, -37.663312380915421 ] ] } },
{ "type": "Feature", "properties": { "gid": 842, "osm_id": null, "code": null, "fclass": "primary", "name": null, "pixel_count": 58, "Var_line": 118.87953948974609, "Edge_contrast": 10.931755065917969, "ROI": 2750.833333333333, "Road_detected": -1, "ROI_norm": -0.75398323298200309, "Pred": 0 }, "geometry": { "type": "LineString", "coordinates": [ [ 144.959056225814237, -37.676195469182296 ], [ 144.959075996194258, -37.676254123267242 ], [ 144.959027360796568, -37.676309893121896 ] ] } },
{ "type": "Feature", "properties": { "gid": 858, "osm_id": null, "code": null, "fclass": "primary", "name": null, "pixel_count": 72, "Var_line": 75.153282165527344, "Edge_contrast": 30.703060150146484, "ROI": 3788.833333333333, "Road_detected": -1, "ROI_norm": -0.66332451000247672, "Pred": 0 }, "geometry": { "type": "LineString", "coordinates": [ [ 144.966048302690581, -37.691943700667096 ], [ 144.965907852125696, -37.691957964922146 ], [ 144.965788990191157, -37.692012286773661 ] ] } },
{ "type": "Feature", "properties": { "gid": 892, "osm_id": null, "code": null, "fclass": "primary", "name": null, "pixel_count": 67, "Var_line": 98.409812927246094, "Edge_contrast": 38.952060699462891, "ROI": 6598.0, "Road_detected": -1, "ROI_norm": -0.41797242653749356, "Pred": 0 }, "geometry": { "type": "LineString", "coordinates": [ [ 144.962646348697831, -37.696977741151578 ], [ 144.962559898806148, -37.697012044040413 ], [ 144.962444558306146, -37.697206543879851 ] ] } },
{ "type": "Feature", "properties": { "gid": 895, "osm_id": null, "code": null, "fclass": "primary", "name": null, "pixel_count": 69, "Var_line": 62.798545837402344, "Edge_contrast": 22.511201858520508, "ROI": 4805.6666666666661, "Road_detected": -1, "ROI_norm": -0.57451447967201918, "Pred": 0 }, "geometry": { "type": "LineString", "coordinates": [ [ 144.97030951813656, -37.698375966360963 ], [ 144.97022850774826, -37.698320160245324 ], [ 144.970194344279037, -37.698192845203955 ] ] } },
{ "type": "Feature", "properties": { "gid": 897, "osm_id": null, "code": null, "fclass": "primary", "name": null, "pixel_count": 92, "Var_line": 19.936933517456055, "Edge_contrast": 39.094932556152344, "ROI": 7790.8333333333339, "Road_detected": -1, "ROI_norm": -0.31379058961320488, "Pred": 0 }, "geometry": { "type": "LineString", "coordinates": [ [ 144.959825657428723, -37.6917357959192 ], [ 144.960009360738297, -37.691648602110824 ], [ 144.960160618956508, -37.691627196292082 ], [ 144.96025784007378, -37.691644393554924 ] ] } },
{ "type": "Feature", "properties": { "gid": 902, "osm_id": null, "code": null, "fclass": "primary", "name": null, "pixel_count": 67, "Var_line": 10.749216079711914, "Edge_contrast": 8.9809846878051758, "ROI": 4313.8333333333339, "Road_detected": -1, "ROI_norm": -0.61747110965156016, "Pred": 0 }, "geometry": { "type": "LineString", "coordinates": [ [ 144.97394180917297, -37.692449183344785 ], [ 144.974006591634037, -37.692560769691696 ], [ 144.974085808349997, -37.692586534300162 ] ] } },
{ "type": "Feature", "properties": { "gid": 921, "osm_id": null, "code": null, "fclass": "primary", "name": null, "pixel_count": 68, "Var_line": 58.842918395996094, "Edge_contrast": 14.20302677154541, "ROI": 3417.0000000000005, "Road_detected": -1, "ROI_norm": -0.69580036275895119, "Pred": 0 }, "geometry": { "type": "LineString", "coordinates": [ [ 144.964408006586041, -37.688075381967117 ], [ 144.964469262993873, -37.687989575176843 ], [ 144.964580905620835, -37.6879609999122 ] ] } },
{ "type": "Feature", "properties": { "gid": 924, "osm_id": null, "code": null, "fclass": "primary", "name": null, "pixel_count": 50, "Var_line": 119.86498260498047, "Edge_contrast": 30.366443634033203, "ROI": 5418.6666666666661, "Road_detected": -1, "ROI_norm": -0.52097517602418719, "Pred": 0 }, "geometry": { "type": "LineString", "coordinates": [ [ 144.967574230800267, -37.694164125140638 ], [ 144.967862320035323, -37.694187089373045 ] ] } },
{ "type": "Feature", "properties": { "gid": 943, "osm_id": null, "code": null, "fclass": "primary", "name": null, "pixel_count": 69, "Var_line": 60.752784729003906, "Edge_contrast": 10.512835502624512, "ROI": 4236.166666666667, "Road_detected": -1, "ROI_norm": -0.62425450157648943, "Pred": 0 }, "geometry": { "type": "LineString", "coordinates": [ [ 144.972330709836683, -37.686383860578722 ], [ 144.972399152395894, -37.68631235551225 ], [ 144.972417197389433, -37.686200787129955 ] ] } },
{ "type": "Feature", "properties": { "gid": 944, "osm_id": null, "code": null, "fclass": "primary", "name": null, "pixel_count": 50, "Var_line": 121.49098968505859, "Edge_contrast": 18.306953430175781, "ROI": 4021.3333333333335, "Road_detected": -1, "ROI_norm": -0.64301800413278509, "Pred": 0 }, "geometry": { "type": "LineString", "coordinates": [ [ 144.934378562446852, -37.66863184780204 ], [ 144.93440750148045, -37.668471655835837 ] ] } },
{ "type": "Feature", "properties": { "gid": 949, "osm_id": null, "code": null, "fclass": "primary", "name": null, "pixel_count": 74, "Var_line": 125.99498748779297, "Edge_contrast": 34.227066040039062, "ROI": 7030.8333333333339, "Road_detected": -1, "ROI_norm": -0.38016884535929346, "Pred": 0 }, "geometry": { "type": "LineString", "coordinates": [ [ 144.935964798990085, -37.666000719654591 ], [ 144.935853119760566, -37.666097929010377 ], [ 144.935705489801222, -37.666137901834851 ] ] } },
{ "type": "Feature", "properties": { "gid": 950, "osm_id": null, "code": null, "fclass": "primary", "name": null, "pixel_count": 75, "Var_line": 85.493888854980469, "Edge_contrast": 29.853080749511719, "ROI": 2967.5, "Road_detected": -1, "ROI_norm": -0.73505960744035492, "Pred": 0 }, "geometry": { "type": "LineString", "coordinates": [ [ 144.940590900842494, -37.679460539064493 ], [ 144.940713406512401, -37.679349026918224 ], [ 144.94073510157358, -37.679231743121008 ] ] } },
{ "type": "Feature", "properties": { "gid": 956, "osm_id": null, "code": null, "fclass": "primary", "name": null, "pixel_count": 42, "Var_line": 118.38037109375, "Edge_contrast": 4.849332332611084, "ROI": 3876.333333333333, "Road_detected": -1, "ROI_norm": -0.65568227661065726, "Pred": 0 }, "geometry": { "type": "LineString", "coordinates": [ [ 144.941170848154655, -37.674494398805287 ], [ 144.941141992345109, -37.674563044965943 ] ] } },
{ "type": "Feature", "properties": { "gid": 970, "osm_id": null, "code": null, "fclass": "primary", "name": null, "pixel_count": 47, "Var_line": 58.606945037841797, "Edge_contrast": 6.9094705581665039, "ROI": 2580.1666666666665, "Road_detected": -1, "ROI_norm": -0.7688892272548089, "Pred": 0 }, "geometry": { "type": "LineString", "coordinates": [ [ 144.972614347024063, -37.698628267597378 ], [ 144.97272960991171, -37.698582520753575 ] ] } },
{ "type": "Feature", "properties": { "gid": 975, "osm_id": null, "code": null, "fclass": "primary", "name": null, "pixel_count": 69, "Var_line": 115.06434631347656, "Edge_contrast": 36.76922607421875, "ROI": 2259.333333333333, "Road_detected": -1, "ROI_norm": -0.79691074969148012, "Pred": 0 }, "geometry": { "type": "LineString", "coordinates": [ [ 144.959547713046447, -37.672762619600853 ], [ 144.959707933425392, -37.672742647665011 ], [ 144.959778102689228, -37.67280847077658 ] ] } },
{ "type": "Feature", "properties": { "gid": 991, "osm_id": null, "code": null, "fclass": "primary", "name": null, "pixel_count": 50, "Var_line": 66.418846130371094, "Edge_contrast": 33.201984405517578, "ROI": 3320.6666666666665, "Road_detected": -1, "ROI_norm": -0.70421409780746858, "Pred": 0 }, "geometry": { "type": "LineString", "coordinates": [ [ 144.965649953729923, -37.680980870602056 ], [ 144.965621211248958, -37.680843542028342 ] ] } },
{ "type": "Feature", "properties": { "gid": 995, "osm_id": null, "code": null, "fclass": "primary", "name": null, "pixel_count": 67, "Var_line": 74.911407470703125, "Edge_contrast": 12.803881645202637, "ROI": 3136.5, "Road_detected": -1, "ROI_norm": -0.72029917951786937, "Pred": 0 }, "geometry": { "type": "LineString", "coordinates": [ [ 144.942586021045685, -37.669414215730633 ], [ 144.942528515705959, -37.669288310621681 ], [ 144.942442140552743, -37.669253938905747 ] ] } },
{ "type": "Feature", "properties": { "gid": 1003, "osm_id": null, "code": null, "fclass": "primary", "name": null, "pixel_count": 42, "Var_line": 0.0, "Edge_contrast": 0.0, "ROI": 202.66666666666669, "Road_detected": -1, "ROI_norm": -0.97653962598681621, "Pred": 0 }, "geometry": { "type": "LineString", "coordinates": [ [ 144.972681351510431, -37.672651901423713 ], [ 144.972652524990508, -37.672720555219534 ] ] } },
{ "type": "Feature", "properties": { "gid": 1020, "osm_id": null, "code": null, "fclass": "primary", "name": null, "pixel_count": 69, "Var_line": 112.99398040771484, "Edge_contrast": 10.240217208862305, "ROI": 2453.166666666667, "Road_detected": -1, "ROI_norm": -0.77998138314922083, "Pred": 0 }, "geometry": { "type": "LineString", "coordinates": [ [ 144.94741182395785, -37.687657166655008 ], [ 144.947393896904373, -37.687545586289772 ], [ 144.947296705901493, -37.687496909404523 ] ] } },
{ "type": "Feature", "properties": { "gid": 1035, "osm_id": null, "code": null, "fclass": "primary", "name": null, "pixel_count": 69, "Var_line": 96.627998352050781, "Edge_contrast": 32.156208038330078, "ROI": 3274.6666666666665, "Road_detected": -1, "ROI_norm": -0.70823172907631082, "Pred": 0 }, "geometry": { "type": "LineString", "coordinates": [ [ 144.94068059728599, -37.675272307392575 ], [ 144.940518483154136, -37.675398104241637 ], [ 144.940421246853219, -37.675432386070796 ] ] } },
{ "type": "Feature", "properties": { "gid": 1040, "osm_id": null, "code": null, "fclass": "primary", "name": null, "pixel_count": 50, "Var_line": 134.92265319824219, "Edge_contrast": 48.295017242431641, "ROI": 6140.1666666666661, "Road_detected": -1, "ROI_norm": -0.45795950297049914, "Pred": 0 }, "geometry": { "type": "LineString", "coordinates": [ [ 144.968301785746092, -37.676724668287136 ], [ 144.968272876928921, -37.676976414949742 ] ] } },
{ "type": "Feature", "properties": { "gid": 1055, "osm_id": null, "code": null, "fclass": "primary", "name": null, "pixel_count": 30, "Var_line": 80.734771728515625, "Edge_contrast": 40.913341522216797, "ROI": 5137.5, "Road_detected": -1, "ROI_norm": -0.54553221932323348, "Pred": 0 }, "geometry": { "type": "LineString", "coordinates": [ [ 144.963943376749626, -37.695856695753996 ], [ 144.963943365840748, -37.695879582342393 ] ] } },
{ "type": "Feature", "properties": { "gid": 1072, "osm_id": null, "code": null, "fclass": "primary", "name": null, "pixel_count": 50, "Var_line": 116.82506561279297, "Edge_contrast": 44.045185089111328, "ROI": 3626.0000000000005, "Road_detected": -1, "ROI_norm": -0.67754634242877676, "Pred": 0 }, "geometry": { "type": "LineString", "coordinates": [ [ 144.935785537055949, -37.673621934830059 ], [ 144.93564168243239, -37.6734387633092 ] ] } },
{ "type": "Feature", "properties": { "gid": 1083, "osm_id": null, "code": null, "fclass": "primary", "name": null, "pixel_count": 59, "Var_line": 129.17820739746094, "Edge_contrast": 62.237991333007812, "ROI": 3895.3333333333335, "Road_detected": -1, "ROI_norm": -0.65402282021700497, "Pred": 0 }, "geometry": { "type": "LineString", "coordinates": [ [ 144.935108006698044, -37.65762365725584 ], [ 144.934935302131635, -37.657540598438842 ], [ 144.934906493879396, -37.657554887110159 ] ] } },
{ "type": "Feature", "properties": { "gid": 1091, "osm_id": null, "code": null, "fclass": "primary", "name": null, "pixel_count": 71, "Var_line": 106.17003631591797, "Edge_contrast": 17.545377731323242, "ROI": 6605.6666666666661, "Road_detected": -1, "ROI_norm": -0.41730282132601987, "Pred": 0 }, "geometry": { "type": "LineString", "coordinates": [ [ 144.934588690035667, -37.658767720669033 ], [ 144.934707453042193, -37.658793533262354 ], [ 144.934790126917392, -37.658928038929581 ] ] } },
{ "type": "Feature", "properties": { "gid": 1095, "osm_id": null, "code": null, "fclass": "primary", "name": null, "pixel_count": 50, "Var_line": 100.45894622802734, "Edge_contrast": 37.517772674560547, "ROI": 5016.3333333333339, "Road_detected": -1, "ROI_norm": -0.55611489299152439, "Pred": 0 }, "geometry": { "type": "LineString", "coordinates": [ [ 144.96838838674455, -37.676266955992425 ], [ 144.968273116840265, -37.676404246077446 ] ] } },
{ "type": "Feature", "properties": { "gid": 1104, "osm_id": null, "code": null, "fclass": "primary", "name": null, "pixel_count": 46, "Var_line": 124.49557495117188, "Edge_contrast": 79.317840576171875, "ROI": 3516.5, "Road_detected": -1, "ROI_norm": -0.68711005164482508, "Pred": 0 }, "geometry": { "type": "LineString", "coordinates": [ [ 144.934907104072323, -37.656845392683955 ], [ 144.934820776145017, -37.656776684932112 ] ] } },
{ "type": "Feature", "properties": { "gid": 1106, "osm_id": null, "code": null, "fclass": "primary", "name": null, "pixel_count": 69, "Var_line": 119.41787719726562, "Edge_contrast": 9.0564508438110352, "ROI": 2027.0, "Road_detected": -1, "ROI_norm": -0.8172026989261395, "Pred": 0 }, "geometry": { "type": "LineString", "coordinates": [ [ 144.970808878650274, -37.673589817992152 ], [ 144.970747644406345, -37.673667045946686 ], [ 144.970607228651033, -37.673681315809453 ] ] } },
{ "type": "Feature", "properties": { "gid": 1126, "osm_id": null, "code": null, "fclass": "primary", "name": null, "pixel_count": 73, "Var_line": 125.68740844726562, "Edge_contrast": 63.190330505371094, "ROI": 3256.0, "Road_detected": -1, "ROI_norm": -0.70986207219989883, "Pred": 0 }, "geometry": { "type": "LineString", "coordinates": [ [ 144.935652192137781, -37.661079874231639 ], [ 144.935578395412335, -37.661084125847253 ], [ 144.935529767071614, -37.661122721311678 ], [ 144.935536885986608, -37.661217133581566 ] ] } },
{ "type": "Feature", "properties": { "gid": 1132, "osm_id": null, "code": null, "fclass": "primary", "name": null, "pixel_count": 30, "Var_line": 84.905830383300781, "Edge_contrast": 20.790740966796875, "ROI": 5114.0, "Road_detected": -1, "ROI_norm": -0.54758470486275068, "Pred": 0 }, "geometry": { "type": "LineString", "coordinates": [ [ 144.962444546943686, -37.697229430456353 ], [ 144.962444558306146, -37.697206543879851 ] ] } },
{ "type": "Feature", "properties": { "gid": 1133, "osm_id": null, "code": null, "fclass": "primary", "name": null, "pixel_count": 30, "Var_line": 94.873970031738281, "Edge_contrast": 21.665435791015625, "ROI": 1775.3333333333333, "Road_detected": -1, "ROI_norm": -0.83918321782451533, "Pred": 0 }, "geometry": { "type": "LineString", "coordinates": [ [ 144.962444546943686, -37.697229430456353 ], [ 144.962415735881081, -37.697229421421824 ] ] } },
{ "type": "Feature", "properties": { "gid": 1140, "osm_id": null, "code": null, "fclass": "primary", "name": null, "pixel_count": 50, "Var_line": 126.82853698730469, "Edge_contrast": 98.845451354980469, "ROI": 1892.0, "Road_detected": -1, "ROI_norm": -0.82899357330208945, "Pred": 0 }, "geometry": { "type": "LineString", "coordinates": [ [ 144.96692395160207, -37.665921724457959 ], [ 144.967183143897813, -37.665921795763346 ] ] } },
{ "type": "Feature", "properties": { "gid": 1156, "osm_id": null, "code": null, "fclass": "primary", "name": null, "pixel_count": 75, "Var_line": 83.287864685058594, "Edge_contrast": 37.266082763671875, "ROI": 6728.3333333333339, "Road_detected": -1, "ROI_norm": -0.40658913794244056, "Pred": 0 }, "geometry": { "type": "LineString", "coordinates": [ [ 144.957469459346953, -37.680818038305894 ], [ 144.957498201485748, -37.680929621279525 ], [ 144.957440487176626, -37.681115555396644 ] ] } },
{ "type": "Feature", "properties": { "gid": 1157, "osm_id": null, "code": null, "fclass": "primary", "name": null, "pixel_count": 69, "Var_line": 0.0, "Edge_contrast": 0.35035154223442078, "ROI": 1074.0000000000002, "Road_detected": -1, "ROI_norm": -0.90043753803932691, "Pred": 0 }, "geometry": { "type": "LineString", "coordinates": [ [ 144.941277905407077, -37.684999462330346 ], [ 144.94136976904494, -37.684943721022762 ], [ 144.94145086779892, -37.684839340166363 ] ] } },
{ "type": "Feature", "properties": { "gid": 1175, "osm_id": null, "code": null, "fclass": "tertiary", "name": null, "pixel_count": 75, "Var_line": 94.322601318359375, "Edge_contrast": 30.114797592163086, "ROI": 2250.6666666666665, "Road_detected": -1, "ROI_norm": -0.79766769471314591, "Pred": 0 }, "geometry": { "type": "LineString", "coordinates": [ [ 144.965226442685918, -37.662350892651794 ], [ 144.965210277467037, -37.662277936025092 ], [ 144.965095123383207, -37.662197798431968 ], [ 144.965111335952315, -37.662167764124298 ] ] } },
{ "type": "Feature", "properties": { "gid": 1190, "osm_id": null, "code": null, "fclass": "tertiary", "name": null, "pixel_count": 113, "Var_line": 148.49470520019531, "Edge_contrast": 45.607028961181641, "ROI": 9808.8333333333339, "Road_detected": -1, "ROI_norm": -0.13753885264530122, "Pred": 0 }, "geometry": { "type": "LineString", "coordinates": [ [ 144.962444535581227, -37.697252317032614 ], [ 144.962602953337097, -37.69733962166903 ], [ 144.962727112419515, -37.697519892162227 ], [ 144.962890952811165, -37.697567146586159 ], [ 144.962934178008936, -37.697549995033789 ] ] } },
{ "type": "Feature", "properties": { "gid": 1209, "osm_id": null, "code": null, "fclass": "tertiary", "name": null, "pixel_count": 71, "Var_line": 118.27327728271484, "Edge_contrast": 15.194760322570801, "ROI": 1330.8333333333335, "Road_detected": -1, "ROI_norm": -0.87800576345495784, "Pred": 0 }, "geometry": { "type": "LineString", "coordinates": [ [ 144.947383000625308, -37.687680040663338 ], [ 144.947393880990319, -37.687568472948627 ], [ 144.947296705901493, -37.687496909404523 ] ] } },
{ "type": "Feature", "properties": { "gid": 1220, "osm_id": null, "code": null, "fclass": "tertiary", "name": null, "pixel_count": 69, "Var_line": 61.301891326904297, "Edge_contrast": 14.486490249633789, "ROI": 5505.6666666666661, "Road_detected": -1, "ROI_norm": -0.51337661253746392, "Pred": 0 }, "geometry": { "type": "LineString", "coordinates": [ [ 144.942557203203108, -37.669437088734746 ], [ 144.94256447497736, -37.669342684077932 ], [ 144.942442140552743, -37.669253938905747 ] ] } },
{ "type": "Feature", "properties": { "gid": 1236, "osm_id": null, "code": null, "fclass": "tertiary", "name": null, "pixel_count": 73, "Var_line": 59.966407775878906, "Edge_contrast": 2.9334714412689209, "ROI": 7286.3333333333339, "Road_detected": -1, "ROI_norm": -0.35785352385518077, "Pred": 0 }, "geometry": { "type": "LineString", "coordinates": [ [ 144.963540999877267, -37.693842553127112 ], [ 144.963362722088789, -37.693878259067787 ], [ 144.963281645269547, -37.693979793572296 ] ] } },
{ "type": "Feature", "properties": { "gid": 1242, "osm_id": null, "code": null, "fclass": "tertiary", "name": null, "pixel_count": 75, "Var_line": 17.900714874267578, "Edge_contrast": 19.778530120849609, "ROI": 6809.666666666667, "Road_detected": -1, "ROI_norm": -0.39948550004680655, "Pred": 0 }, "geometry": { "type": "LineString", "coordinates": [ [ 144.959825657428723, -37.6917357959192 ], [ 144.9600093614944, -37.691647171696772 ], [ 144.960257852096987, -37.69162150692992 ] ] } },
{ "type": "Feature", "properties": { "gid": 1269, "osm_id": null, "code": null, "fclass": "tertiary", "name": null, "pixel_count": 71, "Var_line": 106.82541656494141, "Edge_contrast": 29.732934951782227, "ROI": 4268.833333333333, "Road_detected": -1, "ROI_norm": -0.62140140111021025, "Pred": 0 }, "geometry": { "type": "LineString", "coordinates": [ [ 144.934614579907191, -37.662132109137644 ], [ 144.934643473956214, -37.662020551339211 ], [ 144.934557142838884, -37.661948982669344 ] ] } },
{ "type": "Feature", "properties": { "gid": 1276, "osm_id": null, "code": null, "fclass": "tertiary", "name": null, "pixel_count": 50, "Var_line": 96.838470458984375, "Edge_contrast": 16.082185745239258, "ROI": 6602.166666666667, "Road_detected": -1, "ROI_norm": -0.41760851066169258, "Pred": 0 }, "geometry": { "type": "LineString", "coordinates": [ [ 144.965788990191157, -37.692012286773661 ], [ 144.966077122003298, -37.69192082220524 ] ] } },
{ "type": "Feature", "properties": { "gid": 1301, "osm_id": null, "code": null, "fclass": "tertiary", "name": null, "pixel_count": 73, "Var_line": 83.057548522949219, "Edge_contrast": 22.317148208618164, "ROI": 2198.833333333333, "Road_detected": -1, "ROI_norm": -0.80219480820810951, "Pred": 0 }, "geometry": { "type": "LineString", "coordinates": [ [ 144.937855940433963, -37.677696872003317 ], [ 144.937769607215188, -37.677602419324948 ], [ 144.93782732486855, -37.67746798961965 ] ] } },
{ "type": "Feature", "properties": { "gid": 1315, "osm_id": null, "code": null, "fclass": "tertiary", "name": null, "pixel_count": 75, "Var_line": 105.22776031494141, "Edge_contrast": 20.180364608764648, "ROI": 6963.5, "Road_detected": -1, "ROI_norm": -0.38604972591223646, "Pred": 0 }, "geometry": { "type": "LineString", "coordinates": [ [ 144.968244063972094, -37.676999294068992 ], [ 144.968278357914357, -37.67678473982162 ], [ 144.968330608159931, -37.676678902396681 ] ] } },
{ "type": "Feature", "properties": { "gid": 1316, "osm_id": null, "code": null, "fclass": "tertiary", "name": null, "pixel_count": 77, "Var_line": 94.8953857421875, "Edge_contrast": 37.765960693359375, "ROI": 5397.5, "Road_detected": -1, "ROI_norm": -0.52282386867325581, "Pred": 0 }, "geometry": { "type": "LineString", "coordinates": [ [ 144.9357567155553, -37.67364480616186 ], [ 144.935772982286949, -37.673567571976932 ], [ 144.935659675168608, -37.673448785946462 ], [ 144.935670523346147, -37.67339300522422 ] ] } },
{ "type": "Feature", "properties": { "gid": 1339, "osm_id": null, "code": null, "fclass": "tertiary", "name": null, "pixel_count": 99, "Var_line": 98.671028137207031, "Edge_contrast": 29.191244125366211, "ROI": 4186.666666666667, "Road_detected": -1, "ROI_norm": -0.62857782218100444, "Pred": 0 }, "geometry": { "type": "LineString", "coordinates": [ [ 144.964237443873969, -37.683246241607144 ], [ 144.964208593475576, -37.683340640631464 ], [ 144.964230165345327, -37.683409307175531 ], [ 144.964320149742576, -37.683480854948172 ], [ 144.964410170644612, -37.683475160053057 ] ] } },
{ "type": "Feature", "properties": { "gid": 1340, "osm_id": null, "code": null, "fclass": "tertiary", "name": null, "pixel_count": 50, "Var_line": 124.38951873779297, "Edge_contrast": 65.131591796875, "ROI": 3149.666666666667, "Road_detected": -1, "ROI_norm": -0.71914920535033833, "Pred": 0 }, "geometry": { "type": "LineString", "coordinates": [ [ 144.967183153822475, -37.665898908916304 ], [ 144.966895152458136, -37.665921716500513 ] ] } },
{ "type": "Feature", "properties": { "gid": 1345, "osm_id": null, "code": null, "fclass": "tertiary", "name": null, "pixel_count": 61, "Var_line": 91.236946105957031, "Edge_contrast": 22.988494873046875, "ROI": 3373.333333333333, "Road_detected": -1, "ROI_norm": -0.69961420113734485, "Pred": 0 }, "geometry": { "type": "LineString", "coordinates": [ [ 144.966061147383698, -37.663312380915421 ], [ 144.96613493240406, -37.663335288675412 ], [ 144.966205097257784, -37.663403969110917 ] ] } },
{ "type": "Feature", "properties": { "gid": 1361, "osm_id": null, "code": null, "fclass": "tertiary", "name": null, "pixel_count": 73, "Var_line": 104.85929107666016, "Edge_contrast": 16.873447418212891, "ROI": 5747.166666666667, "Road_detected": -1, "ROI_norm": -0.49228404837604223, "Pred": 0 }, "geometry": { "type": "LineString", "coordinates": [ [ 144.961704496686025, -37.679377603234961 ], [ 144.961614439817396, -37.679463399663263 ], [ 144.961445176667439, -37.679537727185924 ] ] } },
{ "type": "Feature", "properties": { "gid": 1363, "osm_id": null, "code": null, "fclass": "tertiary", "name": null, "pixel_count": 108, "Var_line": 87.776634216308594, "Edge_contrast": 22.550647735595703, "ROI": 4713.1666666666661, "Road_detected": -1, "ROI_norm": -0.58259341211479965, "Pred": 0 }, "geometry": { "type": "LineString", "coordinates": [ [ 144.944457463649286, -37.670216136923621 ], [ 144.944340353184316, -37.670361986000607 ], [ 144.944313289247617, -37.670447798972283 ], [ 144.944365419300169, -37.670545092155344 ], [ 144.944457228469417, -37.670536552213051 ] ] } },
{ "type": "Feature", "properties": { "gid": 1369, "osm_id": null, "code": null, "fclass": "tertiary", "name": null, "pixel_count": 47, "Var_line": 144.67927551269531, "Edge_contrast": 4.3860769271850586, "ROI": 1914.6666666666665, "Road_detected": -1, "ROI_norm": -0.82701387093773249, "Pred": 0 }, "geometry": { "type": "LineString", "coordinates": [ [ 144.959346752494042, -37.671549551309376 ], [ 144.959231522693727, -37.671595285745489 ] ] } },
{ "type": "Feature", "properties": { "gid": 1380, "osm_id": null, "code": null, "fclass": "tertiary", "name": null, "pixel_count": 75, "Var_line": 124.61403656005859, "Edge_contrast": 17.536731719970703, "ROI": 6863.833333333333, "Road_detected": -1, "ROI_norm": -0.39475459366139459, "Pred": 0 }, "geometry": { "type": "LineString", "coordinates": [ [ 144.935705489801222, -37.666137901834851 ], [ 144.935889133309956, -37.666080783155955 ], [ 144.936022436025638, -37.665954976753291 ] ] } },
{ "type": "Feature", "properties": { "gid": 1389, "osm_id": null, "code": null, "fclass": "tertiary", "name": null, "pixel_count": 82, "Var_line": 18.336004257202148, "Edge_contrast": 5.6811718940734863, "ROI": 3629.1666666666665, "Road_detected": -1, "ROI_norm": -0.67726976636316816, "Pred": 0 }, "geometry": { "type": "LineString", "coordinates": [ [ 144.97397063416571, -37.692403416369196 ], [ 144.973970590362484, -37.692530723186572 ], [ 144.974044398423047, -37.692576512439629 ], [ 144.974114625476801, -37.69256365391044 ] ] } },
{ "type": "Feature", "properties": { "gid": 1390, "osm_id": null, "code": null, "fclass": "tertiary", "name": null, "pixel_count": 75, "Var_line": 99.733360290527344, "Edge_contrast": 8.4297933578491211, "ROI": 5021.6666666666661, "Road_detected": -1, "ROI_norm": -0.55564908067049923, "Pred": 0 }, "geometry": { "type": "LineString", "coordinates": [ [ 144.970837698353705, -37.673544051444686 ], [ 144.970756644507333, -37.67366847856843 ], [ 144.970607228651033, -37.673681315809453 ] ] } },
{ "type": "Feature", "properties": { "gid": 1430, "osm_id": null, "code": null, "fclass": "tertiary", "name": null, "pixel_count": 101, "Var_line": 87.026885986328125, "Edge_contrast": 42.964683532714844, "ROI": 4684.0, "Road_detected": -1, "ROI_norm": -0.58514082324540606, "Pred": 0 }, "geometry": { "type": "LineString", "coordinates": [ [ 144.96993619659392, -37.695286184591154 ], [ 144.969981236564365, -37.695226118568932 ], [ 144.969966858673132, -37.695157455174268 ], [ 144.969894863727262, -37.695080194837566 ], [ 144.969792236369074, -37.69505728240712 ] ] } },
{ "type": "Feature", "properties": { "gid": 1435, "osm_id": null, "code": null, "fclass": "tertiary", "name": null, "pixel_count": 75, "Var_line": 108.55744934082031, "Edge_contrast": 21.456687927246094, "ROI": 4694.0000000000009, "Road_detected": -1, "ROI_norm": -0.58426742514348384, "Pred": 0 }, "geometry": { "type": "LineString", "coordinates": [ [ 144.934588690035667, -37.658767720669033 ], [ 144.934729028157051, -37.658819292802683 ], [ 144.934818923395198, -37.658928054607536 ] ] } },
{ "type": "Feature", "properties": { "gid": 1442, "osm_id": null, "code": null, "fclass": "tertiary", "name": null, "pixel_count": 75, "Var_line": 104.36277770996094, "Edge_contrast": 35.385269165039062, "ROI": 3546.833333333333, "Road_detected": -1, "ROI_norm": -0.68446074406899438, "Pred": 0 }, "geometry": { "type": "LineString", "coordinates": [ [ 144.940709435851431, -37.675226548125728 ], [ 144.940576123471601, -37.675353789732114 ], [ 144.940421246853219, -37.675432386070796 ] ] } },
{ "type": "Feature", "properties": { "gid": 1449, "osm_id": null, "code": null, "fclass": "tertiary", "name": null, "pixel_count": 71, "Var_line": 67.222297668457031, "Edge_contrast": 35.325294494628906, "ROI": 4120.5, "Road_detected": -1, "ROI_norm": -0.63435680628872304, "Pred": 0 }, "geometry": { "type": "LineString", "coordinates": [ [ 144.93703124425781, -37.664948489707371 ], [ 144.937150053435516, -37.664931386972327 ], [ 144.937290528003274, -37.664834191448513 ] ] } },
{ "type": "Feature", "properties": { "gid": 1456, "osm_id": null, "code": null, "fclass": "tertiary", "name": null, "pixel_count": 34, "Var_line": 131.42376708984375, "Edge_contrast": 38.541038513183594, "ROI": 2562.3333333333335, "Road_detected": -1, "ROI_norm": -0.77044678720323667, "Pred": 0 }, "geometry": { "type": "LineString", "coordinates": [ [ 144.953329048569685, -37.668686505618638 ], [ 144.953300234251515, -37.668709381213809 ] ] } },
{ "type": "Feature", "properties": { "gid": 1461, "osm_id": null, "code": null, "fclass": "tertiary", "name": null, "pixel_count": 100, "Var_line": 95.390731811523438, "Edge_contrast": 11.908414840698242, "ROI": 6208.1666666666661, "Road_detected": -1, "ROI_norm": -0.45202039587742804, "Pred": 0 }, "geometry": { "type": "LineString", "coordinates": [ [ 144.957925054611593, -37.69031617215331 ], [ 144.957762972058475, -37.690379053379154 ], [ 144.957438886617581, -37.690361773699031 ], [ 144.957262421953459, -37.690384597516406 ] ] } },
{ "type": "Feature", "properties": { "gid": 1483, "osm_id": null, "code": null, "fclass": "tertiary", "name": null, "pixel_count": 84, "Var_line": 64.650260925292969, "Edge_contrast": 33.603729248046875, "ROI": 6163.833333333333, "Road_detected": -1, "ROI_norm": -0.45589246079594986, "Pred": 0 }, "geometry": { "type": "LineString", "coordinates": [ [ 144.958981082114121, -37.655414182497992 ], [ 144.958894726976581, -37.655358365969242 ], [ 144.958847990119637, -37.655256789117914 ], [ 144.958779827708554, -37.654841939837539 ] ] } },
{ "type": "Feature", "properties": { "gid": 1485, "osm_id": null, "code": null, "fclass": "tertiary", "name": null, "pixel_count": 50, "Var_line": 89.713157653808594, "Edge_contrast": 23.336143493652344, "ROI": 5128.0, "Road_detected": -1, "ROI_norm": -0.54636194752005962, "Pred": 0 }, "geometry": { "type": "LineString", "coordinates": [ [ 144.962444546943686, -37.697229430456353 ], [ 144.962444603755927, -37.697114997571951 ] ] } },
{ "type": "Feature", "properties": { "gid": 1487, "osm_id": null, "code": null, "fclass": "tertiary", "name": null, "pixel_count": 50, "Var_line": 93.954917907714844, "Edge_contrast": 20.684965133666992, "ROI": 4741.8333333333339, "Road_detected": -1, "ROI_norm": -0.5800896708892892, "Pred": 0 }, "geometry": { "type": "LineString", "coordinates": [ [ 144.96379937881153, -37.695742219369201 ], [ 144.963914555292035, -37.695879573668286 ] ] } },
{ "type": "Feature", "properties": { "gid": 1495, "osm_id": null, "code": null, "fclass": "tertiary", "name": null, "pixel_count": 50, "Var_line": 132.87303161621094, "Edge_contrast": 19.017370223999023, "ROI": 1916.8333333333333, "Road_detected": -1, "ROI_norm": -0.82682463468231593, "Pred": 0 }, "geometry": { "type": "LineString", "coordinates": [ [ 144.959056238198428, -37.676172582423916 ], [ 144.959027360796568, -37.676309893121896 ] ] } },
{ "type": "Feature", "properties": { "gid": 1506, "osm_id": null, "code": null, "fclass": "tertiary", "name": null, "pixel_count": 38, "Var_line": 55.319583892822266, "Edge_contrast": 10.130734443664551, "ROI": 2710.5, "Road_detected": -1, "ROI_norm": -0.75750593865975591, "Pred": 0 }, "geometry": { "type": "LineString", "coordinates": [ [ 144.939011258262326, -37.673760941553716 ], [ 144.939068880938038, -37.673738084095682 ] ] } },
{ "type": "Feature", "properties": { "gid": 1518, "osm_id": null, "code": null, "fclass": "tertiary", "name": null, "pixel_count": 73, "Var_line": 0.0, "Edge_contrast": 0.35035154223442078, "ROI": 1405.166666666667, "Road_detected": -1, "ROI_norm": -0.87151350423066931, "Pred": 0 }, "geometry": { "type": "LineString", "coordinates": [ [ 144.941277905407077, -37.684999462330346 ], [ 144.941385984824137, -37.684927994359377 ], [ 144.941479709545149, -37.684793580878889 ] ] } },
{ "type": "Feature", "properties": { "gid": 1557, "osm_id": null, "code": null, "fclass": "unclassified", "name": null, "pixel_count": 50, "Var_line": 78.82598876953125, "Edge_contrast": 22.556058883666992, "ROI": 4113.0, "Road_detected": -1, "ROI_norm": -0.63501185486516476, "Pred": 0 }, "geometry": { "type": "LineString", "coordinates": [ [ 144.957466011275159, -37.686951671722873 ], [ 144.957177991611587, -37.686860022430594 ] ] } },
{ "type": "Feature", "properties": { "gid": 1841, "osm_id": null, "code": null, "fclass": "unclassified", "name": null, "pixel_count": 66, "Var_line": 62.929832458496094, "Edge_contrast": 35.502315521240234, "ROI": 3523.666666666667, "Road_detected": -1, "ROI_norm": -0.68648411633844753, "Pred": 0 }, "geometry": { "type": "LineString", "coordinates": [ [ 144.952787699175104, -37.659302677763833 ], [ 144.953446450094901, -37.659257161858079 ], [ 144.953507671001773, -37.659211411827158 ] ] } },
{ "type": "Feature", "properties": { "gid": 1947, "osm_id": null, "code": null, "fclass": "unclassified", "name": null, "pixel_count": 75, "Var_line": 7.4152631759643555, "Edge_contrast": 7.8315820693969727, "ROI": 929.66666666666674, "Road_detected": -1, "ROI_norm": -0.91304358397707097, "Pred": 0 }, "geometry": { "type": "LineString", "coordinates": [ [ 144.957133733894352, -37.66328663122956 ], [ 144.95695495473359, -37.664325058766835 ], [ 144.95687385940667, -37.664499541924783 ] ] } },
{ "type": "Feature", "properties": { "gid": 2098, "osm_id": null, "code": null, "fclass": "unclassified", "name": null, "pixel_count": 125, "Var_line": 39.4384765625, "Edge_contrast": 21.583114624023438, "ROI": 7644.166666666667, "Road_detected": -1, "ROI_norm": -0.32660042844139742, "Pred": 0 }, "geometry": { "type": "LineString", "coordinates": [ [ 144.941577598223091, -37.669940124930662 ], [ 144.941329193557635, -37.66993857307353 ], [ 144.940719042139335, -37.669858168752221 ], [ 144.940715586621081, -37.669673642056033 ], [ 144.940858511606763, -37.668749657174075 ] ] } },
{ "type": "Feature", "properties": { "gid": 2185, "osm_id": null, "code": null, "fclass": "unclassified", "name": null, "pixel_count": 100, "Var_line": 52.9375, "Edge_contrast": 26.521793365478516, "ROI": 8729.5, "Road_detected": -1, "ROI_norm": -0.2318076211127727, "Pred": 0 }, "geometry": { "type": "LineString", "coordinates": [ [ 144.961884170673073, -37.665782905381 ], [ 144.96177430911294, -37.665911608900444 ], [ 144.9614819402629, -37.667439212043121 ], [ 144.96148002815201, -37.667659497227497 ] ] } }
]
}
