{
"type": "FeatureCollection",
"crs": { "type": "name", "properties": { "name": "urn:ogc:def:crs:OGC:1.3:CRS84" } },
"features": [
{ "type": "Feature", "properties": { "gid": 1, "fclass": "residential", "length": 28.296371206742624, "status": "disappeared" }, "geometry": { "type": "LineString", "coordinates": [ [ 144.974489416331807, -37.691762702494152 ], [ 144.974419202177444, -37.691739800895327 ], [ 144.974408418651961, -37.691681151610275 ], [ 144.974547088197426, -37.691602508369563 ] ] } },
{ "type": "Feature", "properties": { "gid": 3, "fclass": "residential", "length": 26.695376618223239, "status": "disappeared" }, "geometry": { "type": "LineString", "coordinates": [ [ 144.950227268133006, -37.655548185446506 ], [ 144.950317303819901, -37.655470979415838 ], [ 144.950486484773592, -37.655456745154389 ] ] } },
{ "type": "Feature", "properties": { "gid": 5, "fclass": "residential", "length": 34.1585968784279, "status": "disappeared" }, "geometry": { "type": "LineString", "coordinates": [ [ 144.950227268133006, -37.655548185446506 ], [ 144.95032442375026, -37.655591138802414 ], [ 144.950432409538621, -37.655585461817331 ], [ 144.950486417398935, -37.655559736355272 ], [ 144.950515264970051, -37.655479643991676 ] ] } },
{ "type": "Feature", "properties": { "gid": 19, "fclass": "residential", "length": 27.363290928691978, "status": "disappeared" }, "geometry": { "type": "LineString", "coordinates": [ [ 144.968180095398395, -37.692127378848461 ], [ 144.967892043051563, -37.69203575549664 ] ] } },
{ "type": "Feature", "properties": { "gid": 71, "fclass": "residential", "length": 31.240924209402429, "status": "disappeared" }, "geometry": { "type": "LineString", "coordinates": [ [ 144.959251783282127, -37.687455799157618 ], [ 144.959172493623072, -37.687584509650208 ], [ 144.95925164768633, -37.687707552418168 ] ] } },
{ "type": "Feature", "properties": { "gid": 76, "fclass": "residential", "length": 28.350215761960413, "status": "disappeared" }, "geometry": { "type": "LineString", "coordinates": [ [ 144.959280319621598, -37.687959315450136 ], [ 144.959229827814141, -37.688105200736366 ], [ 144.959309004057332, -37.688188191796549 ] ] } },
{ "type": "Feature", "properties": { "gid": 92, "fclass": "residential", "length": 62.271022033268537, "status": "disappeared" }, "geometry": { "type": "LineString", "coordinates": [ [ 144.959136813515499, -37.686975139979275 ], [ 144.958974816693313, -37.686894981265787 ], [ 144.958845170617451, -37.686920684300034 ], [ 144.958701163045419, -37.686869139731776 ], [ 144.958636325135046, -37.686909169034301 ], [ 144.958618259650308, -37.687020735309616 ] ] } },
{ "type": "Feature", "properties": { "gid": 111, "fclass": "residential", "length": 61.817832062816713, "status": "disappeared" }, "geometry": { "type": "LineString", "coordinates": [ [ 144.949215766148313, -37.661017733749837 ], [ 144.949906961356533, -37.66092647730418 ] ] } },
{ "type": "Feature", "properties": { "gid": 114, "fclass": "residential", "length": 33.250664131950963, "status": "disappeared" }, "geometry": { "type": "LineString", "coordinates": [ [ 144.951465564242966, -37.655388485181682 ], [ 144.951577207617277, -37.655291260882251 ], [ 144.951782398199668, -37.65525129153648 ] ] } },
{ "type": "Feature", "properties": { "gid": 156, "fclass": "residential", "length": 141.08163113437138, "status": "disappeared" }, "geometry": { "type": "LineString", "coordinates": [ [ 144.967518723787805, -37.689243485156837 ], [ 144.967431926559186, -37.690110293282274 ], [ 144.96737786648896, -37.690213268458415 ], [ 144.967345332328904, -37.690502203416983 ] ] } },
{ "type": "Feature", "properties": { "gid": 204, "fclass": "residential", "length": 64.084581775646498, "status": "disappeared" }, "geometry": { "type": "LineString", "coordinates": [ [ 144.952099173070167, -37.655205644792709 ], [ 144.952433931877835, -37.655180030430095 ], [ 144.952585141759897, -37.655122873044959 ], [ 144.952714687238142, -37.655174419892482 ], [ 144.952790283173982, -37.655160145382119 ] ] } },
{ "type": "Feature", "properties": { "gid": 254, "fclass": "residential", "length": 43.58220036211948, "status": "disappeared" }, "geometry": { "type": "LineString", "coordinates": [ [ 144.943898015220867, -37.686717219154829 ], [ 144.943869278207075, -37.686622798162787 ], [ 144.94389830373305, -37.686328145809938 ] ] } },
{ "type": "Feature", "properties": { "gid": 281, "fclass": "residential", "length": 73.355138071918347, "status": "disappeared" }, "geometry": { "type": "LineString", "coordinates": [ [ 144.936606685190782, -37.690466994533921 ], [ 144.936530854112021, -37.690715846604846 ], [ 144.93636863261068, -37.690921740303182 ], [ 144.936174133149791, -37.690970270943211 ] ] } },
{ "type": "Feature", "properties": { "gid": 286, "fclass": "residential", "length": 125.48045596199121, "status": "disappeared" }, "geometry": { "type": "LineString", "coordinates": [ [ 144.952816452996245, -37.659371349818855 ], [ 144.952787543914781, -37.659551572809271 ], [ 144.952900567798167, -37.660135233337087 ], [ 144.952930942143411, -37.660492853072952 ] ] } },
{ "type": "Feature", "properties": { "gid": 287, "fclass": "residential", "length": 40.956447155854462, "status": "disappeared" }, "geometry": { "type": "LineString", "coordinates": [ [ 144.952730163108356, -37.659211107435482 ], [ 144.952672798918854, -37.658844894222668 ] ] } },
{ "type": "Feature", "properties": { "gid": 290, "fclass": "residential", "length": 337.15582354650451, "status": "disappeared" }, "geometry": { "type": "LineString", "coordinates": [ [ 144.949964555838278, -37.660926501382704 ], [ 144.952048914773002, -37.660677028738171 ], [ 144.952264894272616, -37.660675684596015 ], [ 144.952333269475616, -37.660704320451842 ], [ 144.952372827758921, -37.660764414291528 ], [ 144.95250562692496, -37.661382413128543 ], [ 144.952559611317923, -37.661399599694221 ], [ 144.953045590877707, -37.661362600036291 ] ] } },
{ "type": "Feature", "properties": { "gid": 309, "fclass": "residential", "length": 145.00919580736181, "status": "disappeared" }, "geometry": { "type": "LineString", "coordinates": [ [ 144.945771917521768, -37.684704054071865 ], [ 144.945674683966445, -37.684721175033303 ], [ 144.944918576992649, -37.684640726329143 ], [ 144.944767331564293, -37.684657821706779 ], [ 144.944292110218669, -37.684546029025753 ], [ 144.944158883516394, -37.684543106158202 ] ] } },
{ "type": "Feature", "properties": { "gid": 312, "fclass": "residential", "length": 52.89798525072213, "status": "disappeared" }, "geometry": { "type": "LineString", "coordinates": [ [ 144.944532978579815, -37.685069673834064 ], [ 144.944695012654336, -37.685072609587863 ], [ 144.94499741570209, -37.685161434733551 ], [ 144.94510905735666, -37.685138599255588 ] ] } },
{ "type": "Feature", "properties": { "gid": 327, "fclass": "residential", "length": 54.382967370296718, "status": "disappeared" }, "geometry": { "type": "LineString", "coordinates": [ [ 144.944187318310696, -37.685046626594712 ], [ 144.944158581570463, -37.684952205612362 ], [ 144.944180376321697, -37.684694740508114 ], [ 144.944130060386811, -37.684565979410799 ] ] } },
{ "type": "Feature", "properties": { "gid": 338, "fclass": "residential", "length": 56.811637872615492, "status": "disappeared" }, "geometry": { "type": "LineString", "coordinates": [ [ 144.957267980770581, -37.680543325910271 ], [ 144.957901735287948, -37.68045200342047 ] ] } },
{ "type": "Feature", "properties": { "gid": 456, "fclass": "residential", "length": 166.86964002372554, "status": "disappeared" }, "geometry": { "type": "LineString", "coordinates": [ [ 144.970757112043771, -37.658484485468016 ], [ 144.970897513877418, -37.658433024118963 ], [ 144.971000130274547, -37.658355805681907 ], [ 144.97103255892182, -37.658269987603575 ], [ 144.971210794375907, -37.658115543911123 ], [ 144.971441280354554, -37.657806625724 ], [ 144.971743760707568, -37.657480558877808 ], [ 144.971851814612847, -37.657294628087328 ] ] } },
{ "type": "Feature", "properties": { "gid": 461, "fclass": "residential", "length": 134.9278502832384, "status": "disappeared" }, "geometry": { "type": "LineString", "coordinates": [ [ 144.942603468708967, -37.684382164133019 ], [ 144.942851874362447, -37.684445221305886 ], [ 144.943024723360054, -37.684429569040908 ], [ 144.943283932921133, -37.684491200036298 ], [ 144.943435178351535, -37.684474106530537 ], [ 144.944101271058656, -37.684543079287678 ] ] } },
{ "type": "Feature", "properties": { "gid": 490, "fclass": "residential", "length": 102.7566997117834, "status": "disappeared" }, "geometry": { "type": "LineString", "coordinates": [ [ 144.947327313818334, -37.68491072830016 ], [ 144.94645240033114, -37.684797337369091 ], [ 144.946175124178495, -37.684818669373776 ] ] } },
{ "type": "Feature", "properties": { "gid": 532, "fclass": "residential", "length": 77.220889489489664, "status": "disappeared" }, "geometry": { "type": "LineString", "coordinates": [ [ 144.946144395455406, -37.687519283571973 ], [ 144.945442280985134, -37.687428849615706 ], [ 144.945280224247085, -37.687450231951154 ] ] } },
{ "type": "Feature", "properties": { "gid": 550, "fclass": "residential", "length": 129.7303054991973, "status": "disappeared" }, "geometry": { "type": "LineString", "coordinates": [ [ 144.942574662541631, -37.684382150327181 ], [ 144.942434215062377, -37.684404969610057 ], [ 144.942304619994701, -37.684361994710528 ], [ 144.94178613333699, -37.684330274658826 ], [ 144.941526925547407, -37.684268640418637 ], [ 144.941310862974518, -37.68428999103287 ], [ 144.941134443223035, -37.684267017773109 ] ] } },
{ "type": "Feature", "properties": { "gid": 593, "fclass": "residential", "length": 67.745697123864204, "status": "disappeared" }, "geometry": { "type": "LineString", "coordinates": [ [ 144.973690692354552, -37.668967351395544 ], [ 144.973571875116278, -37.669013098881294 ], [ 144.973139886548211, -37.668967229129983 ], [ 144.972941876277957, -37.668990071380605 ] ] } },
{ "type": "Feature", "properties": { "gid": 611, "fclass": "motorway", "length": 40.959113978226334, "status": "disappeared" }, "geometry": { "type": "LineString", "coordinates": [ [ 144.958183824461742, -37.691231728223535 ], [ 144.957953176153922, -37.691552060331908 ] ] } },
{ "type": "Feature", "properties": { "gid": 627, "fclass": "motorway", "length": 55.953446701484104, "status": "disappeared" }, "geometry": { "type": "LineString", "coordinates": [ [ 144.957463257565166, -37.691849413554493 ], [ 144.958097068531202, -37.691826750292044 ] ] } },
{ "type": "Feature", "properties": { "gid": 628, "fclass": "trunk", "length": 45.879108162800321, "status": "disappeared" }, "geometry": { "type": "LineString", "coordinates": [ [ 144.968302974585129, -37.673886709206705 ], [ 144.968032922162507, -37.673962449897026 ], [ 144.967842061966451, -37.67406968058777 ] ] } },
{ "type": "Feature", "properties": { "gid": 635, "fclass": "trunk", "length": 20.945724232236241, "status": "disappeared" }, "geometry": { "type": "LineString", "coordinates": [ [ 144.948231664809185, -37.668318221454307 ], [ 144.948289139802256, -37.668501340928145 ] ] } },
{ "type": "Feature", "properties": { "gid": 643, "fclass": "trunk", "length": 118.6378055703414, "status": "disappeared" }, "geometry": { "type": "LineString", "coordinates": [ [ 144.964292398208414, -37.688876380523894 ], [ 144.964332150666934, -37.688576005034868 ], [ 144.964494291028416, -37.688370073296539 ], [ 144.964465729238697, -37.687846532499314 ] ] } },
{ "type": "Feature", "properties": { "gid": 644, "fclass": "trunk", "length": 23.967173756663357, "status": "disappeared" }, "geometry": { "type": "LineString", "coordinates": [ [ 144.969453481731875, -37.677800644904472 ], [ 144.969223005862204, -37.677915019642157 ] ] } },
{ "type": "Feature", "properties": { "gid": 651, "fclass": "trunk", "length": 25.092498225406132, "status": "disappeared" }, "geometry": { "type": "LineString", "coordinates": [ [ 144.934301211559699, -37.691381217919364 ], [ 144.934144487585456, -37.691468387162189 ], [ 144.934128219078673, -37.6915413293626 ] ] } },
{ "type": "Feature", "properties": { "gid": 663, "fclass": "trunk", "length": 25.526755393143432, "status": "disappeared" }, "geometry": { "type": "LineString", "coordinates": [ [ 144.9648949848673, -37.694003163782547 ], [ 144.964923688582047, -37.69423203825859 ] ] } },
{ "type": "Feature", "properties": { "gid": 668, "fclass": "trunk", "length": 49.677161166498891, "status": "disappeared" }, "geometry": { "type": "LineString", "coordinates": [ [ 144.949149913923378, -37.673307939391051 ], [ 144.949076111807585, -37.67330361676197 ], [ 144.949016745370329, -37.67324780495845 ], [ 144.94891974549472, -37.672941652808532 ] ] } },
{ "type": "Feature", "properties": { "gid": 686, "fclass": "trunk", "length": 7.6199999996460974, "status": "disappeared" }, "geometry": { "type": "LineString", "coordinates": [ [ 144.969879204737452, -37.693706994658854 ], [ 144.969879177399406, -37.693775654481222 ] ] } },
{ "type": "Feature", "properties": { "gid": 687, "fclass": "trunk", "length": 92.077258883265358, "status": "disappeared" }, "geometry": { "type": "LineString", "coordinates": [ [ 144.963433781229043, -37.677249676445904 ], [ 144.96300209870077, -37.676494280923109 ] ] } },
{ "type": "Feature", "properties": { "gid": 691, "fclass": "trunk", "length": 34.832358673557721, "status": "disappeared" }, "geometry": { "type": "LineString", "coordinates": [ [ 144.94157325122427, -37.675570274190612 ], [ 144.941656171809711, -37.67542441144775 ], [ 144.941688691757122, -37.675272802419904 ] ] } },
{ "type": "Feature", "properties": { "gid": 702, "fclass": "trunk", "length": 3.5926092052387086, "status": "disappeared" }, "geometry": { "type": "LineString", "coordinates": [ [ 144.941633451964293, -37.672205946218121 ], [ 144.941604668094129, -37.672183045388564 ] ] } },
{ "type": "Feature", "properties": { "gid": 703, "fclass": "trunk", "length": 2.5407166122458875, "status": "disappeared" }, "geometry": { "type": "LineString", "coordinates": [ [ 144.941633451964293, -37.672205946218121 ], [ 144.941604650432367, -37.672205932178969 ] ] } },
{ "type": "Feature", "properties": { "gid": 705, "fclass": "trunk", "length": 3.5926092055679342, "status": "disappeared" }, "geometry": { "type": "LineString", "coordinates": [ [ 144.941633451964293, -37.672205946218121 ], [ 144.941604632770577, -37.672228818969181 ] ] } },
{ "type": "Feature", "properties": { "gid": 712, "fclass": "trunk", "length": 19.50463351813185, "status": "disappeared" }, "geometry": { "type": "LineString", "coordinates": [ [ 144.93558333807178, -37.674308429796788 ], [ 144.935567074641341, -37.674381372665003 ], [ 144.93546801163771, -37.674445688403601 ] ] } },
{ "type": "Feature", "properties": { "gid": 727, "fclass": "trunk", "length": 38.437364160697406, "status": "disappeared" }, "geometry": { "type": "LineString", "coordinates": [ [ 144.969214876735691, -37.697895072098731 ], [ 144.969272638819945, -37.697551788301055 ] ] } },
{ "type": "Feature", "properties": { "gid": 731, "fclass": "trunk", "length": 77.333898150292057, "status": "disappeared" }, "geometry": { "type": "LineString", "coordinates": [ [ 144.951255876859619, -37.667999074856183 ], [ 144.951228959891978, -37.667870325455731 ], [ 144.951311947299956, -37.6675785520641 ], [ 144.951342718126739, -37.667312505074506 ] ] } },
{ "type": "Feature", "properties": { "gid": 739, "fclass": "trunk", "length": 2.5400000000372529, "status": "disappeared" }, "geometry": { "type": "LineString", "coordinates": [ [ 144.941604685755891, -37.672160158597919 ], [ 144.941604668094129, -37.672183045388564 ] ] } },
{ "type": "Feature", "properties": { "gid": 747, "fclass": "trunk", "length": 2.5407166122458875, "status": "disappeared" }, "geometry": { "type": "LineString", "coordinates": [ [ 144.97045597122019, -37.692242394830828 ], [ 144.970427162056012, -37.69224238772285 ] ] } },
{ "type": "Feature", "properties": { "gid": 749, "fclass": "trunk", "length": 2.5400000000372529, "status": "disappeared" }, "geometry": { "type": "LineString", "coordinates": [ [ 144.97045597122019, -37.692242394830828 ], [ 144.970455962282188, -37.692265281451263 ] ] } },
{ "type": "Feature", "properties": { "gid": 775, "fclass": "trunk", "length": 20.950938353164965, "status": "disappeared" }, "geometry": { "type": "LineString", "coordinates": [ [ 144.935437998551862, -37.675864652254944 ], [ 144.935207535970306, -37.675910301344537 ] ] } },
{ "type": "Feature", "properties": { "gid": 776, "fclass": "trunk", "length": 46.862770945108323, "status": "disappeared" }, "geometry": { "type": "LineString", "coordinates": [ [ 144.964961487762793, -37.674824136176454 ], [ 144.964876780730407, -37.675038674861561 ], [ 144.964874888934645, -37.675236072707193 ] ] } },
{ "type": "Feature", "properties": { "gid": 777, "fclass": "trunk", "length": 25.017263129144325, "status": "disappeared" }, "geometry": { "type": "LineString", "coordinates": [ [ 144.940422364103398, -37.674013406419938 ], [ 144.940306992732644, -37.67421933002062 ] ] } },
{ "type": "Feature", "properties": { "gid": 778, "fclass": "trunk", "length": 49.30809308905733, "status": "disappeared" }, "geometry": { "type": "LineString", "coordinates": [ [ 144.964779447174294, -37.694643954814737 ], [ 144.964750489127027, -37.694961497885899 ], [ 144.964808054959178, -37.695078808629084 ] ] } },
{ "type": "Feature", "properties": { "gid": 785, "fclass": "trunk", "length": 47.413297713783244, "status": "disappeared" }, "geometry": { "type": "LineString", "coordinates": [ [ 144.935471719917473, -37.67009719853052 ], [ 144.935327490117203, -37.670361749554004 ], [ 144.935183418586689, -37.670440345098129 ] ] } },
{ "type": "Feature", "properties": { "gid": 790, "fclass": "trunk", "length": 18.920443574133436, "status": "disappeared" }, "geometry": { "type": "LineString", "coordinates": [ [ 144.975351747013804, -37.697713399190093 ], [ 144.975301286229637, -37.697839264956173 ], [ 144.975322883502514, -37.697873599266607 ] ] } },
{ "type": "Feature", "properties": { "gid": 804, "fclass": "trunk", "length": 2.5399999995715916, "status": "disappeared" }, "geometry": { "type": "LineString", "coordinates": [ [ 144.941604650432367, -37.672205932178969 ], [ 144.941604668094129, -37.672183045388564 ] ] } },
{ "type": "Feature", "properties": { "gid": 805, "fclass": "trunk", "length": 2.5400000000372529, "status": "disappeared" }, "geometry": { "type": "LineString", "coordinates": [ [ 144.941604650432367, -37.672205932178969 ], [ 144.941604632770577, -37.672228818969181 ] ] } },
{ "type": "Feature", "properties": { "gid": 808, "fclass": "trunk", "length": 33.117603187805912, "status": "disappeared" }, "geometry": { "type": "LineString", "coordinates": [ [ 144.970427036801397, -37.692562800391009 ], [ 144.970455962282188, -37.692265281451263 ] ] } },
{ "type": "Feature", "properties": { "gid": 818, "fclass": "trunk", "length": 15.360722499142469, "status": "disappeared" }, "geometry": { "type": "LineString", "coordinates": [ [ 144.941489355821517, -37.672320309902076 ], [ 144.94156137743505, -37.672297458266918 ], [ 144.941604632770577, -37.672228818969181 ] ] } },
{ "type": "Feature", "properties": { "gid": 823, "fclass": "trunk", "length": 3.5926092055679342, "status": "disappeared" }, "geometry": { "type": "LineString", "coordinates": [ [ 144.970427162056012, -37.69224238772285 ], [ 144.970455962282188, -37.692265281451263 ] ] } },
{ "type": "Feature", "properties": { "gid": 824, "fclass": "trunk", "length": 23.417953873690539, "status": "disappeared" }, "geometry": { "type": "LineString", "coordinates": [ [ 144.933585411098449, -37.686345758785492 ], [ 144.933527616296118, -37.686551706827125 ] ] } },
{ "type": "Feature", "properties": { "gid": 827, "fclass": "trunk", "length": 26.984924381557949, "status": "disappeared" }, "geometry": { "type": "LineString", "coordinates": [ [ 144.960198897695449, -37.694161901957088 ], [ 144.960231268219587, -37.694239155003977 ], [ 144.960429316989803, -37.694276411316437 ] ] } },
{ "type": "Feature", "properties": { "gid": 855, "fclass": "trunk", "length": 3.5926092055679342, "status": "disappeared" }, "geometry": { "type": "LineString", "coordinates": [ [ 144.970455962282188, -37.692265281451263 ], [ 144.970484780384396, -37.692242401931914 ] ] } },
{ "type": "Feature", "properties": { "gid": 862, "fclass": "primary", "length": 27.100742755781152, "status": "disappeared" }, "geometry": { "type": "LineString", "coordinates": [ [ 144.960207336929273, -37.678118344492354 ], [ 144.960160625675172, -37.677938095834953 ], [ 144.960092230427904, -37.677912325475589 ] ] } },
{ "type": "Feature", "properties": { "gid": 869, "fclass": "primary", "length": 18.491872907102067, "status": "disappeared" }, "geometry": { "type": "LineString", "coordinates": [ [ 144.967400602145261, -37.695949232703171 ], [ 144.967458154378477, -37.696109454479014 ] ] } },
{ "type": "Feature", "properties": { "gid": 873, "fclass": "primary", "length": 20.354954015232511, "status": "disappeared" }, "geometry": { "type": "LineString", "coordinates": [ [ 144.932280717283362, -37.663526911804453 ], [ 144.932323979860513, -37.663453984347449 ], [ 144.932424831034155, -37.663389671961205 ] ] } },
{ "type": "Feature", "properties": { "gid": 885, "fclass": "primary", "length": 14.811724009502809, "status": "disappeared" }, "geometry": { "type": "LineString", "coordinates": [ [ 144.957436341440513, -37.688485067622722 ], [ 144.957349853732865, -37.688599470142783 ] ] } },
{ "type": "Feature", "properties": { "gid": 889, "fclass": "primary", "length": 49.904065858094818, "status": "disappeared" }, "geometry": { "type": "LineString", "coordinates": [ [ 144.965478450651659, -37.678074206175388 ], [ 144.965586486905778, -37.678025602928663 ], [ 144.965692782455932, -37.677845400289058 ], [ 144.96588181693977, -37.67782256753577 ] ] } },
{ "type": "Feature", "properties": { "gid": 891, "fclass": "primary", "length": 3.5926092055679342, "status": "disappeared" }, "geometry": { "type": "LineString", "coordinates": [ [ 144.9322596422152, -37.654898534414698 ], [ 144.93223086776328, -37.654875631185192 ] ] } },
{ "type": "Feature", "properties": { "gid": 892, "fclass": "primary", "length": 2.5400000000372529, "status": "disappeared" }, "geometry": { "type": "LineString", "coordinates": [ [ 144.9322596422152, -37.654898534414698 ], [ 144.932259662698726, -37.654875647478626 ] ] } },
{ "type": "Feature", "properties": { "gid": 894, "fclass": "primary", "length": 2.5400000000372529, "status": "disappeared" }, "geometry": { "type": "LineString", "coordinates": [ [ 144.9322596422152, -37.654898534414698 ], [ 144.932259621731703, -37.654921421350586 ] ] } },
{ "type": "Feature", "properties": { "gid": 895, "fclass": "primary", "length": 18.920443574718391, "status": "disappeared" }, "geometry": { "type": "LineString", "coordinates": [ [ 144.960564874720745, -37.655300279870865 ], [ 144.960514417623671, -37.655426141411937 ], [ 144.960535996085952, -37.655460478934302 ] ] } },
{ "type": "Feature", "properties": { "gid": 907, "fclass": "primary", "length": 12.699999999720603, "status": "disappeared" }, "geometry": { "type": "LineString", "coordinates": [ [ 144.941486842786816, -37.675570232008937 ], [ 144.941486754295767, -37.675684665813776 ] ] } },
{ "type": "Feature", "properties": { "gid": 908, "fclass": "primary", "length": 3.5926092055679342, "status": "disappeared" }, "geometry": { "type": "LineString", "coordinates": [ [ 144.946041881642344, -37.669690464427525 ], [ 144.946070665907172, -37.669713364212058 ] ] } },
{ "type": "Feature", "properties": { "gid": 912, "fclass": "primary", "length": 30.124712425633092, "status": "disappeared" }, "geometry": { "type": "LineString", "coordinates": [ [ 144.95502680468698, -37.671136044587143 ], [ 144.954886394076624, -37.671144574332466 ], [ 144.954810837237318, -37.671067302875805 ], [ 144.954738848174628, -37.671044388885107 ] ] } },
{ "type": "Feature", "properties": { "gid": 913, "fclass": "primary", "length": 38.575204112642467, "status": "disappeared" }, "geometry": { "type": "LineString", "coordinates": [ [ 144.959952172989915, -37.670428301733111 ], [ 144.960043982523047, -37.670415458565756 ], [ 144.960092617909311, -37.670351105622046 ], [ 144.96006752135122, -37.670153698491774 ] ] } },
{ "type": "Feature", "properties": { "gid": 924, "fclass": "primary", "length": 23.332680578809203, "status": "disappeared" }, "geometry": { "type": "LineString", "coordinates": [ [ 144.938622694138019, -37.655680121145949 ], [ 144.938719867659188, -37.655693044819202 ], [ 144.938852982120636, -37.655771786723101 ] ] } },
{ "type": "Feature", "properties": { "gid": 928, "fclass": "primary", "length": 27.082180872146992, "status": "disappeared" }, "geometry": { "type": "LineString", "coordinates": [ [ 144.947238787937977, -37.687931730535993 ], [ 144.947357630900513, -37.687914617822003 ], [ 144.947498135028269, -37.687817411164012 ] ] } },
{ "type": "Feature", "properties": { "gid": 929, "fclass": "primary", "length": 13.678850961408727, "status": "disappeared" }, "geometry": { "type": "LineString", "coordinates": [ [ 144.946743115153055, -37.696376676189665 ], [ 144.946685413030735, -37.696491083469759 ] ] } },
{ "type": "Feature", "properties": { "gid": 933, "fclass": "primary", "length": 20.479556988911028, "status": "disappeared" }, "geometry": { "type": "LineString", "coordinates": [ [ 144.932227283322703, -37.691036763075211 ], [ 144.932111904760291, -37.691196904209036 ] ] } },
{ "type": "Feature", "properties": { "gid": 936, "fclass": "primary", "length": 11.827619630347561, "status": "disappeared" }, "geometry": { "type": "LineString", "coordinates": [ [ 144.967632261880112, -37.693202903195711 ], [ 144.967718673988713, -37.693241547672677 ], [ 144.967747490241464, -37.693225820886475 ] ] } },
{ "type": "Feature", "properties": { "gid": 940, "fclass": "primary", "length": 21.573246584987171, "status": "disappeared" }, "geometry": { "type": "LineString", "coordinates": [ [ 144.962177514800601, -37.655071930698682 ], [ 144.962080367456764, -37.655000378278423 ], [ 144.962091209996203, -37.654911694807048 ] ] } },
{ "type": "Feature", "properties": { "gid": 946, "fclass": "primary", "length": 7.6221498372033238, "status": "disappeared" }, "geometry": { "type": "LineString", "coordinates": [ [ 144.931780770207098, -37.675038701260249 ], [ 144.931867178031723, -37.675038750444138 ] ] } },
{ "type": "Feature", "properties": { "gid": 951, "fclass": "primary", "length": 73.478331262295654, "status": "disappeared" }, "geometry": { "type": "LineString", "coordinates": [ [ 144.967297796525628, -37.667180603562493 ], [ 144.96724728203435, -37.667446649247573 ], [ 144.967268770463932, -37.667704132022344 ], [ 144.967124740281946, -37.667775613928718 ] ] } },
{ "type": "Feature", "properties": { "gid": 961, "fclass": "primary", "length": 15.450334653675144, "status": "disappeared" }, "geometry": { "type": "LineString", "coordinates": [ [ 144.935688257429348, -37.686415566210862 ], [ 144.935659333707605, -37.686552870740663 ] ] } },
{ "type": "Feature", "properties": { "gid": 963, "fclass": "primary", "length": 2.5400000000372529, "status": "disappeared" }, "geometry": { "type": "LineString", "coordinates": [ [ 144.93189598063995, -37.675038766824912 ], [ 144.931896001238897, -37.675015880060307 ] ] } },
{ "type": "Feature", "properties": { "gid": 964, "fclass": "primary", "length": 2.5407166127115488, "status": "disappeared" }, "geometry": { "type": "LineString", "coordinates": [ [ 144.93189598063995, -37.675038766824912 ], [ 144.931867178031723, -37.675038750444138 ] ] } },
{ "type": "Feature", "properties": { "gid": 965, "fclass": "primary", "length": 9.1598890893779839, "status": "disappeared" }, "geometry": { "type": "LineString", "coordinates": [ [ 144.93189598063995, -37.675038766824912 ], [ 144.931982347319092, -37.675084589454272 ] ] } },
{ "type": "Feature", "properties": { "gid": 971, "fclass": "primary", "length": 27.122533866789809, "status": "disappeared" }, "geometry": { "type": "LineString", "coordinates": [ [ 144.946759851070055, -37.672597410270583 ], [ 144.946900301427121, -37.672537394784143 ], [ 144.94704791593557, -37.672528877589535 ] ] } },
{ "type": "Feature", "properties": { "gid": 974, "fclass": "primary", "length": 39.432142402372122, "status": "disappeared" }, "geometry": { "type": "LineString", "coordinates": [ [ 144.96393349815699, -37.656148158540148 ], [ 144.963818480570609, -37.655804819826955 ] ] } },
{ "type": "Feature", "properties": { "gid": 984, "fclass": "primary", "length": 3.592609205897253, "status": "disappeared" }, "geometry": { "type": "LineString", "coordinates": [ [ 144.931867178031723, -37.675038750444138 ], [ 144.931896001238897, -37.675015880060307 ] ] } },
{ "type": "Feature", "properties": { "gid": 986, "fclass": "primary", "length": 17.96547812658169, "status": "disappeared" }, "geometry": { "type": "LineString", "coordinates": [ [ 144.959912981777762, -37.690042214147923 ], [ 144.960114652120495, -37.690019394818357 ] ] } },
{ "type": "Feature", "properties": { "gid": 1001, "fclass": "primary", "length": 21.797901991571639, "status": "disappeared" }, "geometry": { "type": "LineString", "coordinates": [ [ 144.967457957468355, -37.696567186171258 ], [ 144.967371519482668, -37.696580036366285 ], [ 144.967342654941831, -37.696704474305911 ] ] } },
{ "type": "Feature", "properties": { "gid": 1003, "fclass": "primary", "length": 30.0737472648702, "status": "disappeared" }, "geometry": { "type": "LineString", "coordinates": [ [ 144.953502524742873, -37.667588005153462 ], [ 144.953462835326178, -37.667733893318285 ], [ 144.953387170567538, -37.667839715505067 ] ] } },
{ "type": "Feature", "properties": { "gid": 1004, "fclass": "primary", "length": 10.160000000149012, "status": "disappeared" }, "geometry": { "type": "LineString", "coordinates": [ [ 144.931896083634513, -37.674924333 ], [ 144.931896001238897, -37.675015880060307 ] ] } },
{ "type": "Feature", "properties": { "gid": 1005, "fclass": "primary", "length": 2.5407166122458875, "status": "disappeared" }, "geometry": { "type": "LineString", "coordinates": [ [ 144.957349853732865, -37.688599470142783 ], [ 144.957321045957428, -37.688599459883086 ] ] } },
{ "type": "Feature", "properties": { "gid": 1006, "fclass": "primary", "length": 3.5926092055679342, "status": "disappeared" }, "geometry": { "type": "LineString", "coordinates": [ [ 144.957349853732865, -37.688599470142783 ], [ 144.957321033046298, -37.68862234653399 ] ] } },
{ "type": "Feature", "properties": { "gid": 1028, "fclass": "primary", "length": 2.5407166122458875, "status": "disappeared" }, "geometry": { "type": "LineString", "coordinates": [ [ 144.957321045957428, -37.688599459883086 ], [ 144.957292238181964, -37.688599449616468 ] ] } },
{ "type": "Feature", "properties": { "gid": 1029, "fclass": "primary", "length": 2.5400000000372529, "status": "disappeared" }, "geometry": { "type": "LineString", "coordinates": [ [ 144.957321045957428, -37.688599459883086 ], [ 144.957321033046298, -37.68862234653399 ] ] } },
{ "type": "Feature", "properties": { "gid": 1031, "fclass": "primary", "length": 28.913733214398512, "status": "disappeared" }, "geometry": { "type": "LineString", "coordinates": [ [ 144.968049514566331, -37.660246085353641 ], [ 144.968087372130242, -37.660100191470882 ], [ 144.968143189661788, -37.660044419515962 ], [ 144.968193586053616, -37.66004014161858 ] ] } },
{ "type": "Feature", "properties": { "gid": 1036, "fclass": "primary", "length": 27.004885074494108, "status": "disappeared" }, "geometry": { "type": "LineString", "coordinates": [ [ 144.934506281332432, -37.687444826118288 ], [ 144.9342756835008, -37.687604906500709 ] ] } },
{ "type": "Feature", "properties": { "gid": 1044, "fclass": "primary", "length": 20.482490188439584, "status": "disappeared" }, "geometry": { "type": "LineString", "coordinates": [ [ 144.932112623583379, -37.69039587221453 ], [ 144.932314200862891, -37.690487532846745 ] ] } },
{ "type": "Feature", "properties": { "gid": 1051, "fclass": "primary", "length": 23.423938892647172, "status": "disappeared" }, "geometry": { "type": "LineString", "coordinates": [ [ 144.946648097543971, -37.667699581956491 ], [ 144.946907328018028, -37.667653923484927 ] ] } },
{ "type": "Feature", "properties": { "gid": 1059, "fclass": "primary", "length": 36.377675903480302, "status": "disappeared" }, "geometry": { "type": "LineString", "coordinates": [ [ 144.935022886981642, -37.689688000017838 ], [ 144.935087860044376, -37.68950780287247 ], [ 144.935253548343127, -37.689459258402728 ] ] } },
{ "type": "Feature", "properties": { "gid": 1065, "fclass": "primary", "length": 20.332007416921471, "status": "disappeared" }, "geometry": { "type": "LineString", "coordinates": [ [ 144.93223753330804, -37.679593425104564 ], [ 144.932201427904914, -37.679704977514078 ], [ 144.932122192749119, -37.67973068021719 ] ] } },
{ "type": "Feature", "properties": { "gid": 1066, "fclass": "primary", "length": 82.833863733643881, "status": "disappeared" }, "geometry": { "type": "LineString", "coordinates": [ [ 144.951169521366324, -37.66793037917607 ], [ 144.951283103326716, -37.667647200844996 ], [ 144.95128519244895, -37.667198047489208 ] ] } },
{ "type": "Feature", "properties": { "gid": 1067, "fclass": "primary", "length": 12.955023065013872, "status": "disappeared" }, "geometry": { "type": "LineString", "coordinates": [ [ 144.957148212268208, -37.688576511528332 ], [ 144.957292238181964, -37.688599449616468 ] ] } },
{ "type": "Feature", "properties": { "gid": 1070, "fclass": "primary", "length": 18.491872906974105, "status": "disappeared" }, "geometry": { "type": "LineString", "coordinates": [ [ 144.959392908638023, -37.692879981177846 ], [ 144.959335203709003, -37.693040167927393 ] ] } },
{ "type": "Feature", "properties": { "gid": 1071, "fclass": "primary", "length": 29.181043157112516, "status": "disappeared" }, "geometry": { "type": "LineString", "coordinates": [ [ 144.965707511618888, -37.681095320695789 ], [ 144.965631816837742, -37.68127553191318 ], [ 144.965563382856004, -37.681324146534401 ] ] } },
{ "type": "Feature", "properties": { "gid": 1072, "fclass": "primary", "length": 2.5407166122458875, "status": "disappeared" }, "geometry": { "type": "LineString", "coordinates": [ [ 144.932259662698726, -37.654875647478626 ], [ 144.93223086776328, -37.654875631185192 ] ] } },
{ "type": "Feature", "properties": { "gid": 1074, "fclass": "primary", "length": 14.811724009902081, "status": "disappeared" }, "geometry": { "type": "LineString", "coordinates": [ [ 144.962714980508281, -37.674640363717913 ], [ 144.962801331637763, -37.674754824442708 ] ] } },
{ "type": "Feature", "properties": { "gid": 1075, "fclass": "primary", "length": 31.419345081928398, "status": "disappeared" }, "geometry": { "type": "LineString", "coordinates": [ [ 144.934272422613333, -37.691358315493304 ], [ 144.934185886638801, -37.691484144473215 ], [ 144.934041772449319, -37.691564168432336 ] ] } },
{ "type": "Feature", "properties": { "gid": 1077, "fclass": "primary", "length": 21.707137486826038, "status": "disappeared" }, "geometry": { "type": "LineString", "coordinates": [ [ 144.94207080126219, -37.665248562657887 ], [ 144.942301139987478, -37.66531733442941 ] ] } },
{ "type": "Feature", "properties": { "gid": 1080, "fclass": "primary", "length": 25.875355693028347, "status": "disappeared" }, "geometry": { "type": "LineString", "coordinates": [ [ 144.9318985348132, -37.67220080651925 ], [ 144.932058804959752, -37.672132237140161 ], [ 144.932129070203786, -37.672063616574675 ] ] } },
{ "type": "Feature", "properties": { "gid": 1082, "fclass": "primary", "length": 20.950938353616728, "status": "disappeared" }, "geometry": { "type": "LineString", "coordinates": [ [ 144.93223086776328, -37.654875631185192 ], [ 144.932000549404165, -37.654829726715775 ] ] } },
{ "type": "Feature", "properties": { "gid": 1090, "fclass": "primary", "length": 7.6200000001117587, "status": "disappeared" }, "geometry": { "type": "LineString", "coordinates": [ [ 144.962637093953731, -37.657383655145871 ], [ 144.96263706005891, -37.657452315901992 ] ] } },
{ "type": "Feature", "properties": { "gid": 1096, "fclass": "primary", "length": 3.5926092055679342, "status": "disappeared" }, "geometry": { "type": "LineString", "coordinates": [ [ 144.957292238181964, -37.688599449616468 ], [ 144.957321033046298, -37.68862234653399 ] ] } },
{ "type": "Feature", "properties": { "gid": 1107, "fclass": "tertiary", "length": 92.825236133612719, "status": "disappeared" }, "geometry": { "type": "LineString", "coordinates": [ [ 144.951140706683304, -37.667953254258173 ], [ 144.951308277379951, -37.667687263046432 ], [ 144.95128517587446, -37.667223795177797 ], [ 144.951314021524951, -37.667152285531209 ] ] } },
{ "type": "Feature", "properties": { "gid": 1115, "fclass": "tertiary", "length": 26.635268926093051, "status": "disappeared" }, "geometry": { "type": "LineString", "coordinates": [ [ 144.932256133010554, -37.690991006116207 ], [ 144.93219840026822, -37.691119710793373 ], [ 144.932111904760291, -37.691196904209036 ] ] } },
{ "type": "Feature", "properties": { "gid": 1132, "fclass": "tertiary", "length": 37.875048515379333, "status": "disappeared" }, "geometry": { "type": "LineString", "coordinates": [ [ 144.965478450651659, -37.678074206175388 ], [ 144.96564589853827, -37.678017037453635 ], [ 144.965680191225857, -37.67782250993416 ] ] } },
{ "type": "Feature", "properties": { "gid": 1133, "fclass": "tertiary", "length": 2.5407166122458875, "status": "disappeared" }, "geometry": { "type": "LineString", "coordinates": [ [ 144.965680201606688, -37.677799623189138 ], [ 144.965651397942054, -37.677799614932603 ] ] } },
{ "type": "Feature", "properties": { "gid": 1134, "fclass": "tertiary", "length": 2.5407166122458875, "status": "disappeared" }, "geometry": { "type": "LineString", "coordinates": [ [ 144.965680201606688, -37.677799623189138 ], [ 144.965709005271407, -37.677799631438724 ] ] } },
{ "type": "Feature", "properties": { "gid": 1135, "fclass": "tertiary", "length": 2.5400000000372529, "status": "disappeared" }, "geometry": { "type": "LineString", "coordinates": [ [ 144.965680201606688, -37.677799623189138 ], [ 144.965680191225857, -37.67782250993416 ] ] } },
{ "type": "Feature", "properties": { "gid": 1137, "fclass": "tertiary", "length": 3.5926092055679342, "status": "disappeared" }, "geometry": { "type": "LineString", "coordinates": [ [ 144.9322596422152, -37.654898534414698 ], [ 144.93223086776328, -37.654875631185192 ] ] } },
{ "type": "Feature", "properties": { "gid": 1138, "fclass": "tertiary", "length": 2.5400000000372529, "status": "disappeared" }, "geometry": { "type": "LineString", "coordinates": [ [ 144.9322596422152, -37.654898534414698 ], [ 144.932259662698726, -37.654875647478626 ] ] } },
{ "type": "Feature", "properties": { "gid": 1139, "fclass": "tertiary", "length": 5.679933177819894, "status": "disappeared" }, "geometry": { "type": "LineString", "coordinates": [ [ 144.9322596422152, -37.654898534414698 ], [ 144.93223080628664, -37.654944291992834 ] ] } },
{ "type": "Feature", "properties": { "gid": 1140, "fclass": "tertiary", "length": 31.845766614019954, "status": "disappeared" }, "geometry": { "type": "LineString", "coordinates": [ [ 144.932157912717486, -37.672017859312014 ], [ 144.932075008372635, -37.672129385480616 ], [ 144.9318985348132, -37.67220080651925 ] ] } },
{ "type": "Feature", "properties": { "gid": 1142, "fclass": "tertiary", "length": 79.548974053010255, "status": "disappeared" }, "geometry": { "type": "LineString", "coordinates": [ [ 144.967326615911617, -37.667134837750282 ], [ 144.967241894469964, -37.667418039228075 ], [ 144.967263375447573, -37.667692687130497 ], [ 144.96722554966729, -37.667752754724987 ], [ 144.967124740281946, -37.667775613928718 ] ] } },
{ "type": "Feature", "properties": { "gid": 1154, "fclass": "tertiary", "length": 3.5926092055679342, "status": "disappeared" }, "geometry": { "type": "LineString", "coordinates": [ [ 144.946041881642344, -37.669690464427525 ], [ 144.946070665907172, -37.669713364212058 ] ] } },
{ "type": "Feature", "properties": { "gid": 1158, "fclass": "tertiary", "length": 31.492548453647061, "status": "disappeared" }, "geometry": { "type": "LineString", "coordinates": [ [ 144.934234680937806, -37.668494447892598 ], [ 144.934274407821164, -37.668348566144353 ], [ 144.934378899836048, -37.668242771838798 ] ] } },
{ "type": "Feature", "properties": { "gid": 1161, "fclass": "tertiary", "length": 44.661636462443717, "status": "disappeared" }, "geometry": { "type": "LineString", "coordinates": [ [ 144.959952172989915, -37.670428301733111 ], [ 144.960070985587379, -37.670411176294131 ], [ 144.960125015826804, -37.67035683811612 ], [ 144.960141279583212, -37.670236687761779 ], [ 144.960038720597481, -37.67015368888552 ] ] } },
{ "type": "Feature", "properties": { "gid": 1162, "fclass": "tertiary", "length": 8.0342247998092038, "status": "disappeared" }, "geometry": { "type": "LineString", "coordinates": [ [ 144.931982367891891, -37.675061702690058 ], [ 144.93189598063995, -37.675038766824912 ] ] } },
{ "type": "Feature", "properties": { "gid": 1164, "fclass": "tertiary", "length": 31.389503925606689, "status": "disappeared" }, "geometry": { "type": "LineString", "coordinates": [ [ 144.93225187807991, -37.663572669241489 ], [ 144.932316773914295, -37.66346113242345 ], [ 144.932453670063239, -37.663343914479341 ] ] } },
{ "type": "Feature", "properties": { "gid": 1165, "fclass": "tertiary", "length": 47.883220408349274, "status": "disappeared" }, "geometry": { "type": "LineString", "coordinates": [ [ 144.963904691817476, -37.656171036793012 ], [ 144.963922733964324, -37.656076633631407 ], [ 144.96381844911582, -37.655870619757003 ], [ 144.963847297728876, -37.655759054659001 ] ] } },
{ "type": "Feature", "properties": { "gid": 1167, "fclass": "tertiary", "length": 22.731079737267166, "status": "disappeared" }, "geometry": { "type": "LineString", "coordinates": [ [ 144.93231422133951, -37.690464646215524 ], [ 144.932173805642094, -37.690435958495293 ], [ 144.932141473096209, -37.690350115271983 ] ] } },
{ "type": "Feature", "properties": { "gid": 1173, "fclass": "tertiary", "length": 21.707137486989502, "status": "disappeared" }, "geometry": { "type": "LineString", "coordinates": [ [ 144.938622694138019, -37.655680121145949 ], [ 144.938853000610635, -37.655748899793323 ] ] } },
{ "type": "Feature", "properties": { "gid": 1177, "fclass": "tertiary", "length": 34.255711940490357, "status": "disappeared" }, "geometry": { "type": "LineString", "coordinates": [ [ 144.947238787937977, -37.687931730535993 ], [ 144.947357630900513, -37.687914617822003 ], [ 144.947555781710889, -37.687771663087133 ] ] } },
{ "type": "Feature", "properties": { "gid": 1178, "fclass": "tertiary", "length": 33.282651841126061, "status": "disappeared" }, "geometry": { "type": "LineString", "coordinates": [ [ 144.967429432429043, -37.695903467362569 ], [ 144.967477965380965, -37.69610087738738 ], [ 144.967400503516558, -37.696178098573206 ] ] } },
{ "type": "Feature", "properties": { "gid": 1184, "fclass": "tertiary", "length": 24.103840588449788, "status": "disappeared" }, "geometry": { "type": "LineString", "coordinates": [ [ 144.960622476831446, -37.655277411886964 ], [ 144.960525256090648, -37.655348901564302 ], [ 144.960535996085952, -37.655460478934302 ] ] } },
{ "type": "Feature", "properties": { "gid": 1189, "fclass": "tertiary", "length": 26.511387096766107, "status": "disappeared" }, "geometry": { "type": "LineString", "coordinates": [ [ 144.941515680978227, -37.675524472553107 ], [ 144.941504753869168, -37.675687535451843 ], [ 144.941457898318816, -37.675753312019907 ] ] } },
{ "type": "Feature", "properties": { "gid": 1191, "fclass": "tertiary", "length": 26.691490697251112, "status": "disappeared" }, "geometry": { "type": "LineString", "coordinates": [ [ 144.962177514800601, -37.655071930698682 ], [ 144.962080367456764, -37.655000378278423 ], [ 144.962062437985395, -37.654865911807342 ] ] } },
{ "type": "Feature", "properties": { "gid": 1193, "fclass": "tertiary", "length": 91.271290504198348, "status": "disappeared" }, "geometry": { "type": "LineString", "coordinates": [ [ 144.964932165502944, -37.675945579272387 ], [ 144.964813359949545, -37.675931240201955 ], [ 144.964723330714065, -37.675974126402686 ], [ 144.964698028012407, -37.676188682350599 ], [ 144.96463138685678, -37.676261614243664 ], [ 144.964379374729305, -37.676230070264729 ], [ 144.964336200467585, -37.676165688399088 ], [ 144.964356030859818, -37.676105616550359 ] ] } },
{ "type": "Feature", "properties": { "gid": 1214, "fclass": "tertiary", "length": 2.5400000000372529, "status": "disappeared" }, "geometry": { "type": "LineString", "coordinates": [ [ 144.93189598063995, -37.675038766824912 ], [ 144.931896001238897, -37.675015880060307 ] ] } },
{ "type": "Feature", "properties": { "gid": 1215, "fclass": "tertiary", "length": 2.5407166127115488, "status": "disappeared" }, "geometry": { "type": "LineString", "coordinates": [ [ 144.93189598063995, -37.675038766824912 ], [ 144.931867178031723, -37.675038750444138 ] ] } },
{ "type": "Feature", "properties": { "gid": 1251, "fclass": "tertiary", "length": 3.592609205897253, "status": "disappeared" }, "geometry": { "type": "LineString", "coordinates": [ [ 144.931867178031723, -37.675038750444138 ], [ 144.931896001238897, -37.675015880060307 ] ] } },
{ "type": "Feature", "properties": { "gid": 1252, "fclass": "tertiary", "length": 15.244299673940986, "status": "disappeared" }, "geometry": { "type": "LineString", "coordinates": [ [ 144.931867178031723, -37.675038750444138 ], [ 144.931694362382586, -37.675038652014045 ] ] } },
{ "type": "Feature", "properties": { "gid": 1259, "fclass": "tertiary", "length": 27.122533866789809, "status": "disappeared" }, "geometry": { "type": "LineString", "coordinates": [ [ 144.942042019905898, -37.665225661873926 ], [ 144.942182368524641, -37.665285807717531 ], [ 144.942329956338625, -37.665294461451815 ] ] } },
{ "type": "Feature", "properties": { "gid": 1263, "fclass": "tertiary", "length": 24.661535735135661, "status": "disappeared" }, "geometry": { "type": "LineString", "coordinates": [ [ 144.955804354915728, -37.671273654870475 ], [ 144.955786409339368, -37.671179240174411 ], [ 144.955862077419368, -37.671067694903286 ] ] } },
{ "type": "Feature", "properties": { "gid": 1264, "fclass": "tertiary", "length": 42.792724193237937, "status": "disappeared" }, "geometry": { "type": "LineString", "coordinates": [ [ 144.968014227253093, -37.675603140505075 ], [ 144.967808993710065, -37.67563455482594 ], [ 144.967553332922932, -37.675717450368502 ] ] } },
{ "type": "Feature", "properties": { "gid": 1265, "fclass": "tertiary", "length": 23.417953873690539, "status": "disappeared" }, "geometry": { "type": "LineString", "coordinates": [ [ 144.964211149765077, -37.67793651374248 ], [ 144.964268854468202, -37.677730550238735 ] ] } },
{ "type": "Feature", "properties": { "gid": 1270, "fclass": "tertiary", "length": 25.533814647307057, "status": "disappeared" }, "geometry": { "type": "LineString", "coordinates": [ [ 144.95988418558855, -37.690019317865698 ], [ 144.96017228080234, -37.689996527348193 ] ] } },
{ "type": "Feature", "properties": { "gid": 1271, "fclass": "tertiary", "length": 3.5926092055679342, "status": "disappeared" }, "geometry": { "type": "LineString", "coordinates": [ [ 144.965680191225857, -37.67782250993416 ], [ 144.965651397942054, -37.677799614932603 ] ] } },
{ "type": "Feature", "properties": { "gid": 1272, "fclass": "tertiary", "length": 3.5926092055679342, "status": "disappeared" }, "geometry": { "type": "LineString", "coordinates": [ [ 144.965680191225857, -37.67782250993416 ], [ 144.965709005271407, -37.677799631438724 ] ] } },
{ "type": "Feature", "properties": { "gid": 1279, "fclass": "tertiary", "length": 8.0324118985402908, "status": "disappeared" }, "geometry": { "type": "LineString", "coordinates": [ [ 144.96562262547215, -37.677730946432881 ], [ 144.965651397942054, -37.677799614932603 ] ] } },
{ "type": "Feature", "properties": { "gid": 1284, "fclass": "tertiary", "length": 24.102674400311166, "status": "disappeared" }, "geometry": { "type": "LineString", "coordinates": [ [ 144.946907344075044, -37.667631036654839 ], [ 144.946648097543971, -37.667699581956491 ] ] } },
{ "type": "Feature", "properties": { "gid": 1286, "fclass": "tertiary", "length": 39.54463971440773, "status": "disappeared" }, "geometry": { "type": "LineString", "coordinates": [ [ 144.96553455699879, -37.681369911678942 ], [ 144.965660642600113, -37.681229766743591 ], [ 144.965707532364945, -37.681049547261892 ] ] } },
{ "type": "Feature", "properties": { "gid": 1294, "fclass": "tertiary", "length": 30.485564406791259, "status": "disappeared" }, "geometry": { "type": "LineString", "coordinates": [ [ 144.968193595671949, -37.660017254721467 ], [ 144.96810718147168, -37.660073018555572 ], [ 144.968020717581993, -37.66024607766682 ] ] } },
{ "type": "Feature", "properties": { "gid": 1297, "fclass": "tertiary", "length": 28.399665889099587, "status": "disappeared" }, "geometry": { "type": "LineString", "coordinates": [ [ 144.959277572455534, -37.693063034968411 ], [ 144.959421742596419, -37.69283421771086 ] ] } },
{ "type": "Feature", "properties": { "gid": 1299, "fclass": "tertiary", "length": 16.06482379693329, "status": "disappeared" }, "geometry": { "type": "LineString", "coordinates": [ [ 144.962694719585556, -37.657315012343894 ], [ 144.96263706005891, -37.657452315901992 ] ] } },
{ "type": "Feature", "properties": { "gid": 1301, "fclass": "tertiary", "length": 29.920858084992442, "status": "disappeared" }, "geometry": { "type": "LineString", "coordinates": [ [ 144.960092230427904, -37.677912325475589 ], [ 144.960196609251966, -37.677978159605701 ], [ 144.960178521098896, -37.678141221661519 ] ] } },
{ "type": "Feature", "properties": { "gid": 1304, "fclass": "tertiary", "length": 40.618106542617156, "status": "disappeared" }, "geometry": { "type": "LineString", "coordinates": [ [ 144.935282376020638, -37.689436387328414 ], [ 144.93510407688072, -37.689493507501645 ], [ 144.934994078795484, -37.689687984389074 ] ] } },
{ "type": "Feature", "properties": { "gid": 1306, "fclass": "tertiary", "length": 38.689821304225369, "status": "disappeared" }, "geometry": { "type": "LineString", "coordinates": [ [ 144.953531352626555, -37.667542242668361 ], [ 144.953358356589376, -37.667862591121448 ] ] } },
{ "type": "Feature", "properties": { "gid": 1307, "fclass": "tertiary", "length": 15.450334653675144, "status": "disappeared" }, "geometry": { "type": "LineString", "coordinates": [ [ 144.931924927379498, -37.674878575842463 ], [ 144.931896001238897, -37.675015880060307 ] ] } },
{ "type": "Feature", "properties": { "gid": 1312, "fclass": "tertiary", "length": 12.951650122994881, "status": "disappeared" }, "geometry": { "type": "LineString", "coordinates": [ [ 144.93366385470523, -37.662589323948531 ], [ 144.933692752836777, -37.662474905539419 ] ] } },
{ "type": "Feature", "properties": { "gid": 1315, "fclass": "tertiary", "length": 2.5407166122458875, "status": "disappeared" }, "geometry": { "type": "LineString", "coordinates": [ [ 144.932259662698726, -37.654875647478626 ], [ 144.93223086776328, -37.654875631185192 ] ] } },
{ "type": "Feature", "properties": { "gid": 1320, "fclass": "tertiary", "length": 19.218490251276343, "status": "disappeared" }, "geometry": { "type": "LineString", "coordinates": [ [ 144.935774717107449, -37.686369839241102 ], [ 144.93568824891787, -37.686425579127672 ], [ 144.935659372634831, -37.686507097408608 ] ] } },
{ "type": "Feature", "properties": { "gid": 1323, "fclass": "tertiary", "length": 12.951650122994881, "status": "disappeared" }, "geometry": { "type": "LineString", "coordinates": [ [ 144.962743715358499, -37.674777693309089 ], [ 144.962714969230973, -37.674663250489822 ] ] } },
{ "type": "Feature", "properties": { "gid": 1325, "fclass": "tertiary", "length": 36.861622272647914, "status": "disappeared" }, "geometry": { "type": "LineString", "coordinates": [ [ 144.954738848174628, -37.671044388885107 ], [ 144.954965593779434, -37.671150325840529 ], [ 144.955113221643671, -37.671113190199499 ] ] } },
{ "type": "Feature", "properties": { "gid": 1327, "fclass": "tertiary", "length": 18.496302449875024, "status": "disappeared" }, "geometry": { "type": "LineString", "coordinates": [ [ 144.93223086776328, -37.654875631185192 ], [ 144.932029344322075, -37.654829743064582 ] ] } },
{ "type": "Feature", "properties": { "gid": 1328, "fclass": "tertiary", "length": 25.138988702477661, "status": "disappeared" }, "geometry": { "type": "LineString", "coordinates": [ [ 144.932122192749119, -37.67973068021719 ], [ 144.93221945114766, -37.679682100978106 ], [ 144.932237574301752, -37.67954765165338 ] ] } },
{ "type": "Feature", "properties": { "gid": 1331, "fclass": "tertiary", "length": 13.51405739515851, "status": "disappeared" }, "geometry": { "type": "LineString", "coordinates": [ [ 144.967429146657423, -37.696567178342264 ], [ 144.967358903023523, -37.696607210749455 ], [ 144.967342674702792, -37.696658701142681 ] ] } },
{ "type": "Feature", "properties": { "gid": 1335, "fclass": "tertiary", "length": 38.00085636312258, "status": "disappeared" }, "geometry": { "type": "LineString", "coordinates": [ [ 144.934330079991497, -37.691312573842701 ], [ 144.934200317200805, -37.691454113693041 ], [ 144.934041772449319, -37.691564168432336 ] ] } },
{ "type": "Feature", "properties": { "gid": 1395, "fclass": "unclassified", "length": 81.935293287548149, "status": "disappeared" }, "geometry": { "type": "LineString", "coordinates": [ [ 144.946230817542755, -37.687519322393392 ], [ 144.945309048127854, -37.68742735844679 ] ] } },
{ "type": "Feature", "properties": { "gid": 1408, "fclass": "unclassified", "length": 337.26808218098085, "status": "disappeared" }, "geometry": { "type": "LineString", "coordinates": [ [ 144.949964555838278, -37.660926501382704 ], [ 144.9522847022306, -37.66065995774936 ], [ 144.95237284216168, -37.660741527402166 ], [ 144.952505641287644, -37.661359526244404 ], [ 144.952559620284347, -37.661385295391746 ], [ 144.952754002841658, -37.661385372239877 ], [ 144.953045605077108, -37.661339713151904 ] ] } },
{ "type": "Feature", "properties": { "gid": 1412, "fclass": "unclassified", "length": 284.91632437359431, "status": "disappeared" }, "geometry": { "type": "LineString", "coordinates": [ [ 144.942693250261215, -37.679942184762588 ], [ 144.94269473880496, -37.677976786609619 ], [ 144.942781602139803, -37.677378911744931 ] ] } },
{ "type": "Feature", "properties": { "gid": 1491, "fclass": "unclassified", "length": 225.42670748366029, "status": "disappeared" }, "geometry": { "type": "LineString", "coordinates": [ [ 144.953074416666396, -37.661316837555304 ], [ 144.953072739228503, -37.661119437462496 ], [ 144.952758902554194, -37.659302666407683 ] ] } },
{ "type": "Feature", "properties": { "gid": 1499, "fclass": "unclassified", "length": 49.860293922726228, "status": "disappeared" }, "geometry": { "type": "LineString", "coordinates": [ [ 144.952644016789947, -37.658821995932463 ], [ 144.952697961839817, -37.658899260578664 ], [ 144.952758931125601, -37.659256892603892 ] ] } },
{ "type": "Feature", "properties": { "gid": 1526, "fclass": "unclassified", "length": 150.8438261309683, "status": "disappeared" }, "geometry": { "type": "LineString", "coordinates": [ [ 144.945857992454251, -37.685184713468999 ], [ 144.945523118230739, -37.685183131228897 ], [ 144.944158511890123, -37.685046613169739 ] ] } },
{ "type": "Feature", "properties": { "gid": 1528, "fclass": "unclassified", "length": 72.363801068584138, "status": "disappeared" }, "geometry": { "type": "LineString", "coordinates": [ [ 144.936116438494508, -37.691061786741201 ], [ 144.93610556999036, -37.691139023344078 ], [ 144.936026273381657, -37.691224805910792 ], [ 144.935568683171681, -37.69151922610093 ] ] } },
{ "type": "Feature", "properties": { "gid": 1532, "fclass": "unclassified", "length": 69.765038660722368, "status": "disappeared" }, "geometry": { "type": "LineString", "coordinates": [ [ 144.949935758597405, -37.660926489346906 ], [ 144.949158156222438, -37.661040596197836 ] ] } },
{ "type": "Feature", "properties": { "gid": 1628, "fclass": "unclassified", "length": 259.7632987528072, "status": "disappeared" }, "geometry": { "type": "LineString", "coordinates": [ [ 144.959193946403445, -37.687867739414266 ], [ 144.959278342066682, -37.688288310508767 ], [ 144.959367895831946, -37.689163755443978 ], [ 144.959416458672194, -37.689258179337074 ], [ 144.959484862414541, -37.689286810802528 ], [ 144.95967931666766, -37.689286876408772 ], [ 144.96057601454541, -37.689195628259988 ] ] } },
{ "type": "Feature", "properties": { "gid": 1631, "fclass": "unclassified", "length": 333.15982330113576, "status": "disappeared" }, "geometry": { "type": "LineString", "coordinates": [ [ 144.948447518524119, -37.689671642572144 ], [ 144.948551861609729, -37.689798994401421 ], [ 144.949264548763068, -37.690271335385063 ], [ 144.949523734748652, -37.690405903889882 ], [ 144.94969655698813, -37.690448889033618 ], [ 144.950668782516999, -37.690542270299638 ], [ 144.950814631200643, -37.690533747779057 ], [ 144.95086688750294, -37.690470830962703 ], [ 144.950838567950768, -37.68971842094345 ] ] } },
{ "type": "Feature", "properties": { "gid": 1653, "fclass": "unclassified", "length": 154.12323969740137, "status": "disappeared" }, "geometry": { "type": "LineString", "coordinates": [ [ 144.948296301595576, -37.658019155596101 ], [ 144.947356763044183, -37.658111724345098 ], [ 144.947248754478068, -37.658144576757934 ], [ 144.94717311857346, -37.658210343302564 ], [ 144.947144262428935, -37.658296156507582 ], [ 144.947201601447489, -37.658659511579266 ] ] } },
{ "type": "Feature", "properties": { "gid": 1670, "fclass": "unclassified", "length": 71.301299873393603, "status": "disappeared" }, "geometry": { "type": "LineString", "coordinates": [ [ 144.946259608648063, -37.687542221978937 ], [ 144.946316768673995, -37.688183074181289 ] ] } },
{ "type": "Feature", "properties": { "gid": 1716, "fclass": "unclassified", "length": 40.956447155796688, "status": "disappeared" }, "geometry": { "type": "LineString", "coordinates": [ [ 144.93709909347578, -37.687263122246513 ], [ 144.937157012174197, -37.686896965900608 ] ] } },
{ "type": "Feature", "properties": { "gid": 1722, "fclass": "unclassified", "length": 48.526781921358364, "status": "disappeared" }, "geometry": { "type": "LineString", "coordinates": [ [ 144.944187655978737, -37.68458889295173 ], [ 144.944129722370462, -37.685023713057561 ] ] } },
{ "type": "Feature", "properties": { "gid": 1797, "fclass": "unclassified", "length": 79.317988762493528, "status": "disappeared" }, "geometry": { "type": "LineString", "coordinates": [ [ 144.952761345284642, -37.655389003383604 ], [ 144.952664172441104, -37.655371799803703 ], [ 144.951868667012349, -37.655434421771723 ] ] } },
{ "type": "Feature", "properties": { "gid": 1811, "fclass": "unclassified", "length": 118.18583842526006, "status": "disappeared" }, "geometry": { "type": "LineString", "coordinates": [ [ 144.966539180188391, -37.689403422101698 ], [ 144.966337055158078, -37.690456151062243 ] ] } },
{ "type": "Feature", "properties": { "gid": 1868, "fclass": "unclassified", "length": 89.068965829473285, "status": "disappeared" }, "geometry": { "type": "LineString", "coordinates": [ [ 144.950860821852785, -37.655456899358278 ], [ 144.951015668046978, -37.655345388968009 ], [ 144.951811178710045, -37.655274190063992 ] ] } },
{ "type": "Feature", "properties": { "gid": 1901, "fclass": "unclassified", "length": 350.97233288829915, "status": "disappeared" }, "geometry": { "type": "LineString", "coordinates": [ [ 144.967345332328904, -37.690502203416983 ], [ 144.967865217206565, -37.68736687271457 ] ] } },
{ "type": "Feature", "properties": { "gid": 1914, "fclass": "unclassified", "length": 402.97499826562034, "status": "disappeared" }, "geometry": { "type": "LineString", "coordinates": [ [ 144.936176874913713, -37.687720367822656 ], [ 144.936457591243965, -37.687906471206482 ], [ 144.936552915347846, -37.68802667671649 ], [ 144.936655341050084, -37.688267040874706 ], [ 144.936779201077712, -37.688713396161113 ], [ 144.936809321916058, -37.689297021751486 ], [ 144.936566917607223, -37.690652927444887 ], [ 144.936352395248605, -37.690960352879415 ], [ 144.936145266521805, -37.691038915473158 ] ] } },
{ "type": "Feature", "properties": { "gid": 1960, "fclass": "unclassified", "length": 102.7840829410726, "status": "disappeared" }, "geometry": { "type": "LineString", "coordinates": [ [ 144.957251848122951, -37.658114235185899 ], [ 144.957280707270712, -37.658002671762638 ], [ 144.957167730507081, -37.657281693396641 ], [ 144.957194773543165, -37.657198737966169 ] ] } },
{ "type": "Feature", "properties": { "gid": 1976, "fclass": "unclassified", "length": 135.82672822571527, "status": "disappeared" }, "geometry": { "type": "LineString", "coordinates": [ [ 144.944216479099651, -37.684566019685469 ], [ 144.945743094818511, -37.684726927711147 ] ] } },
{ "type": "Feature", "properties": { "gid": 1989, "fclass": "unclassified", "length": 99.733870956204299, "status": "disappeared" }, "geometry": { "type": "LineString", "coordinates": [ [ 144.947298523391254, -37.684887828948405 ], [ 144.94642359400504, -37.684797324488819 ], [ 144.946175140460639, -37.684795782691268 ] ] } },
{ "type": "Feature", "properties": { "gid": 2016, "fclass": "unclassified", "length": 35.921227200969561, "status": "disappeared" }, "geometry": { "type": "LineString", "coordinates": [ [ 144.943840435085235, -37.686671418827153 ], [ 144.943898286761851, -37.686351032478868 ] ] } }
]
}
