{
"type": "FeatureCollection",
"crs": { "type": "name", "properties": { "name": "urn:ogc:def:crs:OGC:1.3:CRS84" } },
"features": [
{ "type": "Feature", "properties": { "gid": 3, "fclass": "residential", "length": 28.055281871701446, "status": "disappeared" }, "geometry": { "type": "LineString", "coordinates": [ [ 144.940046684040482, -37.675592406564185 ], [ 144.940075686236327, -37.675340666594437 ] ] } },
{ "type": "Feature", "properties": { "gid": 49, "fclass": "residential", "length": 553.92049996475248, "status": "disappeared" }, "geometry": { "type": "LineString", "coordinates": [ [ 144.949935758594791, -37.66092648934616 ], [ 144.949503643635126, -37.658463104823646 ], [ 144.949410296594777, -37.658102596490345 ], [ 144.94922863306391, -37.657935159011764 ], [ 144.948883118476886, -37.657877794718708 ], [ 144.948775173835742, -37.65781767042548 ], [ 144.948667185708416, -37.657821915479232 ], [ 144.948472771405932, -37.657881910145051 ], [ 144.948256845774125, -37.657816017140959 ], [ 144.947868126591544, -37.657775796430073 ], [ 144.947461539389934, -37.657549610376421 ], [ 144.94730691449351, -37.657329255793101 ], [ 144.947289010717611, -37.657194787227077 ] ] } },
{ "type": "Feature", "properties": { "gid": 91, "fclass": "residential", "length": 166.60629871817159, "status": "disappeared" }, "geometry": { "type": "LineString", "coordinates": [ [ 144.942748625249521, -37.682894598068451 ], [ 144.942741261470076, -37.683109157416744 ], [ 144.942669052162159, -37.683366598297397 ], [ 144.942683390034716, -37.683452430292732 ], [ 144.942576751709908, -37.684001660012619 ], [ 144.942574662539045, -37.684382150326435 ] ] } },
{ "type": "Feature", "properties": { "gid": 103, "fclass": "residential", "length": 222.66196450726449, "status": "disappeared" }, "geometry": { "type": "LineString", "coordinates": [ [ 144.949577413779025, -37.680105487614377 ], [ 144.949548717970941, -37.679942407575226 ], [ 144.949549141449978, -37.679307300881632 ], [ 144.94952039160961, -37.679225754767593 ], [ 144.948108994385052, -37.679212277851903 ] ] } },
{ "type": "Feature", "properties": { "gid": 158, "fclass": "residential", "length": 108.55322703997795, "status": "disappeared" }, "geometry": { "type": "LineString", "coordinates": [ [ 144.936001203653973, -37.691061725235826 ], [ 144.935493472105861, -37.69103570545569 ], [ 144.935147875620657, -37.690909642360921 ], [ 144.934820243762374, -37.690832222146902 ] ] } },
{ "type": "Feature", "properties": { "gid": 190, "fclass": "residential", "length": 32.495987726931631, "status": "disappeared" }, "geometry": { "type": "LineString", "coordinates": [ [ 144.957637867408977, -37.688714005610784 ], [ 144.957677386936496, -37.688877086988001 ], [ 144.957752945319726, -37.688988686089829 ] ] } },
{ "type": "Feature", "properties": { "gid": 204, "fclass": "residential", "length": 66.817403829199023, "status": "disappeared" }, "geometry": { "type": "LineString", "coordinates": [ [ 144.946202286844198, -37.687130236226928 ], [ 144.946087482024922, -37.686535131134583 ] ] } },
{ "type": "Feature", "properties": { "gid": 225, "fclass": "residential", "length": 58.412791984991394, "status": "disappeared" }, "geometry": { "type": "LineString", "coordinates": [ [ 144.946117478908462, -37.684864416836611 ], [ 144.946146218060136, -37.684958837352148 ], [ 144.946128055177979, -37.685181974389018 ], [ 144.94591552359492, -37.685299172887483 ] ] } },
{ "type": "Feature", "properties": { "gid": 227, "fclass": "residential", "length": 38.855177806236455, "status": "disappeared" }, "geometry": { "type": "LineString", "coordinates": [ [ 144.945886700708343, -37.685322046556209 ], [ 144.945944148194741, -37.685553800172933 ], [ 144.945915261821312, -37.685665359713674 ] ] } },
{ "type": "Feature", "properties": { "gid": 243, "fclass": "residential", "length": 306.81394485530825, "status": "disappeared" }, "geometry": { "type": "LineString", "coordinates": [ [ 144.968296022460635, -37.690479572143772 ], [ 144.968369853792069, -37.690456705021589 ], [ 144.968531953278813, -37.690332301611129 ], [ 144.968659861232481, -37.690162115754134 ], [ 144.968784281484034, -37.689715858701895 ], [ 144.968735781140566, -37.68944120630173 ], [ 144.968800648911412, -37.689321068312395 ], [ 144.968768282370348, -37.689218069959345 ], [ 144.968840351889924, -37.689097933815702 ], [ 144.968844023575372, -37.688926284888481 ], [ 144.968682149666989, -37.688514282916785 ], [ 144.968518434191026, -37.688205270140536 ], [ 144.968376262305298, -37.688047886915776 ], [ 144.968268241129579, -37.688030693356808 ] ] } },
{ "type": "Feature", "properties": { "gid": 273, "fclass": "residential", "length": 161.38230035464116, "status": "disappeared" }, "geometry": { "type": "LineString", "coordinates": [ [ 144.958243728484803, -37.687089265351105 ], [ 144.958186065068134, -37.687177931076953 ], [ 144.958261627239665, -37.687280947431375 ], [ 144.958221941408397, -37.687418253595709 ], [ 144.958297484945518, -37.687555599908549 ], [ 144.958279404608021, -37.687692913596941 ], [ 144.958322573201656, -37.687770171111168 ], [ 144.958390975184614, -37.687798803217397 ], [ 144.95860702965004, -37.687801738898933 ], [ 144.958779841748509, -37.68786187597459 ], [ 144.958931090414239, -37.68784476292582 ], [ 144.959033686883686, -37.68790058429272 ], [ 144.959165151256911, -37.687844842939612 ] ] } },
{ "type": "Feature", "properties": { "gid": 285, "fclass": "residential", "length": 176.78989483639427, "status": "disappeared" }, "geometry": { "type": "LineString", "coordinates": [ [ 144.946058675037165, -37.686535118166589 ], [ 144.945961442258522, -37.68654794809882 ], [ 144.945810242431776, -37.686496384778231 ], [ 144.945707598087495, -37.686523516228405 ], [ 144.945579803111514, -37.686473393638821 ], [ 144.945450150114596, -37.686503373430405 ], [ 144.945325958280193, -37.686450391375793 ], [ 144.945178300867866, -37.686480362654727 ], [ 144.94507571966372, -37.686420238141807 ], [ 144.944929859522205, -37.686454501190617 ], [ 144.944823669338149, -37.686405818140116 ], [ 144.944672411991235, -37.686434356720611 ], [ 144.944548220814795, -37.686381373858296 ], [ 144.944400563229124, -37.686411344179419 ], [ 144.944317784333919, -37.68635551945669 ], [ 144.944215162849218, -37.686351180460008 ] ] } },
{ "type": "Feature", "properties": { "gid": 290, "fclass": "residential", "length": 46.847877785647938, "status": "disappeared" }, "geometry": { "type": "LineString", "coordinates": [ [ 144.96725898606249, -37.690319086737468 ], [ 144.966740474544281, -37.69022739734536 ] ] } },
{ "type": "Feature", "properties": { "gid": 332, "fclass": "residential", "length": 121.72870773210659, "status": "disappeared" }, "geometry": { "type": "LineString", "coordinates": [ [ 144.944072041870697, -37.685115232892088 ], [ 144.944071705615642, -37.685570105609187 ], [ 144.944017616996064, -37.685673070417849 ], [ 144.943956186687615, -37.685964846881305 ], [ 144.943977702792864, -37.686085012013415 ], [ 144.943927212413854, -37.686190839278915 ] ] } },
{ "type": "Feature", "properties": { "gid": 337, "fclass": "residential", "length": 36.401777004938857, "status": "disappeared" }, "geometry": { "type": "LineString", "coordinates": [ [ 144.951955226800578, -37.655159813237319 ], [ 144.951966128431451, -37.654996748140903 ], [ 144.952011184081272, -37.65489663582521 ], [ 144.952070595399078, -37.65486232920356 ] ] } },
{ "type": "Feature", "properties": { "gid": 339, "fclass": "residential", "length": 119.81528726696354, "status": "disappeared" }, "geometry": { "type": "LineString", "coordinates": [ [ 144.942573394414666, -37.686052877853861 ], [ 144.942973106064613, -37.686030182123915 ], [ 144.943448334783568, -37.686141979974813 ], [ 144.943621186468334, -37.686127757276189 ], [ 144.943898405557604, -37.686190825791407 ] ] } },
{ "type": "Feature", "properties": { "gid": 351, "fclass": "residential", "length": 193.55478268322892, "status": "disappeared" }, "geometry": { "type": "LineString", "coordinates": [ [ 144.945513880583803, -37.68301032131918 ], [ 144.945562385132945, -37.683156246115296 ], [ 144.945542507084298, -37.683259227246879 ], [ 144.94562680321701, -37.683705556216303 ], [ 144.945628430890082, -37.683945867288237 ], [ 144.945772177932724, -37.684340727947912 ], [ 144.945771901115108, -37.684726940754338 ] ] } },
{ "type": "Feature", "properties": { "gid": 454, "fclass": "residential", "length": 91.177718589464618, "status": "disappeared" }, "geometry": { "type": "LineString", "coordinates": [ [ 144.941606416553299, -37.669917252166549 ], [ 144.941379593620212, -37.669940028179084 ], [ 144.940774833300225, -37.669871070190197 ], [ 144.940724465788747, -37.669828132486359 ], [ 144.940742540108545, -37.669733733298848 ] ] } },
{ "type": "Feature", "properties": { "gid": 536, "fclass": "residential", "length": 24.741251188791775, "status": "disappeared" }, "geometry": { "type": "LineString", "coordinates": [ [ 144.960346342256429, -37.687685033115251 ], [ 144.960393203750414, -37.687590641130406 ], [ 144.960288823506488, -37.687501920749654 ] ] } },
{ "type": "Feature", "properties": { "gid": 541, "fclass": "residential", "length": 56.12613471213151, "status": "disappeared" }, "geometry": { "type": "LineString", "coordinates": [ [ 144.955024560238257, -37.674912364121816 ], [ 144.955658189830984, -37.674958373923417 ] ] } },
{ "type": "Feature", "properties": { "gid": 584, "fclass": "motorway", "length": 30.488599348347634, "status": "disappeared" }, "geometry": { "type": "LineString", "coordinates": [ [ 144.96068995031996, -37.691690309378941 ], [ 144.96034424288581, -37.691690195443883 ] ] } },
{ "type": "Feature", "properties": { "gid": 585, "fclass": "motorway", "length": 72.434906824021709, "status": "disappeared" }, "geometry": { "type": "LineString", "coordinates": [ [ 144.957434255388193, -37.692192702640746 ], [ 144.957477428098514, -37.692265669086446 ], [ 144.957560232800432, -37.692304319625876 ], [ 144.958183217223819, -37.692330286148959 ] ] } },
{ "type": "Feature", "properties": { "gid": 596, "fclass": "motorway", "length": 135.46214823005701, "status": "disappeared" }, "geometry": { "type": "LineString", "coordinates": [ [ 144.96034424288581, -37.691690195443883 ], [ 144.960160633268941, -37.691600018424772 ], [ 144.959512433371515, -37.69159837070012 ], [ 144.959339567564285, -37.691621198783402 ], [ 144.958846239601286, -37.691575257073282 ] ] } },
{ "type": "Feature", "properties": { "gid": 604, "fclass": "trunk", "length": 8.0342248002509802, "status": "disappeared" }, "geometry": { "type": "LineString", "coordinates": [ [ 144.931944672888392, -37.684948750129138 ], [ 144.931858233132544, -37.684971587680337 ] ] } },
{ "type": "Feature", "properties": { "gid": 607, "fclass": "trunk", "length": 33.015161762829166, "status": "disappeared" }, "geometry": { "type": "LineString", "coordinates": [ [ 144.936825678963231, -37.669708844443029 ], [ 144.936944486126009, -37.669703185347835 ], [ 144.937070430369857, -37.669773342478855 ], [ 144.937113570652997, -37.669846316877901 ] ] } },
{ "type": "Feature", "properties": { "gid": 614, "fclass": "trunk", "length": 21.7025244645402, "status": "disappeared" }, "geometry": { "type": "LineString", "coordinates": [ [ 144.948174252787453, -37.66804355463394 ], [ 144.948260527451623, -37.668226686599589 ] ] } },
{ "type": "Feature", "properties": { "gid": 621, "fclass": "trunk", "length": 54.15511990888659, "status": "disappeared" }, "geometry": { "type": "LineString", "coordinates": [ [ 144.942672751878007, -37.668979407611374 ], [ 144.942604084265014, -37.669331259655173 ], [ 144.942544641005696, -37.669387017784281 ], [ 144.942470836566628, -37.669391273634226 ] ] } },
{ "type": "Feature", "properties": { "gid": 640, "fclass": "trunk", "length": 38.184620476223216, "status": "disappeared" }, "geometry": { "type": "LineString", "coordinates": [ [ 144.937798163861629, -37.677902822776957 ], [ 144.937769642508329, -37.677559506680673 ] ] } },
{ "type": "Feature", "properties": { "gid": 641, "fclass": "trunk", "length": 17.785016286652535, "status": "disappeared" }, "geometry": { "type": "LineString", "coordinates": [ [ 144.963205167678211, -37.673519063073982 ], [ 144.963003553433396, -37.673519000966607 ] ] } },
{ "type": "Feature", "properties": { "gid": 652, "fclass": "trunk", "length": 27.47966726942543, "status": "disappeared" }, "geometry": { "type": "LineString", "coordinates": [ [ 144.968763733809851, -37.674069924502611 ], [ 144.968504570759023, -37.673932535950257 ] ] } },
{ "type": "Feature", "properties": { "gid": 655, "fclass": "trunk", "length": 27.947882736101747, "status": "disappeared" }, "geometry": { "type": "LineString", "coordinates": [ [ 144.9640692722013, -37.673427778275865 ], [ 144.963752450197774, -37.673427682811933 ] ] } },
{ "type": "Feature", "properties": { "gid": 656, "fclass": "trunk", "length": 72.460980405525234, "status": "disappeared" }, "geometry": { "type": "LineString", "coordinates": [ [ 144.935368362726933, -37.656227695338842 ], [ 144.935242580897608, -37.655995897146504 ], [ 144.935109733468096, -37.655609608125175 ] ] } },
{ "type": "Feature", "properties": { "gid": 657, "fclass": "trunk", "length": 24.285169654992501, "status": "disappeared" }, "geometry": { "type": "LineString", "coordinates": [ [ 144.942094346528734, -37.672114622739009 ], [ 144.942036671218546, -37.672209002887307 ], [ 144.942065387329905, -37.672320589923274 ] ] } },
{ "type": "Feature", "properties": { "gid": 669, "fclass": "trunk", "length": 46.377920420490796, "status": "disappeared" }, "geometry": { "type": "LineString", "coordinates": [ [ 144.969214662505607, -37.698421463181461 ], [ 144.969157133954383, -37.698189721865077 ], [ 144.969186018801651, -37.698009497544781 ] ] } },
{ "type": "Feature", "properties": { "gid": 670, "fclass": "trunk", "length": 20.478223577725085, "status": "disappeared" }, "geometry": { "type": "LineString", "coordinates": [ [ 144.941128343149018, -37.655086318776874 ], [ 144.941156995821302, -37.655269428410996 ] ] } },
{ "type": "Feature", "properties": { "gid": 679, "fclass": "trunk", "length": 20.478223577667311, "status": "disappeared" }, "geometry": { "type": "LineString", "coordinates": [ [ 144.943302500378763, -37.674129238354418 ], [ 144.94333116552292, -37.674312346171725 ] ] } },
{ "type": "Feature", "properties": { "gid": 682, "fclass": "trunk", "length": 16.480712546800127, "status": "disappeared" }, "geometry": { "type": "LineString", "coordinates": [ [ 144.935698255662771, -37.674651793251826 ], [ 144.935773848769514, -37.674667568471492 ], [ 144.935871089829902, -37.674628999136317 ] ] } },
{ "type": "Feature", "properties": { "gid": 687, "fclass": "trunk", "length": 39.866323015342132, "status": "disappeared" }, "geometry": { "type": "LineString", "coordinates": [ [ 144.968040729436041, -37.68105019250094 ], [ 144.968013808290436, -37.680852787348485 ], [ 144.968098483987717, -37.680706907075525 ] ] } },
{ "type": "Feature", "properties": { "gid": 696, "fclass": "trunk", "length": 19.457238587095098, "status": "disappeared" }, "geometry": { "type": "LineString", "coordinates": [ [ 144.964925747182235, -37.689792033570249 ], [ 144.964860883484619, -37.689889282799413 ], [ 144.96478165275812, -37.689906424515989 ] ] } },
{ "type": "Feature", "properties": { "gid": 698, "fclass": "trunk", "length": 7.6200000001117587, "status": "disappeared" }, "geometry": { "type": "LineString", "coordinates": [ [ 144.933749026169153, -37.66398547054888 ], [ 144.933748966062495, -37.664054131125681 ] ] } },
{ "type": "Feature", "properties": { "gid": 699, "fclass": "trunk", "length": 24.285169654695704, "status": "disappeared" }, "geometry": { "type": "LineString", "coordinates": [ [ 144.948432890882771, -37.668867592158882 ], [ 144.948375354762419, -37.668773159210446 ], [ 144.948404231061062, -37.668661598368608 ] ] } },
{ "type": "Feature", "properties": { "gid": 705, "fclass": "trunk", "length": 12.701290018884167, "status": "disappeared" }, "geometry": { "type": "LineString", "coordinates": [ [ 144.931742924982473, -37.68506306879349 ], [ 144.931829426742979, -37.684971571290532 ] ] } },
{ "type": "Feature", "properties": { "gid": 712, "fclass": "trunk", "length": 26.982437161012015, "status": "disappeared" }, "geometry": { "type": "LineString", "coordinates": [ [ 144.935287211523956, -37.683783381006201 ], [ 144.935384453553837, -37.683757685961567 ], [ 144.935431397468705, -37.683600365203958 ] ] } },
{ "type": "Feature", "properties": { "gid": 728, "fclass": "trunk", "length": 40.640000000130385, "status": "disappeared" }, "geometry": { "type": "LineString", "coordinates": [ [ 144.967350596902889, -37.678303598562806 ], [ 144.967350438891543, -37.678669786392646 ] ] } },
{ "type": "Feature", "properties": { "gid": 730, "fclass": "trunk", "length": 25.407166123390198, "status": "disappeared" }, "geometry": { "type": "LineString", "coordinates": [ [ 144.933929309462485, -37.655402980136515 ], [ 144.933641358099237, -37.655402820905671 ] ] } },
{ "type": "Feature", "properties": { "gid": 740, "fclass": "trunk", "length": 20.950938353052056, "status": "disappeared" }, "geometry": { "type": "LineString", "coordinates": [ [ 144.971442601768103, -37.673383989706615 ], [ 144.971673034779201, -37.673338270856277 ] ] } },
{ "type": "Feature", "properties": { "gid": 748, "fclass": "trunk", "length": 49.322345336242073, "status": "disappeared" }, "geometry": { "type": "LineString", "coordinates": [ [ 144.953321467556634, -37.680976700747998 ], [ 144.953638096773631, -37.681343011243278 ] ] } },
{ "type": "Feature", "properties": { "gid": 751, "fclass": "trunk", "length": 20.478223578129377, "status": "disappeared" }, "geometry": { "type": "LineString", "coordinates": [ [ 144.932150791909407, -37.679959563767866 ], [ 144.93217943227458, -37.680142673851861 ] ] } },
{ "type": "Feature", "properties": { "gid": 776, "fclass": "trunk", "length": 25.526755393560435, "status": "disappeared" }, "geometry": { "type": "LineString", "coordinates": [ [ 144.949516674274719, -37.684797237528429 ], [ 144.949545633226705, -37.684568382824565 ] ] } },
{ "type": "Feature", "properties": { "gid": 781, "fclass": "trunk", "length": 15.938136840051378, "status": "disappeared" }, "geometry": { "type": "LineString", "coordinates": [ [ 144.963789893313162, -37.655369959370276 ], [ 144.963806125458518, -37.655297012157362 ], [ 144.963876333315369, -37.65525555077906 ] ] } },
{ "type": "Feature", "properties": { "gid": 789, "fclass": "trunk", "length": 3.5926092055679342, "status": "disappeared" }, "geometry": { "type": "LineString", "coordinates": [ [ 144.931858233132544, -37.684971587680337 ], [ 144.931829447364748, -37.684948684611584 ] ] } },
{ "type": "Feature", "properties": { "gid": 790, "fclass": "trunk", "length": 2.5407166122458875, "status": "disappeared" }, "geometry": { "type": "LineString", "coordinates": [ [ 144.931858233132544, -37.684971587680337 ], [ 144.931829426742979, -37.684971571290532 ] ] } },
{ "type": "Feature", "properties": { "gid": 813, "fclass": "trunk", "length": 21.93149067258507, "status": "disappeared" }, "geometry": { "type": "LineString", "coordinates": [ [ 144.970901313596784, -37.65791234772162 ], [ 144.971009305534324, -37.65789520872724 ], [ 144.971074133912083, -37.657797955003645 ] ] } },
{ "type": "Feature", "properties": { "gid": 817, "fclass": "trunk", "length": 34.079599066919478, "status": "disappeared" }, "geometry": { "type": "LineString", "coordinates": [ [ 144.939371187118496, -37.655909371855323 ], [ 144.939543739725593, -37.656184102339047 ] ] } },
{ "type": "Feature", "properties": { "gid": 820, "fclass": "trunk", "length": 2.5400000000372529, "status": "disappeared" }, "geometry": { "type": "LineString", "coordinates": [ [ 144.931829447364748, -37.684948684611584 ], [ 144.931829426742979, -37.684971571290532 ] ] } },
{ "type": "Feature", "properties": { "gid": 823, "fclass": "primary", "length": 22.616142424576072, "status": "disappeared" }, "geometry": { "type": "LineString", "coordinates": [ [ 144.94726824949197, -37.686993390173186 ], [ 144.947250167223217, -37.687104954729769 ], [ 144.947152908934839, -37.687153546036498 ] ] } },
{ "type": "Feature", "properties": { "gid": 830, "fclass": "primary", "length": 28.321365615740241, "status": "disappeared" }, "geometry": { "type": "LineString", "coordinates": [ [ 144.969423096532864, -37.681714268142564 ], [ 144.969531105496856, -37.681740043218049 ], [ 144.969595853889501, -37.6818974058232 ] ] } },
{ "type": "Feature", "properties": { "gid": 831, "fclass": "primary", "length": 20.478223577725085, "status": "disappeared" }, "geometry": { "type": "LineString", "coordinates": [ [ 144.961666752635125, -37.697023204897221 ], [ 144.961638034502698, -37.696840103044394 ] ] } },
{ "type": "Feature", "properties": { "gid": 837, "fclass": "primary", "length": 2.5407166122458875, "status": "disappeared" }, "geometry": { "type": "LineString", "coordinates": [ [ 144.939011239815756, -37.673783828330222 ], [ 144.939040041947777, -37.673783842993025 ] ] } },
{ "type": "Feature", "properties": { "gid": 838, "fclass": "primary", "length": 22.719732711279693, "status": "disappeared" }, "geometry": { "type": "LineString", "coordinates": [ [ 144.958923293088901, -37.65578035369581 ], [ 144.95903837513606, -37.655963488603824 ] ] } },
{ "type": "Feature", "properties": { "gid": 840, "fclass": "primary", "length": 20.34808754143496, "status": "disappeared" }, "geometry": { "type": "LineString", "coordinates": [ [ 144.9662338852321, -37.663426864102497 ], [ 144.966163722249661, -37.663353892396557 ], [ 144.966061147383698, -37.663312380915421 ] ] } },
{ "type": "Feature", "properties": { "gid": 842, "fclass": "primary", "length": 14.269922586995611, "status": "disappeared" }, "geometry": { "type": "LineString", "coordinates": [ [ 144.959056225814237, -37.676195469182296 ], [ 144.959075996194258, -37.676254123267235 ], [ 144.959027360796568, -37.676309893121889 ] ] } },
{ "type": "Feature", "properties": { "gid": 858, "fclass": "primary", "length": 24.579914850905006, "status": "disappeared" }, "geometry": { "type": "LineString", "coordinates": [ [ 144.966048302690581, -37.691943700667096 ], [ 144.965907852125696, -37.691957964922146 ], [ 144.965788990191157, -37.692012286773661 ] ] } },
{ "type": "Feature", "properties": { "gid": 885, "fclass": "primary", "length": 38.361681113751246, "status": "disappeared" }, "geometry": { "type": "LineString", "coordinates": [ [ 144.944428629259761, -37.670261897178634 ], [ 144.944322281097698, -37.670459246559574 ], [ 144.944428410765056, -37.670559425657856 ] ] } },
{ "type": "Feature", "properties": { "gid": 892, "fclass": "primary", "length": 32.38369625751556, "status": "disappeared" }, "geometry": { "type": "LineString", "coordinates": [ [ 144.962646348697831, -37.696977741151578 ], [ 144.962559898806148, -37.69701204404042 ], [ 144.962444558306146, -37.697206543879851 ] ] } },
{ "type": "Feature", "properties": { "gid": 893, "fclass": "primary", "length": 29.95396914752973, "status": "disappeared" }, "geometry": { "type": "LineString", "coordinates": [ [ 144.964208616482438, -37.683292006399398 ], [ 144.964246357116622, -37.683433629127961 ], [ 144.964381354044889, -37.68349803818716 ] ] } },
{ "type": "Feature", "properties": { "gid": 895, "fclass": "primary", "length": 23.902115659958096, "status": "disappeared" }, "geometry": { "type": "LineString", "coordinates": [ [ 144.97030951813656, -37.698375966360949 ], [ 144.97022850774826, -37.698320160245309 ], [ 144.970194344279037, -37.698192845203955 ] ] } },
{ "type": "Feature", "properties": { "gid": 897, "fclass": "primary", "length": 41.20476692810476, "status": "disappeared" }, "geometry": { "type": "LineString", "coordinates": [ [ 144.959825657428723, -37.6917357959192 ], [ 144.960009360738269, -37.691648602110824 ], [ 144.960160618956508, -37.691627196292082 ], [ 144.96025784007378, -37.691644393554924 ] ] } },
{ "type": "Feature", "properties": { "gid": 900, "fclass": "primary", "length": 64.295759914732173, "status": "disappeared" }, "geometry": { "type": "LineString", "coordinates": [ [ 144.962991789181558, -37.697572899420116 ], [ 144.962710911070388, -37.697509874243295 ], [ 144.962640760140999, -37.697355367986901 ], [ 144.962473358006349, -37.697229439483948 ] ] } },
{ "type": "Feature", "properties": { "gid": 902, "fclass": "primary", "length": 21.187113165051251, "status": "disappeared" }, "geometry": { "type": "LineString", "coordinates": [ [ 144.97394180917297, -37.692449183344785 ], [ 144.974006591634037, -37.692560769691696 ], [ 144.974085808349997, -37.692586534300155 ] ] } },
{ "type": "Feature", "properties": { "gid": 903, "fclass": "primary", "length": 23.967173757058269, "status": "disappeared" }, "geometry": { "type": "LineString", "coordinates": [ [ 144.961675669236399, -37.679423367484375 ], [ 144.961445176667439, -37.67953772718591 ] ] } },
{ "type": "Feature", "properties": { "gid": 904, "fclass": "primary", "length": 3.5926092055679342, "status": "disappeared" }, "geometry": { "type": "LineString", "coordinates": [ [ 144.963943354931928, -37.69590246893064 ], [ 144.963914555292035, -37.695879573668286 ] ] } },
{ "type": "Feature", "properties": { "gid": 905, "fclass": "primary", "length": 2.5400000000372529, "status": "disappeared" }, "geometry": { "type": "LineString", "coordinates": [ [ 144.963943354931928, -37.69590246893064 ], [ 144.963943365840748, -37.695879582342407 ] ] } },
{ "type": "Feature", "properties": { "gid": 919, "fclass": "primary", "length": 8.0324118985402908, "status": "disappeared" }, "geometry": { "type": "LineString", "coordinates": [ [ 144.966320554816548, -37.662808942921608 ], [ 144.966349383305186, -37.662740290396322 ] ] } },
{ "type": "Feature", "properties": { "gid": 921, "fclass": "primary", "length": 21.293316222988921, "status": "disappeared" }, "geometry": { "type": "LineString", "coordinates": [ [ 144.964408006586041, -37.688075381967117 ], [ 144.964469262993873, -37.687989575176843 ], [ 144.964580905620835, -37.6879609999122 ] ] } },
{ "type": "Feature", "properties": { "gid": 924, "fclass": "primary", "length": 25.533814647353381, "status": "disappeared" }, "geometry": { "type": "LineString", "coordinates": [ [ 144.967574230800267, -37.694164125140624 ], [ 144.967862320035323, -37.694187089373024 ] ] } },
{ "type": "Feature", "properties": { "gid": 943, "fclass": "primary", "length": 22.454637170485118, "status": "disappeared" }, "geometry": { "type": "LineString", "coordinates": [ [ 144.972330709836683, -37.686383860578722 ], [ 144.972399152395894, -37.68631235551225 ], [ 144.972417197389433, -37.686200787129955 ] ] } },
{ "type": "Feature", "properties": { "gid": 944, "fclass": "primary", "length": 17.960613600682333, "status": "disappeared" }, "geometry": { "type": "LineString", "coordinates": [ [ 144.934378562446852, -37.66863184780204 ], [ 144.934407501480422, -37.668471655835837 ] ] } },
{ "type": "Feature", "properties": { "gid": 949, "fclass": "primary", "length": 28.369281083969319, "status": "disappeared" }, "geometry": { "type": "LineString", "coordinates": [ [ 144.935964798990085, -37.666000719654591 ], [ 144.935853119760566, -37.666097929010377 ], [ 144.935705489801222, -37.666137901834851 ] ] } },
{ "type": "Feature", "properties": { "gid": 950, "fclass": "primary", "length": 29.585596524717808, "status": "disappeared" }, "geometry": { "type": "LineString", "coordinates": [ [ 144.940590900842494, -37.679460539064493 ], [ 144.940713406512401, -37.679349026918224 ], [ 144.94073510157358, -37.679231743121008 ] ] } },
{ "type": "Feature", "properties": { "gid": 951, "fclass": "primary", "length": 2.5407166127115488, "status": "disappeared" }, "geometry": { "type": "LineString", "coordinates": [ [ 144.963885744743351, -37.695879564987266 ], [ 144.963914555292035, -37.695879573668286 ] ] } },
{ "type": "Feature", "properties": { "gid": 955, "fclass": "primary", "length": 22.159167221921209, "status": "disappeared" }, "geometry": { "type": "LineString", "coordinates": [ [ 144.937855940433934, -37.677696872003317 ], [ 144.93778042267445, -37.677585259878654 ], [ 144.937798483705876, -37.677513748153984 ] ] } },
{ "type": "Feature", "properties": { "gid": 956, "fclass": "primary", "length": 8.0324118979512455, "status": "disappeared" }, "geometry": { "type": "LineString", "coordinates": [ [ 144.941170848154655, -37.674494398805287 ], [ 144.941141992345081, -37.674563044965943 ] ] } },
{ "type": "Feature", "properties": { "gid": 961, "fclass": "primary", "length": 65.25883390430262, "status": "disappeared" }, "geometry": { "type": "LineString", "coordinates": [ [ 144.958808610180171, -37.654864836686578 ], [ 144.958786971918698, -37.654942072676533 ], [ 144.958848002563371, -37.655233902181237 ], [ 144.958892939711461, -37.655335478415594 ], [ 144.958981082114121, -37.655414182497992 ] ] } },
{ "type": "Feature", "properties": { "gid": 963, "fclass": "primary", "length": 3.592609205897253, "status": "disappeared" }, "geometry": { "type": "LineString", "coordinates": [ [ 144.962473358006349, -37.697229439483948 ], [ 144.962444558306146, -37.697206543879851 ] ] } },
{ "type": "Feature", "properties": { "gid": 964, "fclass": "primary", "length": 2.5407166127115488, "status": "disappeared" }, "geometry": { "type": "LineString", "coordinates": [ [ 144.962473358006349, -37.697229439483948 ], [ 144.962444546943686, -37.697229430456353 ] ] } },
{ "type": "Feature", "properties": { "gid": 970, "fclass": "primary", "length": 11.361789228378488, "status": "disappeared" }, "geometry": { "type": "LineString", "coordinates": [ [ 144.972614347024063, -37.698628267597378 ], [ 144.97272960991171, -37.698582520753575 ] ] } },
{ "type": "Feature", "properties": { "gid": 975, "fclass": "primary", "length": 23.881375421064735, "status": "disappeared" }, "geometry": { "type": "LineString", "coordinates": [ [ 144.959547713046447, -37.672762619600853 ], [ 144.959707933425392, -37.672742647665011 ], [ 144.959778102689228, -37.672808470776602 ] ] } },
{ "type": "Feature", "properties": { "gid": 991, "fclass": "primary", "length": 15.450334653751719, "status": "disappeared" }, "geometry": { "type": "LineString", "coordinates": [ [ 144.965649953729923, -37.680980870602056 ], [ 144.965621211248958, -37.680843542028342 ] ] } },
{ "type": "Feature", "properties": { "gid": 995, "fclass": "primary", "length": 23.386800663465731, "status": "disappeared" }, "geometry": { "type": "LineString", "coordinates": [ [ 144.942586021045685, -37.669414215730633 ], [ 144.942528515705959, -37.669288310621681 ], [ 144.942442140552743, -37.669253938905747 ] ] } },
{ "type": "Feature", "properties": { "gid": 1003, "fclass": "primary", "length": 8.0324118983929989, "status": "disappeared" }, "geometry": { "type": "LineString", "coordinates": [ [ 144.972681351510431, -37.67265190142372 ], [ 144.972652524990508, -37.672720555219534 ] ] } },
{ "type": "Feature", "properties": { "gid": 1018, "fclass": "primary", "length": 25.533814647353381, "status": "disappeared" }, "geometry": { "type": "LineString", "coordinates": [ [ 144.972590262446943, -37.685582886555338 ], [ 144.972302187783015, -37.685605706974073 ] ] } },
{ "type": "Feature", "properties": { "gid": 1020, "fclass": "primary", "length": 22.616142424824133, "status": "disappeared" }, "geometry": { "type": "LineString", "coordinates": [ [ 144.94741182395785, -37.687657166655001 ], [ 144.947393896904373, -37.687545586289772 ], [ 144.947296705901493, -37.687496909404523 ] ] } },
{ "type": "Feature", "properties": { "gid": 1027, "fclass": "primary", "length": 20.319999999832362, "status": "disappeared" }, "geometry": { "type": "LineString", "coordinates": [ [ 144.947145889776493, -37.697200771631238 ], [ 144.94714601770491, -37.697017679025734 ] ] } },
{ "type": "Feature", "properties": { "gid": 1035, "fclass": "primary", "length": 29.368460674141041, "status": "disappeared" }, "geometry": { "type": "LineString", "coordinates": [ [ 144.94068059728599, -37.675272307392575 ], [ 144.940518483154136, -37.675398104241637 ], [ 144.940421246853219, -37.675432386070774 ] ] } },
{ "type": "Feature", "properties": { "gid": 1036, "fclass": "primary", "length": 17.785016286652535, "status": "disappeared" }, "geometry": { "type": "LineString", "coordinates": [ [ 144.96513563164109, -37.67194045194649 ], [ 144.964934021600669, -37.671940393088676 ] ] } },
{ "type": "Feature", "properties": { "gid": 1040, "fclass": "primary", "length": 28.055281871701446, "status": "disappeared" }, "geometry": { "type": "LineString", "coordinates": [ [ 144.968301785746092, -37.676724668287129 ], [ 144.968272876928921, -37.676976414949721 ] ] } },
{ "type": "Feature", "properties": { "gid": 1054, "fclass": "primary", "length": 3.5926092055679342, "status": "disappeared" }, "geometry": { "type": "LineString", "coordinates": [ [ 144.963943376749597, -37.695856695753996 ], [ 144.963914555292035, -37.695879573668286 ] ] } },
{ "type": "Feature", "properties": { "gid": 1055, "fclass": "primary", "length": 2.5400000000372529, "status": "disappeared" }, "geometry": { "type": "LineString", "coordinates": [ [ 144.963943376749597, -37.695856695753996 ], [ 144.963943365840748, -37.695879582342407 ] ] } },
{ "type": "Feature", "properties": { "gid": 1060, "fclass": "primary", "length": 54.769469234688287, "status": "disappeared" }, "geometry": { "type": "LineString", "coordinates": [ [ 144.960149970428972, -37.677660590462551 ], [ 144.960153638675479, -37.677531853712061 ], [ 144.960312166307574, -37.677325925578103 ], [ 144.960323032120328, -37.67720291287943 ] ] } },
{ "type": "Feature", "properties": { "gid": 1072, "fclass": "primary", "length": 23.96421128744548, "status": "disappeared" }, "geometry": { "type": "LineString", "coordinates": [ [ 144.935785537055949, -37.673621934830059 ], [ 144.93564168243239, -37.6734387633092 ] ] } },
{ "type": "Feature", "properties": { "gid": 1077, "fclass": "primary", "length": 22.719732711279693, "status": "disappeared" }, "geometry": { "type": "LineString", "coordinates": [ [ 144.969070670423832, -37.698261220109067 ], [ 144.969185841665222, -37.698444342341425 ] ] } },
{ "type": "Feature", "properties": { "gid": 1083, "fclass": "primary", "length": 20.805072130245364, "status": "disappeared" }, "geometry": { "type": "LineString", "coordinates": [ [ 144.935108006698044, -37.65762365725584 ], [ 144.934935302131635, -37.65754059843885 ], [ 144.934906493879396, -37.657554887110159 ] ] } },
{ "type": "Feature", "properties": { "gid": 1091, "fclass": "primary", "length": 27.477402339785641, "status": "disappeared" }, "geometry": { "type": "LineString", "coordinates": [ [ 144.934588690035667, -37.658767720669033 ], [ 144.934707453042193, -37.658793533262354 ], [ 144.934790126917392, -37.658928038929581 ] ] } },
{ "type": "Feature", "properties": { "gid": 1095, "fclass": "primary", "length": 18.317790654883936, "status": "disappeared" }, "geometry": { "type": "LineString", "coordinates": [ [ 144.968388386744522, -37.676266955992425 ], [ 144.968273116840265, -37.676404246077446 ] ] } },
{ "type": "Feature", "properties": { "gid": 1103, "fclass": "primary", "length": 19.997858483843139, "status": "disappeared" }, "geometry": { "type": "LineString", "coordinates": [ [ 144.93703124425781, -37.664948489707363 ], [ 144.937128447233505, -37.664939958204364 ], [ 144.937232892587787, -37.664879934979204 ] ] } },
{ "type": "Feature", "properties": { "gid": 1104, "fclass": "primary", "length": 10.777827617033122, "status": "disappeared" }, "geometry": { "type": "LineString", "coordinates": [ [ 144.934907104072323, -37.656845392683955 ], [ 144.934820776145017, -37.656776684932112 ] ] } },
{ "type": "Feature", "properties": { "gid": 1105, "fclass": "primary", "length": 15.450334653215821, "status": "disappeared" }, "geometry": { "type": "LineString", "coordinates": [ [ 144.934907104072323, -37.656845392683955 ], [ 144.934878190233718, -37.656982698543494 ] ] } },
{ "type": "Feature", "properties": { "gid": 1106, "fclass": "primary", "length": 22.618315291523189, "status": "disappeared" }, "geometry": { "type": "LineString", "coordinates": [ [ 144.970808878650274, -37.673589817992152 ], [ 144.970747644406345, -37.673667045946686 ], [ 144.970607228651033, -37.673681315809461 ] ] } },
{ "type": "Feature", "properties": { "gid": 1113, "fclass": "primary", "length": 97.727337226646966, "status": "disappeared" }, "geometry": { "type": "LineString", "coordinates": [ [ 144.939284055727796, -37.692734157940187 ], [ 144.939121951351439, -37.692798444299875 ], [ 144.93840885652358, -37.692875322163665 ], [ 144.938217941675958, -37.692939592482134 ] ] } },
{ "type": "Feature", "properties": { "gid": 1124, "fclass": "primary", "length": 20.325732899364084, "status": "disappeared" }, "geometry": { "type": "LineString", "coordinates": [ [ 144.946703746828717, -37.670468912547641 ], [ 144.946934153802715, -37.670469014857495 ] ] } },
{ "type": "Feature", "properties": { "gid": 1126, "fclass": "primary", "length": 23.087245605801016, "status": "disappeared" }, "geometry": { "type": "LineString", "coordinates": [ [ 144.935652192137781, -37.661079874231639 ], [ 144.935578395412335, -37.661084125847253 ], [ 144.935529767071614, -37.661122721311678 ], [ 144.935536885986608, -37.661217133581566 ] ] } },
{ "type": "Feature", "properties": { "gid": 1129, "fclass": "primary", "length": 16.06482379693329, "status": "disappeared" }, "geometry": { "type": "LineString", "coordinates": [ [ 144.934614718319949, -37.661971901006972 ], [ 144.93467219505672, -37.66210925369581 ] ] } },
{ "type": "Feature", "properties": { "gid": 1132, "fclass": "primary", "length": 2.5400000000372529, "status": "disappeared" }, "geometry": { "type": "LineString", "coordinates": [ [ 144.962444546943686, -37.697229430456353 ], [ 144.962444558306146, -37.697206543879851 ] ] } },
{ "type": "Feature", "properties": { "gid": 1133, "fclass": "primary", "length": 2.5407166122458875, "status": "disappeared" }, "geometry": { "type": "LineString", "coordinates": [ [ 144.962444546943686, -37.697229430456353 ], [ 144.962415735881052, -37.697229421421824 ] ] } },
{ "type": "Feature", "properties": { "gid": 1140, "fclass": "primary", "length": 22.866449511609972, "status": "disappeared" }, "geometry": { "type": "LineString", "coordinates": [ [ 144.96692395160207, -37.665921724457959 ], [ 144.967183143897813, -37.665921795763346 ] ] } },
{ "type": "Feature", "properties": { "gid": 1142, "fclass": "primary", "length": 53.415473777255336, "status": "disappeared" }, "geometry": { "type": "LineString", "coordinates": [ [ 144.957262421953459, -37.690384597516406 ], [ 144.957867412260839, -37.69036192517558 ] ] } },
{ "type": "Feature", "properties": { "gid": 1144, "fclass": "primary", "length": 20.319999999832362, "status": "disappeared" }, "geometry": { "type": "LineString", "coordinates": [ [ 144.934436757650531, -37.667945274668163 ], [ 144.934436916278884, -37.667762180056954 ] ] } },
{ "type": "Feature", "properties": { "gid": 1146, "fclass": "primary", "length": 3.5926092055679342, "status": "disappeared" }, "geometry": { "type": "LineString", "coordinates": [ [ 144.962415735881052, -37.697229421421824 ], [ 144.962444558306146, -37.697206543879851 ] ] } },
{ "type": "Feature", "properties": { "gid": 1149, "fclass": "primary", "length": 2.5407166122458875, "status": "disappeared" }, "geometry": { "type": "LineString", "coordinates": [ [ 144.963943365840748, -37.695879582342407 ], [ 144.963914555292035, -37.695879573668286 ] ] } },
{ "type": "Feature", "properties": { "gid": 1152, "fclass": "primary", "length": 24.04735378504359, "status": "disappeared" }, "geometry": { "type": "LineString", "coordinates": [ [ 144.963310466194656, -37.693956915793699 ], [ 144.963342914667493, -37.693879683421933 ], [ 144.963512179065447, -37.693865430962163 ] ] } },
{ "type": "Feature", "properties": { "gid": 1156, "fclass": "primary", "length": 33.894351520955169, "status": "disappeared" }, "geometry": { "type": "LineString", "coordinates": [ [ 144.957469459346953, -37.68081803830588 ], [ 144.957498201485748, -37.680929621279525 ], [ 144.957440487176626, -37.681115555396644 ] ] } },
{ "type": "Feature", "properties": { "gid": 1157, "fclass": "primary", "length": 23.80874764997634, "status": "disappeared" }, "geometry": { "type": "LineString", "coordinates": [ [ 144.941277905407077, -37.684999462330346 ], [ 144.94136976904494, -37.684943721022762 ], [ 144.94145086779892, -37.684839340166363 ] ] } },
{ "type": "Feature", "properties": { "gid": 1159, "fclass": "primary", "length": 27.001715671185508, "status": "disappeared" }, "geometry": { "type": "LineString", "coordinates": [ [ 144.969792236369074, -37.69505728240712 ], [ 144.969900264509874, -37.695083057019303 ], [ 144.969993844475113, -37.695217539253484 ] ] } },
{ "type": "Feature", "properties": { "gid": 1175, "fclass": "tertiary", "length": 25.351033030076223, "status": "disappeared" }, "geometry": { "type": "LineString", "coordinates": [ [ 144.965226442685918, -37.662350892651794 ], [ 144.965210277467037, -37.662277936025092 ], [ 144.965095123383207, -37.66219779843199 ], [ 144.965111335952315, -37.662167764124284 ] ] } },
{ "type": "Feature", "properties": { "gid": 1177, "fclass": "tertiary", "length": 20.118911735235283, "status": "disappeared" }, "geometry": { "type": "LineString", "coordinates": [ [ 144.935536924974855, -37.661171359815086 ], [ 144.93555318194143, -37.661102707882584 ], [ 144.935681008884899, -37.661057002817969 ] ] } },
{ "type": "Feature", "properties": { "gid": 1188, "fclass": "tertiary", "length": 2.5400000000372529, "status": "disappeared" }, "geometry": { "type": "LineString", "coordinates": [ [ 144.962444535581227, -37.697252317032614 ], [ 144.962444546943686, -37.697229430456353 ] ] } },
{ "type": "Feature", "properties": { "gid": 1189, "fclass": "tertiary", "length": 2.5407166122458875, "status": "disappeared" }, "geometry": { "type": "LineString", "coordinates": [ [ 144.962444535581227, -37.697252317032614 ], [ 144.962415724509924, -37.697252307998106 ] ] } },
{ "type": "Feature", "properties": { "gid": 1190, "fclass": "tertiary", "length": 59.439509118218318, "status": "disappeared" }, "geometry": { "type": "LineString", "coordinates": [ [ 144.962444535581227, -37.697252317032614 ], [ 144.962602953337097, -37.69733962166903 ], [ 144.962727112419515, -37.697519892162227 ], [ 144.962890952811165, -37.697567146586159 ], [ 144.962934178008936, -37.697549995033789 ] ] } },
{ "type": "Feature", "properties": { "gid": 1198, "fclass": "tertiary", "length": 24.904664419231757, "status": "disappeared" }, "geometry": { "type": "LineString", "coordinates": [ [ 144.935136822293771, -37.657600785943877 ], [ 144.935061220592019, -37.657615049296027 ], [ 144.934953283618711, -37.657559203834253 ], [ 144.934877697924094, -37.657554871453229 ] ] } },
{ "type": "Feature", "properties": { "gid": 1205, "fclass": "tertiary", "length": 40.615843102384105, "status": "disappeared" }, "geometry": { "type": "LineString", "coordinates": [ [ 144.940562060591589, -37.679506298229967 ], [ 144.940717011526715, -37.679343307018073 ], [ 144.940763941615188, -37.679185983909136 ] ] } },
{ "type": "Feature", "properties": { "gid": 1209, "fclass": "tertiary", "length": 24.103840588449788, "status": "disappeared" }, "geometry": { "type": "LineString", "coordinates": [ [ 144.947383000625308, -37.687680040663338 ], [ 144.947393880990319, -37.687568472948612 ], [ 144.947296705901493, -37.687496909404523 ] ] } },
{ "type": "Feature", "properties": { "gid": 1220, "fclass": "tertiary", "length": 25.107437015383169, "status": "disappeared" }, "geometry": { "type": "LineString", "coordinates": [ [ 144.942557203203108, -37.669437088734746 ], [ 144.94256447497736, -37.669342684077932 ], [ 144.942442140552743, -37.669253938905747 ] ] } },
{ "type": "Feature", "properties": { "gid": 1236, "fclass": "tertiary", "length": 29.559435297649049, "status": "disappeared" }, "geometry": { "type": "LineString", "coordinates": [ [ 144.963540999877267, -37.693842553127091 ], [ 144.963362722088789, -37.693878259067787 ], [ 144.963281645269547, -37.693979793572296 ] ] } },
{ "type": "Feature", "properties": { "gid": 1239, "fclass": "tertiary", "length": 3.5926092055679342, "status": "disappeared" }, "geometry": { "type": "LineString", "coordinates": [ [ 144.962415724509924, -37.697252307998106 ], [ 144.962444546943686, -37.697229430456353 ] ] } },
{ "type": "Feature", "properties": { "gid": 1242, "fclass": "tertiary", "length": 41.052297162165665, "status": "disappeared" }, "geometry": { "type": "LineString", "coordinates": [ [ 144.959825657428723, -37.6917357959192 ], [ 144.9600093614944, -37.691647171696772 ], [ 144.960257852096987, -37.69162150692992 ] ] } },
{ "type": "Feature", "properties": { "gid": 1247, "fclass": "tertiary", "length": 34.208057950057878, "status": "disappeared" }, "geometry": { "type": "LineString", "coordinates": [ [ 144.957469446482065, -37.680840925024114 ], [ 144.957491006701105, -37.680918175365427 ], [ 144.957411669368213, -37.681138431874388 ] ] } },
{ "type": "Feature", "properties": { "gid": 1268, "fclass": "tertiary", "length": 27.947882736101747, "status": "disappeared" }, "geometry": { "type": "LineString", "coordinates": [ [ 144.967574230800267, -37.694164125140624 ], [ 144.967891139654057, -37.694164210494286 ] ] } },
{ "type": "Feature", "properties": { "gid": 1269, "fclass": "tertiary", "length": 23.645065916116337, "status": "disappeared" }, "geometry": { "type": "LineString", "coordinates": [ [ 144.934614579907191, -37.662132109137644 ], [ 144.934643473956214, -37.662020551339211 ], [ 144.934557142838884, -37.661948982669344 ] ] } },
{ "type": "Feature", "properties": { "gid": 1274, "fclass": "tertiary", "length": 26.932344199964184, "status": "disappeared" }, "geometry": { "type": "LineString", "coordinates": [ [ 144.961609235203582, -37.696817207236144 ], [ 144.961659589038902, -37.696945960390238 ], [ 144.961609119051957, -37.697046073025177 ] ] } },
{ "type": "Feature", "properties": { "gid": 1276, "fclass": "tertiary", "length": 27.363290928691978, "status": "disappeared" }, "geometry": { "type": "LineString", "coordinates": [ [ 144.965788990191157, -37.692012286773661 ], [ 144.966077122003298, -37.691920822205233 ] ] } },
{ "type": "Feature", "properties": { "gid": 1298, "fclass": "tertiary", "length": 27.914666404385144, "status": "disappeared" }, "geometry": { "type": "LineString", "coordinates": [ [ 144.972330709836683, -37.686383860578722 ], [ 144.972399152395894, -37.68631235551225 ], [ 144.972446020923769, -37.68615502041272 ] ] } },
{ "type": "Feature", "properties": { "gid": 1301, "fclass": "tertiary", "length": 28.720610500377127, "status": "disappeared" }, "geometry": { "type": "LineString", "coordinates": [ [ 144.937855940433934, -37.677696872003317 ], [ 144.937769607215188, -37.677602419324948 ], [ 144.93782732486855, -37.67746798961965 ] ] } },
{ "type": "Feature", "properties": { "gid": 1304, "fclass": "tertiary", "length": 2.5400000000372529, "status": "disappeared" }, "geometry": { "type": "LineString", "coordinates": [ [ 144.963914544374546, -37.695902460256526 ], [ 144.963914555292035, -37.695879573668286 ] ] } },
{ "type": "Feature", "properties": { "gid": 1305, "fclass": "tertiary", "length": 3.592609205897253, "status": "disappeared" }, "geometry": { "type": "LineString", "coordinates": [ [ 144.963914544374546, -37.695902460256526 ], [ 144.963885722890865, -37.695925338163491 ] ] } },
{ "type": "Feature", "properties": { "gid": 1306, "fclass": "tertiary", "length": 2.5400000000372529, "status": "disappeared" }, "geometry": { "type": "LineString", "coordinates": [ [ 144.963914544374546, -37.695902460256526 ], [ 144.963914533457, -37.695925346844554 ] ] } },
{ "type": "Feature", "properties": { "gid": 1308, "fclass": "tertiary", "length": 8.0342248002509802, "status": "disappeared" }, "geometry": { "type": "LineString", "coordinates": [ [ 144.934849552103344, -37.656799587523146 ], [ 144.934763184826579, -37.65677665357012 ] ] } },
{ "type": "Feature", "properties": { "gid": 1309, "fclass": "tertiary", "length": 2.5407166122458875, "status": "disappeared" }, "geometry": { "type": "LineString", "coordinates": [ [ 144.934849552103344, -37.656799587523146 ], [ 144.934878347771274, -37.656799603186847 ] ] } },
{ "type": "Feature", "properties": { "gid": 1310, "fclass": "tertiary", "length": 2.5400000000372529, "status": "disappeared" }, "geometry": { "type": "LineString", "coordinates": [ [ 144.934849552103344, -37.656799587523146 ], [ 144.934849532402467, -37.656822474443395 ] ] } },
{ "type": "Feature", "properties": { "gid": 1315, "fclass": "tertiary", "length": 36.620729634823526, "status": "disappeared" }, "geometry": { "type": "LineString", "coordinates": [ [ 144.968244063972094, -37.676999294068992 ], [ 144.968278357914357, -37.676784739821599 ], [ 144.968330608159931, -37.676678902396681 ] ] } },
{ "type": "Feature", "properties": { "gid": 1316, "fclass": "tertiary", "length": 31.498675200675603, "status": "disappeared" }, "geometry": { "type": "LineString", "coordinates": [ [ 144.9357567155553, -37.673644806161846 ], [ 144.935772982286949, -37.673567571976932 ], [ 144.935659675168608, -37.673448785946462 ], [ 144.935670523346147, -37.67339300522422 ] ] } },
{ "type": "Feature", "properties": { "gid": 1331, "fclass": "tertiary", "length": 5.6808946141893015, "status": "disappeared" }, "geometry": { "type": "LineString", "coordinates": [ [ 144.972614338738396, -37.698651154162228 ], [ 144.972671970216993, -37.698628280754555 ] ] } },
{ "type": "Feature", "properties": { "gid": 1339, "fclass": "tertiary", "length": 37.827794531836922, "status": "disappeared" }, "geometry": { "type": "LineString", "coordinates": [ [ 144.964237443873969, -37.683246241607144 ], [ 144.964208593475576, -37.683340640631464 ], [ 144.964230165345327, -37.683409307175531 ], [ 144.964320149742576, -37.683480854948172 ], [ 144.964410170644612, -37.683475160053057 ] ] } },
{ "type": "Feature", "properties": { "gid": 1340, "fclass": "tertiary", "length": 25.533814647353381, "status": "disappeared" }, "geometry": { "type": "LineString", "coordinates": [ [ 144.967183153822475, -37.665898908916304 ], [ 144.966895152458136, -37.665921716500513 ] ] } },
{ "type": "Feature", "properties": { "gid": 1345, "fclass": "tertiary", "length": 16.807761297844714, "status": "disappeared" }, "geometry": { "type": "LineString", "coordinates": [ [ 144.966061147383698, -37.663312380915421 ], [ 144.96613493240406, -37.663335288675412 ], [ 144.966205097257756, -37.663403969110917 ] ] } },
{ "type": "Feature", "properties": { "gid": 1355, "fclass": "tertiary", "length": 32.64708426813074, "status": "disappeared" }, "geometry": { "type": "LineString", "coordinates": [ [ 144.95694888914079, -37.684479725486263 ], [ 144.956930851876137, -37.684538366148445 ], [ 144.957053223136256, -37.684635678517623 ], [ 144.957063971097938, -37.684731520383039 ] ] } },
{ "type": "Feature", "properties": { "gid": 1361, "fclass": "tertiary", "length": 29.457511450625027, "status": "disappeared" }, "geometry": { "type": "LineString", "coordinates": [ [ 144.961704496686025, -37.679377603234961 ], [ 144.961614439817396, -37.679463399663263 ], [ 144.961445176667439, -37.67953772718591 ] ] } },
{ "type": "Feature", "properties": { "gid": 1363, "fclass": "tertiary", "length": 48.911309502785166, "status": "disappeared" }, "geometry": { "type": "LineString", "coordinates": [ [ 144.944457463649286, -37.670216136923621 ], [ 144.944340353184316, -37.670361986000607 ], [ 144.944313289247617, -37.670447798972297 ], [ 144.944365419300169, -37.670545092155344 ], [ 144.944457228469417, -37.670536552213051 ] ] } },
{ "type": "Feature", "properties": { "gid": 1369, "fclass": "tertiary", "length": 11.361789228378488, "status": "disappeared" }, "geometry": { "type": "LineString", "coordinates": [ [ 144.959346752494042, -37.671549551309376 ], [ 144.959231522693727, -37.671595285745489 ] ] } },
{ "type": "Feature", "properties": { "gid": 1370, "fclass": "tertiary", "length": 24.834557976041701, "status": "disappeared" }, "geometry": { "type": "LineString", "coordinates": [ [ 144.968417208931612, -37.67622119007325 ], [ 144.968359549569072, -37.676348482463155 ], [ 144.968273116840265, -37.676404246077446 ] ] } },
{ "type": "Feature", "properties": { "gid": 1379, "fclass": "tertiary", "length": 17.785016286652535, "status": "disappeared" }, "geometry": { "type": "LineString", "coordinates": [ [ 144.96513563164109, -37.67194045194649 ], [ 144.964934021600669, -37.671940393088676 ] ] } },
{ "type": "Feature", "properties": { "gid": 1380, "fclass": "tertiary", "length": 35.652274333403639, "status": "disappeared" }, "geometry": { "type": "LineString", "coordinates": [ [ 144.935705489801222, -37.666137901834851 ], [ 144.935889133309956, -37.666080783155934 ], [ 144.936022436025638, -37.665954976753291 ] ] } },
{ "type": "Feature", "properties": { "gid": 1389, "fclass": "tertiary", "length": 28.742393511308705, "status": "disappeared" }, "geometry": { "type": "LineString", "coordinates": [ [ 144.97397063416571, -37.692403416369196 ], [ 144.973970590362484, -37.692530723186557 ], [ 144.974044398423047, -37.692576512439629 ], [ 144.974114625476773, -37.69256365391044 ] ] } },
{ "type": "Feature", "properties": { "gid": 1390, "fclass": "tertiary", "length": 28.807506207382623, "status": "disappeared" }, "geometry": { "type": "LineString", "coordinates": [ [ 144.970837698353705, -37.673544051444679 ], [ 144.970756644507333, -37.67366847856843 ], [ 144.970607228651033, -37.673681315809461 ] ] } },
{ "type": "Feature", "properties": { "gid": 1391, "fclass": "tertiary", "length": 104.5534238147889, "status": "disappeared" }, "geometry": { "type": "LineString", "coordinates": [ [ 144.939341711124172, -37.692688413901642 ], [ 144.939244424495087, -37.692757024470531 ], [ 144.939114752462274, -37.692794149399958 ], [ 144.938466475324788, -37.692875351771875 ], [ 144.938217941675958, -37.692939592482134 ] ] } },
{ "type": "Feature", "properties": { "gid": 1430, "fclass": "tertiary", "length": 35.555223057295642, "status": "disappeared" }, "geometry": { "type": "LineString", "coordinates": [ [ 144.96993619659392, -37.695286184591154 ], [ 144.969981236564365, -37.695226118568932 ], [ 144.969966858673132, -37.695157455174268 ], [ 144.969894863727262, -37.695080194837566 ], [ 144.969792236369074, -37.69505728240712 ] ] } },
{ "type": "Feature", "properties": { "gid": 1435, "fclass": "tertiary", "length": 28.084015601961294, "status": "disappeared" }, "geometry": { "type": "LineString", "coordinates": [ [ 144.934588690035667, -37.658767720669033 ], [ 144.934729028157051, -37.658819292802683 ], [ 144.93481892339517, -37.658928054607536 ] ] } },
{ "type": "Feature", "properties": { "gid": 1442, "fclass": "tertiary", "length": 34.585671862466427, "status": "disappeared" }, "geometry": { "type": "LineString", "coordinates": [ [ 144.940709435851431, -37.675226548125728 ], [ 144.940576123471601, -37.675353789732114 ], [ 144.940421246853219, -37.675432386070774 ] ] } },
{ "type": "Feature", "properties": { "gid": 1447, "fclass": "tertiary", "length": 22.719732711071394, "status": "disappeared" }, "geometry": { "type": "LineString", "coordinates": [ [ 144.969157039470815, -37.698421448361536 ], [ 144.969041868334074, -37.69823832609989 ] ] } },
{ "type": "Feature", "properties": { "gid": 1449, "fclass": "tertiary", "length": 27.082180872605143, "status": "disappeared" }, "geometry": { "type": "LineString", "coordinates": [ [ 144.93703124425781, -37.664948489707363 ], [ 144.937150053435516, -37.664931386972327 ], [ 144.937290528003274, -37.664834191448513 ] ] } },
{ "type": "Feature", "properties": { "gid": 1456, "fclass": "tertiary", "length": 3.5926092055679342, "status": "disappeared" }, "geometry": { "type": "LineString", "coordinates": [ [ 144.953329048569685, -37.668686505618638 ], [ 144.953300234251515, -37.668709381213809 ] ] } },
{ "type": "Feature", "properties": { "gid": 1461, "fclass": "tertiary", "length": 60.321459632136694, "status": "disappeared" }, "geometry": { "type": "LineString", "coordinates": [ [ 144.957925054611565, -37.69031617215331 ], [ 144.957762972058475, -37.690379053379154 ], [ 144.957438886617581, -37.690361773699031 ], [ 144.957262421953459, -37.690384597516406 ] ] } },
{ "type": "Feature", "properties": { "gid": 1471, "fclass": "tertiary", "length": 28.076171658408157, "status": "disappeared" }, "geometry": { "type": "LineString", "coordinates": [ [ 144.947152908934839, -37.687153546036498 ], [ 144.947250167223217, -37.687104954729769 ], [ 144.947297088540779, -37.686947629522479 ] ] } },
{ "type": "Feature", "properties": { "gid": 1472, "fclass": "tertiary", "length": 3.5926092055679342, "status": "disappeared" }, "geometry": { "type": "LineString", "coordinates": [ [ 144.962415804108019, -37.697092101959953 ], [ 144.962444603755927, -37.697114997571951 ] ] } },
{ "type": "Feature", "properties": { "gid": 1474, "fclass": "tertiary", "length": 2.5407166127115488, "status": "disappeared" }, "geometry": { "type": "LineString", "coordinates": [ [ 144.963914533457, -37.695925346844554 ], [ 144.963885722890865, -37.695925338163491 ] ] } },
{ "type": "Feature", "properties": { "gid": 1477, "fclass": "tertiary", "length": 3.5926092055679342, "status": "disappeared" }, "geometry": { "type": "LineString", "coordinates": [ [ 144.934849532402467, -37.656822474443395 ], [ 144.934878347771274, -37.656799603186847 ] ] } },
{ "type": "Feature", "properties": { "gid": 1478, "fclass": "tertiary", "length": 17.960613600221354, "status": "disappeared" }, "geometry": { "type": "LineString", "coordinates": [ [ 144.934849532402467, -37.656822474443395 ], [ 144.934878190233718, -37.656982698543494 ] ] } },
{ "type": "Feature", "properties": { "gid": 1483, "fclass": "tertiary", "length": 68.254707915341044, "status": "disappeared" }, "geometry": { "type": "LineString", "coordinates": [ [ 144.958981082114121, -37.655414182497992 ], [ 144.958894726976581, -37.655358365969242 ], [ 144.958847990119637, -37.655256789117914 ], [ 144.958779827708526, -37.654841939837539 ] ] } },
{ "type": "Feature", "properties": { "gid": 1485, "fclass": "tertiary", "length": 12.699999999720603, "status": "disappeared" }, "geometry": { "type": "LineString", "coordinates": [ [ 144.962444546943686, -37.697229430456353 ], [ 144.962444603755927, -37.697114997571951 ] ] } },
{ "type": "Feature", "properties": { "gid": 1487, "fclass": "tertiary", "length": 18.317790654496516, "status": "disappeared" }, "geometry": { "type": "LineString", "coordinates": [ [ 144.96379937881153, -37.695742219369201 ], [ 144.963914555292035, -37.695879573668286 ] ] } },
{ "type": "Feature", "properties": { "gid": 1495, "fclass": "tertiary", "length": 15.450334653215821, "status": "disappeared" }, "geometry": { "type": "LineString", "coordinates": [ [ 144.959056238198428, -37.676172582423916 ], [ 144.959027360796568, -37.676309893121889 ] ] } },
{ "type": "Feature", "properties": { "gid": 1506, "fclass": "tertiary", "length": 5.6808946139809811, "status": "disappeared" }, "geometry": { "type": "LineString", "coordinates": [ [ 144.939011258262326, -37.673760941553716 ], [ 144.939068880938038, -37.673738084095682 ] ] } },
{ "type": "Feature", "properties": { "gid": 1513, "fclass": "tertiary", "length": 30.748785873548101, "status": "disappeared" }, "geometry": { "type": "LineString", "coordinates": [ [ 144.959009567387199, -37.655986365680612 ], [ 144.959027615595517, -37.655891963250212 ], [ 144.958934093648821, -37.655776066099754 ], [ 144.958952113197739, -37.65573458970556 ] ] } },
{ "type": "Feature", "properties": { "gid": 1518, "fclass": "tertiary", "length": 29.455585646506982, "status": "disappeared" }, "geometry": { "type": "LineString", "coordinates": [ [ 144.941277905407077, -37.684999462330346 ], [ 144.941385984824137, -37.684927994359377 ], [ 144.941479709545149, -37.684793580878889 ] ] } },
{ "type": "Feature", "properties": { "gid": 1528, "fclass": "tertiary", "length": 63.198487676912762, "status": "disappeared" }, "geometry": { "type": "LineString", "coordinates": [ [ 144.960323056122576, -37.677157139379482 ], [ 144.96033918156985, -37.677303047773663 ], [ 144.960177053615013, -37.677508974748143 ], [ 144.960121154755598, -37.677683467621911 ] ] } },
{ "type": "Feature", "properties": { "gid": 1534, "fclass": "tertiary", "length": 34.399398393324525, "status": "disappeared" }, "geometry": { "type": "LineString", "coordinates": [ [ 144.934407898229608, -37.668013919374296 ], [ 144.934458409615075, -37.667885208573054 ], [ 144.934436913800312, -37.667765040910368 ], [ 144.934465755757685, -37.667716422165029 ] ] } },
{ "type": "Feature", "properties": { "gid": 1557, "fclass": "unclassified", "length": 27.363290928691978, "status": "disappeared" }, "geometry": { "type": "LineString", "coordinates": [ [ 144.957466011275159, -37.686951671722845 ], [ 144.957177991611587, -37.686860022430594 ] ] } },
{ "type": "Feature", "properties": { "gid": 1559, "fclass": "unclassified", "length": 141.06393338904405, "status": "disappeared" }, "geometry": { "type": "LineString", "coordinates": [ [ 144.958904653101428, -37.690110532423645 ], [ 144.959237723456681, -37.690159280330676 ], [ 144.959297119939976, -37.690197921733926 ], [ 144.959306051003097, -37.690330953368495 ], [ 144.959250126021288, -37.6905326228691 ], [ 144.959001646405341, -37.690543981409924 ], [ 144.958501135317221, -37.690476579574771 ] ] } },
{ "type": "Feature", "properties": { "gid": 1642, "fclass": "unclassified", "length": 110.27872447805221, "status": "disappeared" }, "geometry": { "type": "LineString", "coordinates": [ [ 144.946087482024922, -37.686535131134583 ], [ 144.946259624902638, -37.687519335319301 ] ] } },
{ "type": "Feature", "properties": { "gid": 1659, "fclass": "unclassified", "length": 115.03544163198995, "status": "disappeared" }, "geometry": { "type": "LineString", "coordinates": [ [ 144.943898439499861, -37.686145052450591 ], [ 144.942602218581357, -37.686030004988673 ] ] } },
{ "type": "Feature", "properties": { "gid": 1672, "fclass": "unclassified", "length": 173.95958249539834, "status": "disappeared" }, "geometry": { "type": "LineString", "coordinates": [ [ 144.953699712310652, -37.674797425436203 ], [ 144.955658176419206, -37.674981260691894 ] ] } },
{ "type": "Feature", "properties": { "gid": 1706, "fclass": "unclassified", "length": 134.8316092361504, "status": "disappeared" }, "geometry": { "type": "LineString", "coordinates": [ [ 144.936116438491894, -37.691061786740448 ], [ 144.93556547923464, -37.691052909184457 ], [ 144.93526305759255, -37.69097121249834 ], [ 144.934809495996802, -37.690767847625075 ], [ 144.934676279701876, -37.690740597174546 ] ] } },
{ "type": "Feature", "properties": { "gid": 1738, "fclass": "unclassified", "length": 164.16037315163845, "status": "disappeared" }, "geometry": { "type": "LineString", "coordinates": [ [ 144.942777430850526, -37.682894611832502 ], [ 144.942517067593002, -37.684359236008198 ] ] } },
{ "type": "Feature", "properties": { "gid": 1767, "fclass": "unclassified", "length": 189.72897977774849, "status": "disappeared" }, "geometry": { "type": "LineString", "coordinates": [ [ 144.945771901115108, -37.684726940754338 ], [ 144.945741534466435, -37.68439220913271 ], [ 144.945515588229597, -37.683139059810991 ], [ 144.945542669756293, -37.683033221116069 ] ] } },
{ "type": "Feature", "properties": { "gid": 1807, "fclass": "unclassified", "length": 207.6295541326698, "status": "disappeared" }, "geometry": { "type": "LineString", "coordinates": [ [ 144.959005538626798, -37.663424607848022 ], [ 144.959323315153171, -37.661570878967034 ] ] } },
{ "type": "Feature", "properties": { "gid": 1825, "fclass": "unclassified", "length": 166.22701272749501, "status": "disappeared" }, "geometry": { "type": "LineString", "coordinates": [ [ 144.946058691354892, -37.686512231498973 ], [ 144.945810232186204, -37.686510688945546 ], [ 144.94418635593189, -37.686351167041749 ] ] } },
{ "type": "Feature", "properties": { "gid": 1841, "fclass": "unclassified", "length": 65.753705049013419, "status": "disappeared" }, "geometry": { "type": "LineString", "coordinates": [ [ 144.952787699175104, -37.65930267776384 ], [ 144.953446450094901, -37.659257161858079 ], [ 144.953507671001773, -37.659211411827158 ] ] } },
{ "type": "Feature", "properties": { "gid": 1855, "fclass": "unclassified", "length": 138.08907566071014, "status": "disappeared" }, "geometry": { "type": "LineString", "coordinates": [ [ 144.945915556316407, -37.685253399530637 ], [ 144.9459458750257, -37.685656791025444 ], [ 144.946087514642926, -37.686489357799125 ] ] } },
{ "type": "Feature", "properties": { "gid": 1881, "fclass": "unclassified", "length": 349.66357519894308, "status": "disappeared" }, "geometry": { "type": "LineString", "coordinates": [ [ 144.953854011522566, -37.657929878642101 ], [ 144.953999880463044, -37.65778403065471 ], [ 144.954026981020775, -37.657612389156419 ], [ 144.953655883487897, -37.655243448691849 ], [ 144.953625535869662, -37.654840054567174 ] ] } },
{ "type": "Feature", "properties": { "gid": 1897, "fclass": "unclassified", "length": 174.33766991372133, "status": "disappeared" }, "geometry": { "type": "LineString", "coordinates": [ [ 144.956119960187237, -37.673356469363178 ], [ 144.956253230504416, -37.673250666721856 ], [ 144.956262310480469, -37.673113349305915 ], [ 144.956052314823182, -37.672049036521685 ], [ 144.956001947174258, -37.671988940182814 ], [ 144.955861583483966, -37.671914506439194 ] ] } },
{ "type": "Feature", "properties": { "gid": 1899, "fclass": "unclassified", "length": 417.72189450929085, "status": "disappeared" }, "geometry": { "type": "LineString", "coordinates": [ [ 144.949577413779025, -37.680105487614377 ], [ 144.949577991441402, -37.6792386528181 ], [ 144.949507826997319, -37.679169963048373 ], [ 144.946096333539998, -37.679165615547213 ], [ 144.945977499948896, -37.679188448749223 ] ] } },
{ "type": "Feature", "properties": { "gid": 1947, "fclass": "unclassified", "length": 136.96341805155765, "status": "disappeared" }, "geometry": { "type": "LineString", "coordinates": [ [ 144.957133733894352, -37.663286631229553 ], [ 144.95695495473359, -37.664325058766835 ], [ 144.95687385940667, -37.664499541924783 ] ] } },
{ "type": "Feature", "properties": { "gid": 1992, "fclass": "unclassified", "length": 220.7077868308989, "status": "disappeared" }, "geometry": { "type": "LineString", "coordinates": [ [ 144.959136825874452, -37.686952253313144 ], [ 144.960076622111131, -37.68702266062926 ], [ 144.96026023855157, -37.687078507937173 ], [ 144.960315981966716, -37.687212985590271 ], [ 144.960405582399943, -37.688019770138418 ], [ 144.960461332747457, -37.68814280434826 ] ] } },
{ "type": "Feature", "properties": { "gid": 2050, "fclass": "unclassified", "length": 161.73146931561649, "status": "disappeared" }, "geometry": { "type": "LineString", "coordinates": [ [ 144.957724162974472, -37.68894290263129 ], [ 144.957582275217391, -37.688316330285971 ], [ 144.957494408561956, -37.687681194304098 ], [ 144.957523317179721, -37.687500972076343 ] ] } },
{ "type": "Feature", "properties": { "gid": 2098, "fclass": "unclassified", "length": 200.2729586235418, "status": "disappeared" }, "geometry": { "type": "LineString", "coordinates": [ [ 144.941577598223091, -37.669940124930662 ], [ 144.941329193557635, -37.66993857307353 ], [ 144.940719042139335, -37.669858168752221 ], [ 144.940715586621081, -37.669673642056026 ], [ 144.940858511606763, -37.668749657174075 ] ] } },
{ "type": "Feature", "properties": { "gid": 2173, "fclass": "unclassified", "length": 118.18583842526006, "status": "disappeared" }, "geometry": { "type": "LineString", "coordinates": [ [ 144.943927263301106, -37.686122179267365 ], [ 144.944129688566022, -37.685069486417191 ] ] } },
{ "type": "Feature", "properties": { "gid": 2185, "fclass": "unclassified", "length": 213.19503140326762, "status": "disappeared" }, "geometry": { "type": "LineString", "coordinates": [ [ 144.961884170673073, -37.665782905381 ], [ 144.96177430911294, -37.665911608900444 ], [ 144.9614819402629, -37.667439212043121 ], [ 144.96148002815201, -37.667659497227497 ] ] } },
{ "type": "Feature", "properties": { "gid": 2196, "fclass": "unclassified", "length": 217.12461353723643, "status": "disappeared" }, "geometry": { "type": "LineString", "coordinates": [ [ 144.939869465767742, -37.681130910341857 ], [ 144.940014463431254, -37.679903682265497 ], [ 144.940111739628577, -37.679826488215859 ], [ 144.940219774332718, -37.679803655448382 ], [ 144.940878639763127, -37.679849755927947 ] ] } }
]
}
