{
"type": "FeatureCollection",
"crs": { "type": "name", "properties": { "name": "urn:ogc:def:crs:OGC:1.3:CRS84" } },
"features": [
{ "type": "Feature", "properties": { "gid": 39, "fclass": "residential", "length": 38.774422212297651, "status": "disappeared" }, "geometry": { "type": "LineString", "coordinates": [ [ 144.921522603794244, -37.679312243340704 ], [ 144.921291860434593, -37.679609619563045 ] ] } },
{ "type": "Feature", "properties": { "gid": 237, "fclass": "residential", "length": 87.267353557229825, "status": "disappeared" }, "geometry": { "type": "LineString", "coordinates": [ [ 144.92077510762465, -37.677961433173991 ], [ 144.921563515997775, -37.678052068642828 ], [ 144.921754363049018, -37.678030737135714 ] ] } },
{ "type": "Feature", "properties": { "gid": 240, "fclass": "residential", "length": 52.697913770228439, "status": "disappeared" }, "geometry": { "type": "LineString", "coordinates": [ [ 144.919446189395558, -37.681668198288364 ], [ 144.919292864613936, -37.681947026984929 ], [ 144.91912891711263, -37.682057058744086 ] ] } },
{ "type": "Feature", "properties": { "gid": 321, "fclass": "residential", "length": 45.790540954217796, "status": "disappeared" }, "geometry": { "type": "LineString", "coordinates": [ [ 144.919681465234333, -37.677113894805821 ], [ 144.919653099286364, -37.676701914057276 ] ] } },
{ "type": "Feature", "properties": { "gid": 489, "fclass": "residential", "length": 87.204853038596625, "status": "disappeared" }, "geometry": { "type": "LineString", "coordinates": [ [ 144.913943446881518, -37.682511179965864 ], [ 144.913784896297784, -37.682616917011799 ], [ 144.913417095955936, -37.683080107655456 ], [ 144.913395409840177, -37.683151612948187 ] ] } },
{ "type": "Feature", "properties": { "gid": 492, "fclass": "residential", "length": 77.227367055365676, "status": "disappeared" }, "geometry": { "type": "LineString", "coordinates": [ [ 144.914404929572413, -37.681985116111505 ], [ 144.914610121765122, -37.682025314319567 ], [ 144.91515348105429, -37.682328949438734 ] ] } },
{ "type": "Feature", "properties": { "gid": 591, "fclass": "residential", "length": 57.30787337473442, "status": "disappeared" }, "geometry": { "type": "LineString", "coordinates": [ [ 144.919421235394395, -37.678052077045969 ], [ 144.919170743027706, -37.67829508000667 ], [ 144.919111189825543, -37.678430929882559 ], [ 144.919132733125537, -37.678486730880365 ] ] } },
{ "type": "Feature", "properties": { "gid": 603, "fclass": "residential", "length": 38.172844888994256, "status": "disappeared" }, "geometry": { "type": "LineString", "coordinates": [ [ 144.892377638551636, -37.696088422519352 ], [ 144.892424614460765, -37.695976892517386 ], [ 144.892521965974964, -37.695895446362705 ], [ 144.892579735331367, -37.695791078038376 ] ] } },
{ "type": "Feature", "properties": { "gid": 711, "fclass": "residential", "length": 58.548305014479851, "status": "disappeared" }, "geometry": { "type": "LineString", "coordinates": [ [ 144.892406416611408, -37.696111334969572 ], [ 144.892568506824404, -37.696090024234962 ], [ 144.892777556102743, -37.695968626427032 ], [ 144.892867840319525, -37.695791336008696 ] ] } },
{ "type": "Feature", "properties": { "gid": 713, "fclass": "residential", "length": 40.956447155392397, "status": "disappeared" }, "geometry": { "type": "LineString", "coordinates": [ [ 144.901517458213533, -37.66870088143542 ], [ 144.901459380999484, -37.669067023028653 ] ] } },
{ "type": "Feature", "properties": { "gid": 736, "fclass": "residential", "length": 189.27297595590051, "status": "disappeared" }, "geometry": { "type": "LineString", "coordinates": [ [ 144.917786608241357, -37.671436686405187 ], [ 144.91777589171005, -37.671359436064463 ], [ 144.917610593151721, -37.671076098173813 ], [ 144.917481017854641, -37.671048830876913 ], [ 144.917243344756599, -37.671107314343878 ], [ 144.91695148706728, -37.671331689161676 ], [ 144.916778454947035, -37.671536119918251 ], [ 144.916670204450014, -37.671759191030617 ], [ 144.916581889916131, -37.671859259332351 ], [ 144.916490047585341, -37.671893525538955 ] ] } },
{ "type": "Feature", "properties": { "gid": 970, "fclass": "residential", "length": 52.191343526255309, "status": "disappeared" }, "geometry": { "type": "LineString", "coordinates": [ [ 144.920051338943608, -37.681439736492521 ], [ 144.919836887753803, -37.681641282409657 ], [ 144.919590312332957, -37.681576748235315 ] ] } },
{ "type": "Feature", "properties": { "gid": 1057, "fclass": "residential", "length": 30.791090182976014, "status": "disappeared" }, "geometry": { "type": "LineString", "coordinates": [ [ 144.919623129093054, -37.677800458405166 ], [ 144.91950061920042, -37.677889062306051 ], [ 144.919450063511078, -37.678029209683309 ] ] } },
{ "type": "Feature", "properties": { "gid": 1091, "fclass": "residential", "length": 29.213356218114633, "status": "disappeared" }, "geometry": { "type": "LineString", "coordinates": [ [ 144.920858909518472, -37.680456143495363 ], [ 144.920932745396613, -37.680433305524694 ], [ 144.920992217740178, -37.680373267095241 ], [ 144.920974343326549, -37.680250239114848 ] ] } },
{ "type": "Feature", "properties": { "gid": 1344, "fclass": "residential", "length": 42.545270759610048, "status": "disappeared" }, "geometry": { "type": "LineString", "coordinates": [ [ 144.919653220798665, -37.676587480315227 ], [ 144.919988035251464, -37.676609160785247 ], [ 144.920069065415106, -37.676589188967547 ], [ 144.920085317066849, -37.676541995858287 ] ] } },
{ "type": "Feature", "properties": { "gid": 1353, "fclass": "motorway", "length": 180.75356126964761, "status": "disappeared" }, "geometry": { "type": "LineString", "coordinates": [ [ 144.898339405659158, -37.697604144819678 ], [ 144.89828375708322, -37.697475360527939 ], [ 144.898410105508901, -37.697252323475517 ], [ 144.899316812677654, -37.696532161156227 ], [ 144.899579836400903, -37.696437974689267 ] ] } },
{ "type": "Feature", "properties": { "gid": 1373, "fclass": "motorway", "length": 337.24905472053808, "status": "disappeared" }, "geometry": { "type": "LineString", "coordinates": [ [ 144.913843374173609, -37.694503719674614 ], [ 144.912277146451061, -37.694229374163022 ], [ 144.91117525138128, -37.69415704160302 ], [ 144.910069806500502, -37.694043214248829 ] ] } },
{ "type": "Feature", "properties": { "gid": 1381, "fclass": "motorway", "length": 90.81265271283111, "status": "disappeared" }, "geometry": { "type": "LineString", "coordinates": [ [ 144.915140646412652, -37.693772273912458 ], [ 144.915075699252441, -37.693883800149351 ], [ 144.915021651993555, -37.693909509268778 ], [ 144.914330294817347, -37.693840357038631 ], [ 144.914218631035737, -37.69386316375504 ] ] } },
{ "type": "Feature", "properties": { "gid": 1394, "fclass": "trunk", "length": 21.289703393209187, "status": "disappeared" }, "geometry": { "type": "LineString", "coordinates": [ [ 144.899904072535662, -37.669134393740187 ], [ 144.899853503440625, -37.669261659473776 ], [ 144.899875029929461, -37.669317464125761 ] ] } },
{ "type": "Feature", "properties": { "gid": 1400, "fclass": "trunk", "length": 30.451218526468992, "status": "disappeared" }, "geometry": { "type": "LineString", "coordinates": [ [ 144.913978419285769, -37.677087048003031 ], [ 144.913870387058836, -37.67710413543923 ], [ 144.913719006151979, -37.677247068747 ] ] } },
{ "type": "Feature", "properties": { "gid": 1405, "fclass": "trunk", "length": 36.369067523792076, "status": "disappeared" }, "geometry": { "type": "LineString", "coordinates": [ [ 144.897445542033068, -37.655629047657115 ], [ 144.897273174577862, -37.65533136955483 ] ] } },
{ "type": "Feature", "properties": { "gid": 1410, "fclass": "trunk", "length": 8.0324118983929989, "status": "disappeared" }, "geometry": { "type": "LineString", "coordinates": [ [ 144.922390815468304, -37.675330513074513 ], [ 144.92236208319926, -37.675261834126452 ] ] } },
{ "type": "Feature", "properties": { "gid": 1411, "fclass": "trunk", "length": 2.5399999995715916, "status": "disappeared" }, "geometry": { "type": "LineString", "coordinates": [ [ 144.922390815468304, -37.675330513074513 ], [ 144.922390791994275, -37.675353399834634 ] ] } },
{ "type": "Feature", "properties": { "gid": 1412, "fclass": "trunk", "length": 3.5926092052387086, "status": "disappeared" }, "geometry": { "type": "LineString", "coordinates": [ [ 144.922390815468304, -37.675330513074513 ], [ 144.922419594720111, -37.675353418494254 ] ] } },
{ "type": "Feature", "properties": { "gid": 1423, "fclass": "trunk", "length": 53.220685639455979, "status": "disappeared" }, "geometry": { "type": "LineString", "coordinates": [ [ 144.89767534678802, -37.656041209302664 ], [ 144.897696815707604, -37.656135636294565 ], [ 144.897840607384779, -37.656273080721007 ], [ 144.897962745098596, -37.656453419533449 ] ] } },
{ "type": "Feature", "properties": { "gid": 1441, "fclass": "trunk", "length": 28.055281871701446, "status": "disappeared" }, "geometry": { "type": "LineString", "coordinates": [ [ 144.889262512190811, -37.659169234712451 ], [ 144.889233347180522, -37.659420963859326 ] ] } },
{ "type": "Feature", "properties": { "gid": 1451, "fclass": "trunk", "length": 28.063067356065755, "status": "disappeared" }, "geometry": { "type": "LineString", "coordinates": [ [ 144.899344595580544, -37.65670634542203 ], [ 144.899027813194721, -37.656728965658736 ] ] } },
{ "type": "Feature", "properties": { "gid": 1454, "fclass": "trunk", "length": 80.33143937697983, "status": "disappeared" }, "geometry": { "type": "LineString", "coordinates": [ [ 144.894427376166306, -37.672448280252233 ], [ 144.894369641156345, -37.672542637422737 ], [ 144.894426669694553, -37.672954650178177 ], [ 144.894397584423018, -37.673157744899669 ] ] } },
{ "type": "Feature", "properties": { "gid": 1460, "fclass": "trunk", "length": 20.945724232236241, "status": "disappeared" }, "geometry": { "type": "LineString", "coordinates": [ [ 144.900084371019346, -37.685269713118572 ], [ 144.900026999967849, -37.685086571687748 ] ] } },
{ "type": "Feature", "properties": { "gid": 1465, "fclass": "trunk", "length": 7.1852184114651871, "status": "disappeared" }, "geometry": { "type": "LineString", "coordinates": [ [ 144.910951387315123, -37.654884583897513 ], [ 144.911008923363454, -37.65493040057531 ] ] } },
{ "type": "Feature", "properties": { "gid": 1466, "fclass": "trunk", "length": 41.984510060772351, "status": "disappeared" }, "geometry": { "type": "LineString", "coordinates": [ [ 144.906022119735354, -37.682367906911225 ], [ 144.905926968654029, -37.682153269228671 ], [ 144.905792075563056, -37.682047312131374 ] ] } },
{ "type": "Feature", "properties": { "gid": 1468, "fclass": "trunk", "length": 3.5926092055679342, "status": "disappeared" }, "geometry": { "type": "LineString", "coordinates": [ [ 144.926727534636285, -37.658488525519893 ], [ 144.92675635309368, -37.658465656231968 ] ] } },
{ "type": "Feature", "properties": { "gid": 1473, "fclass": "trunk", "length": 10.472862116287512, "status": "disappeared" }, "geometry": { "type": "LineString", "coordinates": [ [ 144.917694279947426, -37.676883678161808 ], [ 144.91766557625516, -37.676792111380564 ] ] } },
{ "type": "Feature", "properties": { "gid": 1477, "fclass": "trunk", "length": 27.122533866789809, "status": "disappeared" }, "geometry": { "type": "LineString", "coordinates": [ [ 144.921926831290477, -37.678374150939518 ], [ 144.921786350295548, -37.678434137006917 ], [ 144.921638721428138, -37.678442623047943 ] ] } },
{ "type": "Feature", "properties": { "gid": 1478, "fclass": "trunk", "length": 50.454999923455532, "status": "disappeared" }, "geometry": { "type": "LineString", "coordinates": [ [ 144.896236534087279, -37.697350589569936 ], [ 144.896306729756162, -37.697373536934023 ], [ 144.896398392749063, -37.69749949247592 ], [ 144.896668325339448, -37.697625601824036 ] ] } },
{ "type": "Feature", "properties": { "gid": 1480, "fclass": "trunk", "length": 28.405818936120308, "status": "disappeared" }, "geometry": { "type": "LineString", "coordinates": [ [ 144.919067521218693, -37.658666688752938 ], [ 144.91875081023781, -37.65862070044458 ] ] } },
{ "type": "Feature", "properties": { "gid": 1485, "fclass": "trunk", "length": 2.5407166122458875, "status": "disappeared" }, "geometry": { "type": "LineString", "coordinates": [ [ 144.911066513265411, -37.654930443362019 ], [ 144.911037718314475, -37.654930421972182 ] ] } },
{ "type": "Feature", "properties": { "gid": 1486, "fclass": "trunk", "length": 3.5926092052387086, "status": "disappeared" }, "geometry": { "type": "LineString", "coordinates": [ [ 144.911066513265411, -37.654930443362019 ], [ 144.911037691413782, -37.654953308903579 ] ] } },
{ "type": "Feature", "properties": { "gid": 1504, "fclass": "trunk", "length": 24.09826964566556, "status": "disappeared" }, "geometry": { "type": "LineString", "coordinates": [ [ 144.915671493220742, -37.682764162815758 ], [ 144.915668036020776, -37.682635422619171 ], [ 144.915614111866176, -37.682558141982646 ] ] } },
{ "type": "Feature", "properties": { "gid": 1508, "fclass": "trunk", "length": 21.294640899226497, "status": "disappeared" }, "geometry": { "type": "LineString", "coordinates": [ [ 144.91567304265314, -37.655528836737027 ], [ 144.915833171302722, -37.655569001552799 ], [ 144.915903378663273, -37.655551885672168 ] ] } },
{ "type": "Feature", "properties": { "gid": 1531, "fclass": "trunk", "length": 2.5407166122458875, "status": "disappeared" }, "geometry": { "type": "LineString", "coordinates": [ [ 144.911037718314475, -37.654930421972182 ], [ 144.911008923363454, -37.65493040057531 ] ] } },
{ "type": "Feature", "properties": { "gid": 1532, "fclass": "trunk", "length": 2.5399999995715916, "status": "disappeared" }, "geometry": { "type": "LineString", "coordinates": [ [ 144.911037718314475, -37.654930421972182 ], [ 144.911037691413782, -37.654953308903579 ] ] } },
{ "type": "Feature", "properties": { "gid": 1533, "fclass": "trunk", "length": 26.926102475958608, "status": "disappeared" }, "geometry": { "type": "LineString", "coordinates": [ [ 144.914608395641409, -37.654841473782149 ], [ 144.914730648346875, -37.654953134788471 ], [ 144.914723343238677, -37.655047538255303 ] ] } },
{ "type": "Feature", "properties": { "gid": 1561, "fclass": "trunk", "length": 2.5407166122458875, "status": "disappeared" }, "geometry": { "type": "LineString", "coordinates": [ [ 144.922419594720111, -37.675353418494254 ], [ 144.922390791994275, -37.675353399834634 ] ] } },
{ "type": "Feature", "properties": { "gid": 1568, "fclass": "trunk", "length": 3.5926092052387086, "status": "disappeared" }, "geometry": { "type": "LineString", "coordinates": [ [ 144.911008923363454, -37.65493040057531 ], [ 144.911037691413782, -37.654953308903579 ] ] } },
{ "type": "Feature", "properties": { "gid": 1577, "fclass": "trunk", "length": 33.571474108836199, "status": "disappeared" }, "geometry": { "type": "LineString", "coordinates": [ [ 144.911009086816335, -37.679282007000658 ], [ 144.910865294897576, -37.679087362754096 ], [ 144.910778922946463, -37.679052968330545 ] ] } },
{ "type": "Feature", "properties": { "gid": 1578, "fclass": "trunk", "length": 29.627380755608961, "status": "disappeared" }, "geometry": { "type": "LineString", "coordinates": [ [ 144.904553515418883, -37.659159511937794 ], [ 144.904841308344828, -37.659297062480078 ] ] } },
{ "type": "Feature", "properties": { "gid": 1586, "fclass": "trunk", "length": 63.568680694609085, "status": "disappeared" }, "geometry": { "type": "LineString", "coordinates": [ [ 144.892296974302923, -37.692037418214319 ], [ 144.893017168670752, -37.69206095015096 ] ] } },
{ "type": "Feature", "properties": { "gid": 1587, "fclass": "trunk", "length": 2.5407166122458875, "status": "disappeared" }, "geometry": { "type": "LineString", "coordinates": [ [ 144.926785149393652, -37.658465673841903 ], [ 144.92675635309368, -37.658465656231968 ] ] } },
{ "type": "Feature", "properties": { "gid": 1619, "fclass": "trunk", "length": 62.016505904018231, "status": "disappeared" }, "geometry": { "type": "LineString", "coordinates": [ [ 144.930930808289162, -37.691127569173723 ], [ 144.931011864158251, -37.691093285921781 ], [ 144.931051786422103, -37.690752870147676 ], [ 144.931132927775394, -37.690624179462993 ] ] } },
{ "type": "Feature", "properties": { "gid": 1627, "fclass": "trunk", "length": 58.596652297486116, "status": "disappeared" }, "geometry": { "type": "LineString", "coordinates": [ [ 144.909912973311066, -37.680585731724044 ], [ 144.909873090800687, -37.680817429882701 ], [ 144.909750404222649, -37.681040483125535 ], [ 144.909768349277783, -37.681089130943313 ] ] } },
{ "type": "Feature", "properties": { "gid": 1647, "fclass": "trunk", "length": 88.903422143270831, "status": "disappeared" }, "geometry": { "type": "LineString", "coordinates": [ [ 144.90899226854458, -37.679715339736276 ], [ 144.908884193542917, -37.679763891897494 ], [ 144.908646246364611, -37.680021186474058 ], [ 144.908472986787274, -37.680378659467749 ] ] } },
{ "type": "Feature", "properties": { "gid": 1650, "fclass": "trunk", "length": 19.34491065241842, "status": "disappeared" }, "geometry": { "type": "LineString", "coordinates": [ [ 144.893417335802155, -37.694304196357436 ], [ 144.89333068010194, -37.69446432555587 ] ] } },
{ "type": "Feature", "properties": { "gid": 1655, "fclass": "trunk", "length": 33.408701914564098, "status": "disappeared" }, "geometry": { "type": "LineString", "coordinates": [ [ 144.914317311481369, -37.657610585564782 ], [ 144.914259382482243, -37.657908074149667 ] ] } },
{ "type": "Feature", "properties": { "gid": 1672, "fclass": "trunk", "length": 34.137343789370185, "status": "disappeared" }, "geometry": { "type": "LineString", "coordinates": [ [ 144.926550881035666, -37.692154862433568 ], [ 144.926521896855206, -37.692335076859166 ], [ 144.926579401402904, -37.692452406078736 ] ] } },
{ "type": "Feature", "properties": { "gid": 1689, "fclass": "trunk", "length": 32.840868612692333, "status": "disappeared" }, "geometry": { "type": "LineString", "coordinates": [ [ 144.890726327111594, -37.682446476906513 ], [ 144.890859704853966, -37.682340747415395 ], [ 144.891043351488463, -37.682332332079568 ] ] } },
{ "type": "Feature", "properties": { "gid": 1695, "fclass": "trunk", "length": 8.0324118983929989, "status": "disappeared" }, "geometry": { "type": "LineString", "coordinates": [ [ 144.911037691413782, -37.654953308903579 ], [ 144.911066405697539, -37.655021991086542 ] ] } },
{ "type": "Feature", "properties": { "gid": 1704, "fclass": "trunk", "length": 14.811724009502809, "status": "disappeared" }, "geometry": { "type": "LineString", "coordinates": [ [ 144.888608604838595, -37.692583324828973 ], [ 144.888522345639956, -37.692468811420326 ] ] } },
{ "type": "Feature", "properties": { "gid": 1713, "fclass": "trunk", "length": 20.950938353164965, "status": "disappeared" }, "geometry": { "type": "LineString", "coordinates": [ [ 144.91948775029735, -37.696750532625948 ], [ 144.919257312177763, -37.696704604367461 ] ] } },
{ "type": "Feature", "properties": { "gid": 1730, "fclass": "trunk", "length": 19.694145249093371, "status": "disappeared" }, "geometry": { "type": "LineString", "coordinates": [ [ 144.910082101399382, -37.659461320826431 ], [ 144.909941789099548, -37.659401137236763 ], [ 144.909880579182385, -37.659415395508653 ] ] } },
{ "type": "Feature", "properties": { "gid": 1732, "fclass": "trunk", "length": 38.109571579768314, "status": "disappeared" }, "geometry": { "type": "LineString", "coordinates": [ [ 144.918725938253004, -37.68178214536799 ], [ 144.918859025646668, -37.681909542974346 ], [ 144.919042550259718, -37.682011226966949 ] ] } },
{ "type": "Feature", "properties": { "gid": 1733, "fclass": "trunk", "length": 2.5407166122458875, "status": "disappeared" }, "geometry": { "type": "LineString", "coordinates": [ [ 144.929575775178506, -37.692225338659981 ], [ 144.92954696602726, -37.692225321721374 ] ] } },
{ "type": "Feature", "properties": { "gid": 1739, "fclass": "primary", "length": 29.305876129024995, "status": "disappeared" }, "geometry": { "type": "LineString", "coordinates": [ [ 144.908704114257404, -37.679806667416472 ], [ 144.90872916282882, -37.679935424414111 ], [ 144.908617424589579, -37.68003546870041 ] ] } },
{ "type": "Feature", "properties": { "gid": 1749, "fclass": "primary", "length": 25.754285140412158, "status": "disappeared" }, "geometry": { "type": "LineString", "coordinates": [ [ 144.913338248457706, -37.657609881003481 ], [ 144.913241006305526, -37.657658445310609 ], [ 144.91322291040899, -37.65774425817672 ], [ 144.913251650687755, -37.657792913720648 ] ] } },
{ "type": "Feature", "properties": { "gid": 1754, "fclass": "primary", "length": 10.15999999968335, "status": "disappeared" }, "geometry": { "type": "LineString", "coordinates": [ [ 144.90568692516996, -37.673968204503048 ], [ 144.905687039273033, -37.673876657428259 ] ] } },
{ "type": "Feature", "properties": { "gid": 1755, "fclass": "primary", "length": 23.423938892647172, "status": "disappeared" }, "geometry": { "type": "LineString", "coordinates": [ [ 144.910067629857082, -37.695874141270885 ], [ 144.909808280460794, -37.695919719512567 ] ] } },
{ "type": "Feature", "properties": { "gid": 1763, "fclass": "primary", "length": 8.0342247998092038, "status": "disappeared" }, "geometry": { "type": "LineString", "coordinates": [ [ 144.888681681349851, -37.682078406664047 ], [ 144.888768130823848, -37.682055600246208 ] ] } },
{ "type": "Feature", "properties": { "gid": 1766, "fclass": "primary", "length": 23.964211287198633, "status": "disappeared" }, "geometry": { "type": "LineString", "coordinates": [ [ 144.93001799021286, -37.681331540374401 ], [ 144.929874134894249, -37.681148362457172 ] ] } },
{ "type": "Feature", "properties": { "gid": 1767, "fclass": "primary", "length": 16.06844960050196, "status": "disappeared" }, "geometry": { "type": "LineString", "coordinates": [ [ 144.914071306594423, -37.696746770318846 ], [ 144.9142441199198, -37.696792667321056 ] ] } },
{ "type": "Feature", "properties": { "gid": 1768, "fclass": "primary", "length": 23.532236962589607, "status": "disappeared" }, "geometry": { "type": "LineString", "coordinates": [ [ 144.916907114732425, -37.659283155862511 ], [ 144.916914210243363, -37.659377569302038 ], [ 144.916791752162851, -37.659443284146541 ] ] } },
{ "type": "Feature", "properties": { "gid": 1784, "fclass": "primary", "length": 39.461832599857644, "status": "disappeared" }, "geometry": { "type": "LineString", "coordinates": [ [ 144.924630292097987, -37.682495494166218 ], [ 144.924607015956525, -37.682366741752922 ], [ 144.9247241574231, -37.682246660170897 ], [ 144.924745832572796, -37.682175152803296 ] ] } },
{ "type": "Feature", "properties": { "gid": 1797, "fclass": "primary", "length": 23.000757398864874, "status": "disappeared" }, "geometry": { "type": "LineString", "coordinates": [ [ 144.896683860879989, -37.686250956264182 ], [ 144.896712386539377, -37.686456961039411 ] ] } },
{ "type": "Feature", "properties": { "gid": 1810, "fclass": "primary", "length": 23.96421128744548, "status": "disappeared" }, "geometry": { "type": "LineString", "coordinates": [ [ 144.927280063157866, -37.682840432772636 ], [ 144.927423915413186, -37.683023613688228 ] ] } },
{ "type": "Feature", "properties": { "gid": 1812, "fclass": "primary", "length": 20.333650232968324, "status": "disappeared" }, "geometry": { "type": "LineString", "coordinates": [ [ 144.898620474464281, -37.659864130349426 ], [ 144.898760897251719, -37.659835640507886 ], [ 144.898793377830998, -37.659772728952113 ] ] } },
{ "type": "Feature", "properties": { "gid": 1813, "fclass": "primary", "length": 17.768050992075665, "status": "disappeared" }, "geometry": { "type": "LineString", "coordinates": [ [ 144.931505739677988, -37.692501097141616 ], [ 144.93146258799743, -37.692432412585923 ], [ 144.931361776456129, -37.692409468244399 ] ] } },
{ "type": "Feature", "properties": { "gid": 1816, "fclass": "primary", "length": 23.121804065900477, "status": "disappeared" }, "geometry": { "type": "LineString", "coordinates": [ [ 144.893628305839428, -37.687690142943751 ], [ 144.893542016442723, -37.687595658753636 ], [ 144.893570948581072, -37.687506998589107 ] ] } },
{ "type": "Feature", "properties": { "gid": 1817, "fclass": "primary", "length": 2.5400000000372529, "status": "disappeared" }, "geometry": { "type": "LineString", "coordinates": [ [ 144.893628305839428, -37.687690142943751 ], [ 144.893628273660568, -37.687713029590554 ] ] } },
{ "type": "Feature", "properties": { "gid": 1818, "fclass": "primary", "length": 3.592609205897253, "status": "disappeared" }, "geometry": { "type": "LineString", "coordinates": [ [ 144.893628305839428, -37.687690142943751 ], [ 144.893657081083404, -37.687713055166689 ] ] } },
{ "type": "Feature", "properties": { "gid": 1829, "fclass": "primary", "length": 3.592609205897253, "status": "disappeared" }, "geometry": { "type": "LineString", "coordinates": [ [ 144.888768130823848, -37.682055600246208 ], [ 144.888796969728901, -37.682032740296727 ] ] } },
{ "type": "Feature", "properties": { "gid": 1830, "fclass": "primary", "length": 2.5407166127115488, "status": "disappeared" }, "geometry": { "type": "LineString", "coordinates": [ [ 144.888768130823848, -37.682055600246208 ], [ 144.888796936091012, -37.682055626991129 ] ] } },
{ "type": "Feature", "properties": { "gid": 1831, "fclass": "primary", "length": 3.592609205897253, "status": "disappeared" }, "geometry": { "type": "LineString", "coordinates": [ [ 144.888768130823848, -37.682055600246208 ], [ 144.888796902453095, -37.682078513685383 ] ] } },
{ "type": "Feature", "properties": { "gid": 1833, "fclass": "primary", "length": 31.411842519873787, "status": "disappeared" }, "geometry": { "type": "LineString", "coordinates": [ [ 144.892774687093407, -37.659881925537476 ], [ 144.892855599198697, -37.659937784812648 ], [ 144.892889518115112, -37.660133784347352 ] ] } },
{ "type": "Feature", "properties": { "gid": 1848, "fclass": "primary", "length": 10.15999999968335, "status": "disappeared" }, "geometry": { "type": "LineString", "coordinates": [ [ 144.928804088259824, -37.685679298747132 ], [ 144.928804002111036, -37.685770845434376 ] ] } },
{ "type": "Feature", "properties": { "gid": 1852, "fclass": "primary", "length": 2.5400000000372529, "status": "disappeared" }, "geometry": { "type": "LineString", "coordinates": [ [ 144.888796902453095, -37.682078513685383 ], [ 144.888796936091012, -37.682055626991129 ] ] } },
{ "type": "Feature", "properties": { "gid": 1853, "fclass": "primary", "length": 17.963046028168989, "status": "disappeared" }, "geometry": { "type": "LineString", "coordinates": [ [ 144.888796902453095, -37.682078513685383 ], [ 144.888940760860436, -37.682193080774653 ] ] } },
{ "type": "Feature", "properties": { "gid": 1854, "fclass": "primary", "length": 38.696214940271275, "status": "disappeared" }, "geometry": { "type": "LineString", "coordinates": [ [ 144.895601552930827, -37.698173955093608 ], [ 144.895846386869067, -37.698219941347737 ], [ 144.89591822648822, -37.69835732327271 ] ] } },
{ "type": "Feature", "properties": { "gid": 1857, "fclass": "primary", "length": 16.807761297844714, "status": "disappeared" }, "geometry": { "type": "LineString", "coordinates": [ [ 144.893593545477785, -37.671440522666373 ], [ 144.893663651987339, -37.671509245376633 ], [ 144.893737423062333, -37.671532197666508 ] ] } },
{ "type": "Feature", "properties": { "gid": 1868, "fclass": "primary", "length": 29.710209851830889, "status": "disappeared" }, "geometry": { "type": "LineString", "coordinates": [ [ 144.926846215063819, -37.654872462592607 ], [ 144.926826360465526, -37.654932528700954 ], [ 144.926853305970496, -37.654984040797331 ], [ 144.927018808116145, -37.655055663494601 ] ] } },
{ "type": "Feature", "properties": { "gid": 1877, "fclass": "primary", "length": 21.707137487425527, "status": "disappeared" }, "geometry": { "type": "LineString", "coordinates": [ [ 144.900055655225373, -37.685201029078414 ], [ 144.900286016482255, -37.685269881138609 ] ] } },
{ "type": "Feature", "properties": { "gid": 1879, "fclass": "primary", "length": 26.039236239872015, "status": "disappeared" }, "geometry": { "type": "LineString", "coordinates": [ [ 144.916371123798996, -37.675257800942312 ], [ 144.916479212822424, -37.675186355183634 ], [ 144.916544141865558, -37.675074827397857 ] ] } },
{ "type": "Feature", "properties": { "gid": 1911, "fclass": "primary", "length": 5.6808946139809811, "status": "disappeared" }, "geometry": { "type": "LineString", "coordinates": [ [ 144.919809449433757, -37.692242086180876 ], [ 144.91986704350154, -37.692265011347843 ] ] } },
{ "type": "Feature", "properties": { "gid": 1923, "fclass": "primary", "length": 26.027169722882959, "status": "disappeared" }, "geometry": { "type": "LineString", "coordinates": [ [ 144.919631637361903, -37.669790087912183 ], [ 144.91975052178239, -37.669712924600262 ], [ 144.919890939744278, -37.669698714340896 ] ] } },
{ "type": "Feature", "properties": { "gid": 1924, "fclass": "primary", "length": 20.231869213283876, "status": "disappeared" }, "geometry": { "type": "LineString", "coordinates": [ [ 144.910922107541012, -37.655296527222291 ], [ 144.910965380944305, -37.655227898560192 ], [ 144.911094985616472, -37.655205107909332 ] ] } },
{ "type": "Feature", "properties": { "gid": 1925, "fclass": "primary", "length": 21.7025244645402, "status": "disappeared" }, "geometry": { "type": "LineString", "coordinates": [ [ 144.92167264284268, -37.673499102897225 ], [ 144.921759238217788, -37.673316065160542 ] ] } },
{ "type": "Feature", "properties": { "gid": 1937, "fclass": "primary", "length": 20.478223577667311, "status": "disappeared" }, "geometry": { "type": "LineString", "coordinates": [ [ 144.890738937706857, -37.693660958222019 ], [ 144.890767483018379, -37.693844077240399 ] ] } },
{ "type": "Feature", "properties": { "gid": 1970, "fclass": "primary", "length": 21.7025244645402, "status": "disappeared" }, "geometry": { "type": "LineString", "coordinates": [ [ 144.92012310786896, -37.66802813072718 ], [ 144.920209700731476, -37.667845093736638 ] ] } },
{ "type": "Feature", "properties": { "gid": 1971, "fclass": "primary", "length": 28.459770233260048, "status": "disappeared" }, "geometry": { "type": "LineString", "coordinates": [ [ 144.930160916704125, -37.68252173308727 ], [ 144.930218408882183, -37.682650504345553 ], [ 144.930333559780877, -37.682727814019749 ] ] } },
{ "type": "Feature", "properties": { "gid": 1982, "fclass": "primary", "length": 29.149571922745231, "status": "disappeared" }, "geometry": { "type": "LineString", "coordinates": [ [ 144.893483914320996, -37.687941768062799 ], [ 144.893494825877525, -37.687864535240671 ], [ 144.893628273660568, -37.687713029590554 ] ] } },
{ "type": "Feature", "properties": { "gid": 1987, "fclass": "primary", "length": 20.554704986294041, "status": "disappeared" }, "geometry": { "type": "LineString", "coordinates": [ [ 144.930009966345693, -37.690005589256522 ], [ 144.930118034489823, -37.689965600711695 ], [ 144.93018292178823, -37.689891256939106 ] ] } },
{ "type": "Feature", "properties": { "gid": 1992, "fclass": "primary", "length": 8.0342248002509802, "status": "disappeared" }, "geometry": { "type": "LineString", "coordinates": [ [ 144.898470101674206, -37.686092276700215 ], [ 144.898556491408868, -37.686115236576896 ] ] } },
{ "type": "Feature", "properties": { "gid": 1994, "fclass": "primary", "length": 63.284819835176499, "status": "disappeared" }, "geometry": { "type": "LineString", "coordinates": [ [ 144.909944828944447, -37.678022440359769 ], [ 144.91008519617543, -37.678065458477228 ], [ 144.910174944701822, -37.67828724124066 ], [ 144.910376397063601, -37.678434725610522 ] ] } },
{ "type": "Feature", "properties": { "gid": 1995, "fclass": "primary", "length": 21.381589625878362, "status": "disappeared" }, "geometry": { "type": "LineString", "coordinates": [ [ 144.920218483563445, -37.659514276943582 ], [ 144.920234600296965, -37.659591531002931 ], [ 144.920333501714651, -37.659674561888757 ] ] } },
{ "type": "Feature", "properties": { "gid": 2011, "fclass": "primary", "length": 3.592609205897253, "status": "disappeared" }, "geometry": { "type": "LineString", "coordinates": [ [ 144.926492573400907, -37.692864312082349 ], [ 144.926463786254288, -37.692841407792777 ] ] } },
{ "type": "Feature", "properties": { "gid": 2012, "fclass": "primary", "length": 2.5407166127115488, "status": "disappeared" }, "geometry": { "type": "LineString", "coordinates": [ [ 144.926492573400907, -37.692864312082349 ], [ 144.926463764007082, -37.692864294402305 ] ] } },
{ "type": "Feature", "properties": { "gid": 2014, "fclass": "primary", "length": 22.730260516866792, "status": "disappeared" }, "geometry": { "type": "LineString", "coordinates": [ [ 144.888629361415468, -37.698053244036757 ], [ 144.888665539827457, -37.697941705548821 ], [ 144.88877362012289, -37.697916058522559 ] ] } },
{ "type": "Feature", "properties": { "gid": 2015, "fclass": "primary", "length": 23.984330531839294, "status": "disappeared" }, "geometry": { "type": "LineString", "coordinates": [ [ 144.929836331143804, -37.690852293502147 ], [ 144.92973913789217, -37.690813615333767 ], [ 144.929577074793571, -37.690829254741452 ] ] } },
{ "type": "Feature", "properties": { "gid": 2025, "fclass": "primary", "length": 92.621659770214023, "status": "disappeared" }, "geometry": { "type": "LineString", "coordinates": [ [ 144.924565173924577, -37.690025171146964 ], [ 144.924592053396225, -37.690153925462013 ], [ 144.924525211440255, -37.690377028168101 ], [ 144.924398951494567, -37.690600093336428 ], [ 144.924218717635256, -37.69078021177058 ] ] } },
{ "type": "Feature", "properties": { "gid": 2027, "fclass": "primary", "length": 5.0800000000745058, "status": "disappeared" }, "geometry": { "type": "LineString", "coordinates": [ [ 144.893215213980227, -37.694624429006453 ], [ 144.8932152785938, -37.694578655833048 ] ] } },
{ "type": "Feature", "properties": { "gid": 2051, "fclass": "primary", "length": 5.0800000000745058, "status": "disappeared" }, "geometry": { "type": "LineString", "coordinates": [ [ 144.928285720268576, -37.685518782741333 ], [ 144.92828576365639, -37.685473009393895 ] ] } },
{ "type": "Feature", "properties": { "gid": 2073, "fclass": "primary", "length": 3.5926092055679342, "status": "disappeared" }, "geometry": { "type": "LineString", "coordinates": [ [ 144.926463786254288, -37.692841407792777 ], [ 144.926434954613256, -37.692864276715333 ] ] } },
{ "type": "Feature", "properties": { "gid": 2074, "fclass": "primary", "length": 2.5400000000372529, "status": "disappeared" }, "geometry": { "type": "LineString", "coordinates": [ [ 144.926463786254288, -37.692841407792777 ], [ 144.926463764007082, -37.692864294402305 ] ] } },
{ "type": "Feature", "properties": { "gid": 2077, "fclass": "primary", "length": 19.344910651990428, "status": "disappeared" }, "geometry": { "type": "LineString", "coordinates": [ [ 144.919918359776062, -37.671003281338635 ], [ 144.920004593623872, -37.671163546653517 ] ] } },
{ "type": "Feature", "properties": { "gid": 2081, "fclass": "primary", "length": 21.293316223131846, "status": "disappeared" }, "geometry": { "type": "LineString", "coordinates": [ [ 144.893832430757271, -37.685928049426508 ], [ 144.893771336933668, -37.685842170173757 ], [ 144.893659751141229, -37.685813462805179 ] ] } },
{ "type": "Feature", "properties": { "gid": 2085, "fclass": "primary", "length": 20.479556988911028, "status": "disappeared" }, "geometry": { "type": "LineString", "coordinates": [ [ 144.903034542530179, -37.675980123432304 ], [ 144.903149959423729, -37.675820009390158 ] ] } },
{ "type": "Feature", "properties": { "gid": 2098, "fclass": "primary", "length": 25.262503853236652, "status": "disappeared" }, "geometry": { "type": "LineString", "coordinates": [ [ 144.926896178598952, -37.662768478899316 ], [ 144.926784680692776, -37.662671141533657 ], [ 144.926665905987448, -37.662653903695876 ] ] } },
{ "type": "Feature", "properties": { "gid": 2099, "fclass": "primary", "length": 33.126836746898547, "status": "disappeared" }, "geometry": { "type": "LineString", "coordinates": [ [ 144.926896178598952, -37.662768478899316 ], [ 144.927270529790121, -37.662791593718822 ] ] } },
{ "type": "Feature", "properties": { "gid": 2105, "fclass": "primary", "length": 20.945724232236241, "status": "disappeared" }, "geometry": { "type": "LineString", "coordinates": [ [ 144.896166939200015, -37.68508328801385 ], [ 144.896224300905061, -37.685266431293478 ] ] } },
{ "type": "Feature", "properties": { "gid": 2116, "fclass": "primary", "length": 21.569124258250799, "status": "disappeared" }, "geometry": { "type": "LineString", "coordinates": [ [ 144.91001150619789, -37.694615335814682 ], [ 144.910103353551307, -37.69460253104905 ], [ 144.910184502401052, -37.694501032572411 ] ] } },
{ "type": "Feature", "properties": { "gid": 2126, "fclass": "primary", "length": 29.277515346632253, "status": "disappeared" }, "geometry": { "type": "LineString", "coordinates": [ [ 144.888665785520374, -37.69288090421103 ], [ 144.888487611766834, -37.692823521919479 ], [ 144.888435546673179, -37.692720483598563 ] ] } },
{ "type": "Feature", "properties": { "gid": 2134, "fclass": "primary", "length": 24.103663561105797, "status": "disappeared" }, "geometry": { "type": "LineString", "coordinates": [ [ 144.90748554178046, -37.68699215910906 ], [ 144.907608063015772, -37.68691787196294 ], [ 144.90765858023704, -37.686832085867913 ] ] } },
{ "type": "Feature", "properties": { "gid": 2150, "fclass": "primary", "length": 84.211957510567174, "status": "disappeared" }, "geometry": { "type": "LineString", "coordinates": [ [ 144.888494345712559, -37.672374243119599 ], [ 144.888584477022334, -37.672288501463562 ], [ 144.888951961269584, -37.672108609121452 ], [ 144.889168003801728, -37.672087352852564 ], [ 144.889238140391313, -37.672133191357005 ], [ 144.889243454830961, -37.672191843723567 ] ] } },
{ "type": "Feature", "properties": { "gid": 2153, "fclass": "primary", "length": 13.980544010086845, "status": "disappeared" }, "geometry": { "type": "LineString", "coordinates": [ [ 144.928904165104512, -37.671146273414955 ], [ 144.928978001553077, -37.671110556581695 ], [ 144.929048192193875, -37.671123472014905 ] ] } },
{ "type": "Feature", "properties": { "gid": 2159, "fclass": "primary", "length": 3.5926092055679342, "status": "disappeared" }, "geometry": { "type": "LineString", "coordinates": [ [ 144.894611966262914, -37.684669969491893 ], [ 144.894583191887136, -37.684647057471906 ] ] } },
{ "type": "Feature", "properties": { "gid": 2160, "fclass": "primary", "length": 2.5407166122458875, "status": "disappeared" }, "geometry": { "type": "LineString", "coordinates": [ [ 144.894611966262914, -37.684669969491893 ], [ 144.894583159998433, -37.684669944145348 ] ] } },
{ "type": "Feature", "properties": { "gid": 2161, "fclass": "primary", "length": 2.5407166122458875, "status": "disappeared" }, "geometry": { "type": "LineString", "coordinates": [ [ 144.894611966262914, -37.684669969491893 ], [ 144.894640772527396, -37.684669994831523 ] ] } },
{ "type": "Feature", "properties": { "gid": 2167, "fclass": "primary", "length": 3.5926092055679342, "status": "disappeared" }, "geometry": { "type": "LineString", "coordinates": [ [ 144.926665905987448, -37.662653903695876 ], [ 144.926637130279772, -37.66263099918794 ] ] } },
{ "type": "Feature", "properties": { "gid": 2168, "fclass": "primary", "length": 2.5407166122458875, "status": "disappeared" }, "geometry": { "type": "LineString", "coordinates": [ [ 144.926665905987448, -37.662653903695876 ], [ 144.926637108093843, -37.662653886057335 ] ] } },
{ "type": "Feature", "properties": { "gid": 2169, "fclass": "primary", "length": 5.6799331774034174, "status": "disappeared" }, "geometry": { "type": "LineString", "coordinates": [ [ 144.929723477138424, -37.657277314335431 ], [ 144.929694723809376, -37.657231523600863 ] ] } },
{ "type": "Feature", "properties": { "gid": 2200, "fclass": "primary", "length": 23.132995535320489, "status": "disappeared" }, "geometry": { "type": "LineString", "coordinates": [ [ 144.898732211923857, -37.683964035725424 ], [ 144.898669030216723, -37.684089859178023 ], [ 144.898587967199745, -37.684124120635978 ] ] } },
{ "type": "Feature", "properties": { "gid": 2209, "fclass": "primary", "length": 26.505035744844605, "status": "disappeared" }, "geometry": { "type": "LineString", "coordinates": [ [ 144.892566656535138, -37.68471392601819 ], [ 144.89252904944837, -37.684572280814592 ], [ 144.892422885470666, -37.684530703371635 ] ] } },
{ "type": "Feature", "properties": { "gid": 2216, "fclass": "primary", "length": 44.256558976742284, "status": "disappeared" }, "geometry": { "type": "LineString", "coordinates": [ [ 144.904908690715104, -37.674425324943236 ], [ 144.904946677103169, -37.674279451824525 ], [ 144.905139540030689, -37.674082206172478 ] ] } },
{ "type": "Feature", "properties": { "gid": 2242, "fclass": "primary", "length": 32.129647593277532, "status": "disappeared" }, "geometry": { "type": "LineString", "coordinates": [ [ 144.931068919548608, -37.666020888607534 ], [ 144.930953472266879, -37.666295464330304 ] ] } },
{ "type": "Feature", "properties": { "gid": 2245, "fclass": "primary", "length": 31.924346696371522, "status": "disappeared" }, "geometry": { "type": "LineString", "coordinates": [ [ 144.91357493664799, -37.677292738401931 ], [ 144.913735181996827, -37.677269967158765 ], [ 144.913834350243036, -37.677132717972711 ] ] } },
{ "type": "Feature", "properties": { "gid": 2247, "fclass": "primary", "length": 2.5400000000372529, "status": "disappeared" }, "geometry": { "type": "LineString", "coordinates": [ [ 144.894583159998433, -37.684669944145348 ], [ 144.894583191887136, -37.684647057471906 ] ] } },
{ "type": "Feature", "properties": { "gid": 2248, "fclass": "primary", "length": 2.5407166127115488, "status": "disappeared" }, "geometry": { "type": "LineString", "coordinates": [ [ 144.894583159998433, -37.684669944145348 ], [ 144.894554353733952, -37.684669918791883 ] ] } },
{ "type": "Feature", "properties": { "gid": 2254, "fclass": "primary", "length": 63.484692236733075, "status": "disappeared" }, "geometry": { "type": "LineString", "coordinates": [ [ 144.910339021046809, -37.661361126607424 ], [ 144.910247163183811, -37.661416844607402 ], [ 144.910184068673999, -37.661501192732587 ], [ 144.910160365101916, -37.661758652520717 ], [ 144.910079246229031, -37.661864443519065 ] ] } },
{ "type": "Feature", "properties": { "gid": 2267, "fclass": "primary", "length": 2.5400000000372529, "status": "disappeared" }, "geometry": { "type": "LineString", "coordinates": [ [ 144.888796969728901, -37.682032740296727 ], [ 144.888796936091012, -37.682055626991129 ] ] } },
{ "type": "Feature", "properties": { "gid": 2289, "fclass": "primary", "length": 2.5407166127115488, "status": "disappeared" }, "geometry": { "type": "LineString", "coordinates": [ [ 144.893628273660568, -37.687713029590554 ], [ 144.893657081083404, -37.687713055166689 ] ] } },
{ "type": "Feature", "properties": { "gid": 2290, "fclass": "primary", "length": 20.48382332223359, "status": "disappeared" }, "geometry": { "type": "LineString", "coordinates": [ [ 144.926499955845628, -37.685265946794054 ], [ 144.926269526145973, -37.68524291849814 ] ] } },
{ "type": "Feature", "properties": { "gid": 2294, "fclass": "primary", "length": 2.5407166127115488, "status": "disappeared" }, "geometry": { "type": "LineString", "coordinates": [ [ 144.927328125682465, -37.662791628684325 ], [ 144.927299327736279, -37.662791611205051 ] ] } },
{ "type": "Feature", "properties": { "gid": 2295, "fclass": "primary", "length": 3.592609205897253, "status": "disappeared" }, "geometry": { "type": "LineString", "coordinates": [ [ 144.927328125682465, -37.662791628684325 ], [ 144.927299305750552, -37.662814498073196 ] ] } },
{ "type": "Feature", "properties": { "gid": 2309, "fclass": "primary", "length": 37.909258621807695, "status": "disappeared" }, "geometry": { "type": "LineString", "coordinates": [ [ 144.911422287835649, -37.695394531829429 ], [ 144.911350288772297, -37.695371591972034 ], [ 144.911231592131628, -37.695247058171049 ], [ 144.911076751916625, -37.695234069629635 ] ] } },
{ "type": "Feature", "properties": { "gid": 2312, "fclass": "primary", "length": 46.977993991756712, "status": "disappeared" }, "geometry": { "type": "LineString", "coordinates": [ [ 144.894663174019286, -37.689270237503536 ], [ 144.894636345798773, -37.689141476436475 ], [ 144.894469107003687, -37.688992565918312 ], [ 144.894433220867484, -37.688903848475846 ] ] } },
{ "type": "Feature", "properties": { "gid": 2318, "fclass": "primary", "length": 20.945724232236241, "status": "disappeared" }, "geometry": { "type": "LineString", "coordinates": [ [ 144.905576057413725, -37.670489322685569 ], [ 144.905518684277155, -37.67030618286784 ] ] } },
{ "type": "Feature", "properties": { "gid": 2322, "fclass": "primary", "length": 20.230318857778698, "status": "disappeared" }, "geometry": { "type": "LineString", "coordinates": [ [ 144.902280847845702, -37.679710052500191 ], [ 144.902367305279853, -37.679675792888489 ], [ 144.902396242500487, -37.679572826128194 ] ] } },
{ "type": "Feature", "properties": { "gid": 2333, "fclass": "primary", "length": 17.779999999795109, "status": "disappeared" }, "geometry": { "type": "LineString", "coordinates": [ [ 144.891637225111623, -37.669928238334819 ], [ 144.891637454525693, -37.669768030735035 ] ] } },
{ "type": "Feature", "properties": { "gid": 2343, "fclass": "primary", "length": 9.1598890900237233, "status": "disappeared" }, "geometry": { "type": "LineString", "coordinates": [ [ 144.924131484908855, -37.662858306805099 ], [ 144.92421783298613, -37.662904135241419 ] ] } },
{ "type": "Feature", "properties": { "gid": 2356, "fclass": "primary", "length": 2.5407166122458875, "status": "disappeared" }, "geometry": { "type": "LineString", "coordinates": [ [ 144.927299327736279, -37.662791611205051 ], [ 144.927270529790121, -37.662791593718822 ] ] } },
{ "type": "Feature", "properties": { "gid": 2357, "fclass": "primary", "length": 2.5400000000372529, "status": "disappeared" }, "geometry": { "type": "LineString", "coordinates": [ [ 144.927299327736279, -37.662791611205051 ], [ 144.927299305750552, -37.662814498073196 ] ] } },
{ "type": "Feature", "properties": { "gid": 2376, "fclass": "primary", "length": 66.582665009292072, "status": "disappeared" }, "geometry": { "type": "LineString", "coordinates": [ [ 144.900007116749435, -37.678334971058362 ], [ 144.899835537149954, -37.678755371783232 ], [ 144.899891144318303, -37.678907042992506 ] ] } },
{ "type": "Feature", "properties": { "gid": 2384, "fclass": "primary", "length": 5.081433224491775, "status": "disappeared" }, "geometry": { "type": "LineString", "coordinates": [ [ 144.893714695929134, -37.687713106298204 ], [ 144.893657081083404, -37.687713055166689 ] ] } },
{ "type": "Feature", "properties": { "gid": 2389, "fclass": "primary", "length": 22.473670614875758, "status": "disappeared" }, "geometry": { "type": "LineString", "coordinates": [ [ 144.919718549074844, -37.669309522867451 ], [ 144.919805009468689, -37.669253794150386 ], [ 144.919862720855775, -37.669149411625668 ] ] } },
{ "type": "Feature", "properties": { "gid": 2395, "fclass": "primary", "length": 23.735203618323311, "status": "disappeared" }, "geometry": { "type": "LineString", "coordinates": [ [ 144.929151161252065, -37.684191869580474 ], [ 144.929291564214765, -37.68422056091142 ], [ 144.929352697043441, -37.684306422095396 ] ] } },
{ "type": "Feature", "properties": { "gid": 2397, "fclass": "primary", "length": 31.845766613830463, "status": "disappeared" }, "geometry": { "type": "LineString", "coordinates": [ [ 144.921763615885567, -37.669082007990546 ], [ 144.92184653208804, -37.668970488833182 ], [ 144.922023007600473, -37.668899082519815 ] ] } },
{ "type": "Feature", "properties": { "gid": 2399, "fclass": "primary", "length": 2.5400000000372529, "status": "disappeared" }, "geometry": { "type": "LineString", "coordinates": [ [ 144.890366050654336, -37.672650612742075 ], [ 144.890366017495211, -37.672673499517629 ] ] } },
{ "type": "Feature", "properties": { "gid": 2400, "fclass": "primary", "length": 3.5926092055679342, "status": "disappeared" }, "geometry": { "type": "LineString", "coordinates": [ [ 144.890366050654336, -37.672650612742075 ], [ 144.890394819191414, -37.672673525878437 ] ] } },
{ "type": "Feature", "properties": { "gid": 2401, "fclass": "primary", "length": 28.968060850402072, "status": "disappeared" }, "geometry": { "type": "LineString", "coordinates": [ [ 144.916018660997139, -37.655460418798903 ], [ 144.915701990775744, -37.655391535443854 ] ] } },
{ "type": "Feature", "properties": { "gid": 2415, "fclass": "primary", "length": 17.779999999795109, "status": "disappeared" }, "geometry": { "type": "LineString", "coordinates": [ [ 144.925913688029823, -37.666200905226475 ], [ 144.925913844869712, -37.666040697348755 ] ] } },
{ "type": "Feature", "properties": { "gid": 2417, "fclass": "primary", "length": 29.05436374281696, "status": "disappeared" }, "geometry": { "type": "LineString", "coordinates": [ [ 144.925581569640116, -37.681786600733346 ], [ 144.925587029697112, -37.681726526486663 ], [ 144.925725820190024, -37.681557823062477 ] ] } },
{ "type": "Feature", "properties": { "gid": 2421, "fclass": "primary", "length": 2.5407166122458875, "status": "disappeared" }, "geometry": { "type": "LineString", "coordinates": [ [ 144.926463764007082, -37.692864294402305 ], [ 144.926434954613256, -37.692864276715333 ] ] } },
{ "type": "Feature", "properties": { "gid": 2430, "fclass": "primary", "length": 25.093055612662752, "status": "disappeared" }, "geometry": { "type": "LineString", "coordinates": [ [ 144.889307796689337, -37.687274268414185 ], [ 144.889399638632511, -37.687261479485386 ], [ 144.889509648017594, -37.687137134674515 ] ] } },
{ "type": "Feature", "properties": { "gid": 2438, "fclass": "primary", "length": 31.664147852752301, "status": "disappeared" }, "geometry": { "type": "LineString", "coordinates": [ [ 144.91885899279589, -37.69201257990342 ], [ 144.91891107430547, -37.692138491639405 ], [ 144.919089269513279, -37.69219582869647 ] ] } },
{ "type": "Feature", "properties": { "gid": 2440, "fclass": "primary", "length": 122.54359077275353, "status": "disappeared" }, "geometry": { "type": "LineString", "coordinates": [ [ 144.912167743085178, -37.698507656937672 ], [ 144.91234073001317, -37.69840622444066 ], [ 144.912396709669224, -37.698270376326761 ], [ 144.91244964562037, -37.697652477321562 ], [ 144.912401160870104, -37.697536578547179 ], [ 144.912341752750962, -37.697523661392324 ] ] } },
{ "type": "Feature", "properties": { "gid": 2444, "fclass": "primary", "length": 25.407166123855859, "status": "disappeared" }, "geometry": { "type": "LineString", "coordinates": [ [ 144.921604162567093, -37.656196588066315 ], [ 144.921316208212943, -37.656196399196403 ] ] } },
{ "type": "Feature", "properties": { "gid": 2451, "fclass": "primary", "length": 31.147986198975566, "status": "disappeared" }, "geometry": { "type": "LineString", "coordinates": [ [ 144.913110403073887, -37.655412569873974 ], [ 144.913121033772825, -37.655558481870493 ], [ 144.913225294981316, -37.655664409593683 ] ] } },
{ "type": "Feature", "properties": { "gid": 2461, "fclass": "primary", "length": 31.822205972468804, "status": "disappeared" }, "geometry": { "type": "LineString", "coordinates": [ [ 144.928778534879029, -37.682223391860759 ], [ 144.928897429506605, -37.682146219829647 ], [ 144.929025282604471, -37.682114826418733 ], [ 144.929095479440491, -37.682132033027713 ] ] } },
{ "type": "Feature", "properties": { "gid": 2462, "fclass": "primary", "length": 60.348907845090565, "status": "disappeared" }, "geometry": { "type": "LineString", "coordinates": [ [ 144.896886288767888, -37.685678963440147 ], [ 144.896815978918795, -37.68574756297356 ], [ 144.896709723057057, -37.685770358092789 ], [ 144.89640725679152, -37.685767236072365 ], [ 144.896326288959102, -37.685729975152057 ], [ 144.896310155783254, -37.685678466131513 ] ] } },
{ "type": "Feature", "properties": { "gid": 2465, "fclass": "primary", "length": 20.482490188439584, "status": "disappeared" }, "geometry": { "type": "LineString", "coordinates": [ [ 144.923870434950118, -37.693343293572909 ], [ 144.924072193863509, -37.693251875132297 ] ] } },
{ "type": "Feature", "properties": { "gid": 2468, "fclass": "primary", "length": 110.739192443625, "status": "disappeared" }, "geometry": { "type": "LineString", "coordinates": [ [ 144.924397388459482, -37.656129723397214 ], [ 144.924311058015348, -37.6560738819459 ], [ 144.924264367132821, -37.655972291629638 ], [ 144.92426993800936, -37.655800643097983 ], [ 144.924525812828762, -37.655483248320486 ], [ 144.924632034881768, -37.655443263073543 ], [ 144.924829978805491, -37.655466274443967 ] ] } },
{ "type": "Feature", "properties": { "gid": 2475, "fclass": "primary", "length": 12.703583061695099, "status": "disappeared" }, "geometry": { "type": "LineString", "coordinates": [ [ 144.926434954613256, -37.692864276715333 ], [ 144.926290907644358, -37.692864188176586 ] ] } },
{ "type": "Feature", "properties": { "gid": 2489, "fclass": "primary", "length": 28.434992207805774, "status": "disappeared" }, "geometry": { "type": "LineString", "coordinates": [ [ 144.929119064394882, -37.656956541077996 ], [ 144.92900026055392, -37.656979357625559 ], [ 144.92880231140532, -37.656956353161824 ] ] } },
{ "type": "Feature", "properties": { "gid": 2495, "fclass": "primary", "length": 28.429103687513379, "status": "disappeared" }, "geometry": { "type": "LineString", "coordinates": [ [ 144.91957547253233, -37.695537601965583 ], [ 144.919416971087458, -37.695578977425676 ], [ 144.919373628909312, -37.695697672504558 ] ] } },
{ "type": "Feature", "properties": { "gid": 2497, "fclass": "primary", "length": 18.49187290742184, "status": "disappeared" }, "geometry": { "type": "LineString", "coordinates": [ [ 144.891354952313009, -37.685994488167658 ], [ 144.89141233590891, -37.686154747028631 ] ] } },
{ "type": "Feature", "properties": { "gid": 2501, "fclass": "primary", "length": 48.971786296691974, "status": "disappeared" }, "geometry": { "type": "LineString", "coordinates": [ [ 144.890376915014997, -37.685032355944088 ], [ 144.890322791038471, -37.685109549010996 ], [ 144.890320816450497, -37.68522970236878 ], [ 144.89043393122418, -37.685444368664378 ] ] } },
{ "type": "Feature", "properties": { "gid": 2507, "fclass": "primary", "length": 20.183143821317543, "status": "disappeared" }, "geometry": { "type": "LineString", "coordinates": [ [ 144.922641827508613, -37.655190237454349 ], [ 144.922760624618803, -37.655173148933237 ], [ 144.92281469118447, -37.65509880121806 ] ] } },
{ "type": "Feature", "properties": { "gid": 2515, "fclass": "primary", "length": 3.592609205897253, "status": "disappeared" }, "geometry": { "type": "LineString", "coordinates": [ [ 144.894554353733952, -37.684669918791883 ], [ 144.894583191887136, -37.684647057471906 ] ] } },
{ "type": "Feature", "properties": { "gid": 2516, "fclass": "primary", "length": 10.475469176582482, "status": "disappeared" }, "geometry": { "type": "LineString", "coordinates": [ [ 144.894554353733952, -37.684669918791883 ], [ 144.89443909674398, -37.684692703981895 ] ] } },
{ "type": "Feature", "properties": { "gid": 2522, "fclass": "primary", "length": 26.871807053667958, "status": "disappeared" }, "geometry": { "type": "LineString", "coordinates": [ [ 144.898099250613654, -37.683391331228137 ], [ 144.897980415203449, -37.68339981259512 ], [ 144.897811100091047, -37.683459745891639 ] ] } },
{ "type": "Feature", "properties": { "gid": 2526, "fclass": "primary", "length": 14.269922587378439, "status": "disappeared" }, "geometry": { "type": "LineString", "coordinates": [ [ 144.88831655889436, -37.695260787795412 ], [ 144.888296838416323, -37.695202122468807 ], [ 144.888345538091471, -37.695146381748238 ] ] } },
{ "type": "Feature", "properties": { "gid": 2527, "fclass": "primary", "length": 2.5407166122458875, "status": "disappeared" }, "geometry": { "type": "LineString", "coordinates": [ [ 144.890394819191414, -37.672673525878437 ], [ 144.890366017495211, -37.672673499517629 ] ] } },
{ "type": "Feature", "properties": { "gid": 2529, "fclass": "primary", "length": 31.492548453735786, "status": "disappeared" }, "geometry": { "type": "LineString", "coordinates": [ [ 144.911950716764778, -37.662186250639188 ], [ 144.911910950086366, -37.662332125312794 ], [ 144.911806434827213, -37.662437900244882 ] ] } },
{ "type": "Feature", "properties": { "gid": 2530, "fclass": "primary", "length": 30.908916031216958, "status": "disappeared" }, "geometry": { "type": "LineString", "coordinates": [ [ 144.897730065594232, -37.679477386024899 ], [ 144.898075655398799, -37.679523454083643 ] ] } },
{ "type": "Feature", "properties": { "gid": 2538, "fclass": "primary", "length": 31.902476265755798, "status": "disappeared" }, "geometry": { "type": "LineString", "coordinates": [ [ 144.889661327749479, -37.681896219251414 ], [ 144.889598030410525, -37.682092128519272 ], [ 144.889516934095326, -37.682147840139898 ] ] } },
{ "type": "Feature", "properties": { "gid": 2540, "fclass": "primary", "length": 3.5926092055679342, "status": "disappeared" }, "geometry": { "type": "LineString", "coordinates": [ [ 144.927270529790121, -37.662791593718822 ], [ 144.927299305750552, -37.662814498073196 ] ] } },
{ "type": "Feature", "properties": { "gid": 2555, "fclass": "tertiary", "length": 9.1598890900237233, "status": "disappeared" }, "geometry": { "type": "LineString", "coordinates": [ [ 144.929608251172453, -37.657323020511043 ], [ 144.929694681289845, -37.65727729743211 ] ] } },
{ "type": "Feature", "properties": { "gid": 2567, "fclass": "tertiary", "length": 15.450334653215821, "status": "disappeared" }, "geometry": { "type": "LineString", "coordinates": [ [ 144.90568692516996, -37.673968204503048 ], [ 144.905715898466184, -37.673830906566145 ] ] } },
{ "type": "Feature", "properties": { "gid": 2571, "fclass": "tertiary", "length": 44.533029782986837, "status": "disappeared" }, "geometry": { "type": "LineString", "coordinates": [ [ 144.913168072113791, -37.655343950865365 ], [ 144.913099601613595, -37.655415422903886 ], [ 144.913085085777823, -37.655518403627696 ], [ 144.913189317349264, -37.655650079175537 ], [ 144.913254116442829, -37.655641543531651 ] ] } },
{ "type": "Feature", "properties": { "gid": 2584, "fclass": "tertiary", "length": 25.399999999906868, "status": "disappeared" }, "geometry": { "type": "LineString", "coordinates": [ [ 144.919946967151219, -37.671186394961225 ], [ 144.919947209268912, -37.670957526998784 ] ] } },
{ "type": "Feature", "properties": { "gid": 2586, "fclass": "tertiary", "length": 28.546176622703406, "status": "disappeared" }, "geometry": { "type": "LineString", "coordinates": [ [ 144.90091972939922, -37.685293293661495 ], [ 144.90081545209091, -37.685181634729517 ], [ 144.900833609869892, -37.685064355446251 ] ] } },
{ "type": "Feature", "properties": { "gid": 2588, "fclass": "tertiary", "length": 44.644231773298941, "status": "disappeared" }, "geometry": { "type": "LineString", "coordinates": [ [ 144.924630292097987, -37.682495494166218 ], [ 144.924607015956525, -37.682366741752922 ], [ 144.924774683406071, -37.682129397492631 ] ] } },
{ "type": "Feature", "properties": { "gid": 2594, "fclass": "tertiary", "length": 45.448498978036696, "status": "disappeared" }, "geometry": { "type": "LineString", "coordinates": [ [ 144.893570562225847, -37.687781638356668 ], [ 144.893495099741102, -37.687669998747893 ], [ 144.893489843345833, -37.687567004031827 ], [ 144.893567387909513, -37.687478387079111 ], [ 144.893657402784214, -37.687484188689517 ] ] } },
{ "type": "Feature", "properties": { "gid": 2595, "fclass": "tertiary", "length": 17.785016286652535, "status": "disappeared" }, "geometry": { "type": "LineString", "coordinates": [ [ 144.893570562225847, -37.687781638356668 ], [ 144.893772214368965, -37.687781817341367 ] ] } },
{ "type": "Feature", "properties": { "gid": 2600, "fclass": "tertiary", "length": 16.793111661352114, "status": "disappeared" }, "geometry": { "type": "LineString", "coordinates": [ [ 144.888316626472601, -37.695215014635806 ], [ 144.888359949550306, -37.695142103938451 ], [ 144.88843203635497, -37.695100689105082 ] ] } },
{ "type": "Feature", "properties": { "gid": 2608, "fclass": "tertiary", "length": 54.503273052594857, "status": "disappeared" }, "geometry": { "type": "LineString", "coordinates": [ [ 144.905197201853042, -37.674036478246947 ], [ 144.9049665146226, -37.674250859080757 ], [ 144.904879859577306, -37.674448188836791 ] ] } },
{ "type": "Feature", "properties": { "gid": 2610, "fclass": "tertiary", "length": 23.030982344556044, "status": "disappeared" }, "geometry": { "type": "LineString", "coordinates": [ [ 144.893774785137055, -37.68595088501371 ], [ 144.893794674114446, -37.685890825085352 ], [ 144.893767740111798, -37.685839306147649 ], [ 144.893659751141229, -37.685813462805179 ] ] } },
{ "type": "Feature", "properties": { "gid": 2612, "fclass": "tertiary", "length": 93.030177619822084, "status": "disappeared" }, "geometry": { "type": "LineString", "coordinates": [ [ 144.888465476663185, -37.672419989856387 ], [ 144.888575468113117, -37.672294214785069 ], [ 144.888915959418739, -37.67210857573567 ], [ 144.889173412457694, -37.672081636154758 ], [ 144.88923093373711, -37.67213747596913 ], [ 144.88921461981127, -37.672214703865066 ] ] } },
{ "type": "Feature", "properties": { "gid": 2624, "fclass": "tertiary", "length": 25.239493416685622, "status": "disappeared" }, "geometry": { "type": "LineString", "coordinates": [ [ 144.898620474464281, -37.659864130349426 ], [ 144.898739295813925, -37.659838483107613 ], [ 144.898822235813327, -37.659726979510829 ] ] } },
{ "type": "Feature", "properties": { "gid": 2627, "fclass": "tertiary", "length": 3.5926092055679342, "status": "disappeared" }, "geometry": { "type": "LineString", "coordinates": [ [ 144.888768130823848, -37.682055600246208 ], [ 144.888739291901402, -37.682078460188556 ] ] } },
{ "type": "Feature", "properties": { "gid": 2628, "fclass": "tertiary", "length": 2.5400000000372529, "status": "disappeared" }, "geometry": { "type": "LineString", "coordinates": [ [ 144.888768130823848, -37.682055600246208 ], [ 144.888768097177234, -37.682078486940412 ] ] } },
{ "type": "Feature", "properties": { "gid": 2636, "fclass": "tertiary", "length": 37.38111472321846, "status": "disappeared" }, "geometry": { "type": "LineString", "coordinates": [ [ 144.892831891857128, -37.660156619701318 ], [ 144.892882492994545, -37.660010760908818 ], [ 144.892803548755523, -37.659836177548527 ] ] } },
{ "type": "Feature", "properties": { "gid": 2637, "fclass": "tertiary", "length": 35.135527429632546, "status": "disappeared" }, "geometry": { "type": "LineString", "coordinates": [ [ 144.911422314634365, -37.695371645245054 ], [ 144.91122438452129, -37.695251344068971 ], [ 144.911076751916625, -37.695234069629635 ] ] } },
{ "type": "Feature", "properties": { "gid": 2662, "fclass": "tertiary", "length": 66.004498987459826, "status": "disappeared" }, "geometry": { "type": "LineString", "coordinates": [ [ 144.910347566050319, -37.678457590785797 ], [ 144.910331450307581, -37.678384627202185 ], [ 144.910138978975027, -37.678254314556654 ], [ 144.910101377893511, -37.678082635689172 ], [ 144.91002043365495, -37.678026788445564 ], [ 144.909944828944447, -37.678022440359769 ] ] } },
{ "type": "Feature", "properties": { "gid": 2664, "fclass": "tertiary", "length": 20.950938353616728, "status": "disappeared" }, "geometry": { "type": "LineString", "coordinates": [ [ 144.900055655225373, -37.685201029078414 ], [ 144.900286046646102, -37.685246994468891 ] ] } },
{ "type": "Feature", "properties": { "gid": 2670, "fclass": "tertiary", "length": 30.589459260853246, "status": "disappeared" }, "geometry": { "type": "LineString", "coordinates": [ [ 144.916371123798996, -37.675257800942312 ], [ 144.91660177232697, -37.675051980760763 ] ] } },
{ "type": "Feature", "properties": { "gid": 2680, "fclass": "tertiary", "length": 22.065167267415816, "status": "disappeared" }, "geometry": { "type": "LineString", "coordinates": [ [ 144.891326145545321, -37.685994462037918 ], [ 144.891383656402041, -37.686066035105192 ], [ 144.89135468938548, -37.686177581449293 ] ] } },
{ "type": "Feature", "properties": { "gid": 2686, "fclass": "tertiary", "length": 37.21345505550552, "status": "disappeared" }, "geometry": { "type": "LineString", "coordinates": [ [ 144.889690199691557, -37.681850472389243 ], [ 144.889585417662602, -37.682099268995479 ], [ 144.889516934095326, -37.682147840139898 ] ] } },
{ "type": "Feature", "properties": { "gid": 2705, "fclass": "tertiary", "length": 27.357701922212129, "status": "disappeared" }, "geometry": { "type": "LineString", "coordinates": [ [ 144.92167264284268, -37.673499102897225 ], [ 144.921788087479314, -37.673270310416889 ] ] } },
{ "type": "Feature", "properties": { "gid": 2720, "fclass": "tertiary", "length": 2.5400000000372529, "status": "disappeared" }, "geometry": { "type": "LineString", "coordinates": [ [ 144.893801021818035, -37.687781842882877 ], [ 144.893801053944657, -37.687758956236614 ] ] } },
{ "type": "Feature", "properties": { "gid": 2721, "fclass": "tertiary", "length": 2.5407166122458875, "status": "disappeared" }, "geometry": { "type": "LineString", "coordinates": [ [ 144.893801021818035, -37.687781842882877 ], [ 144.893772214368965, -37.687781817341367 ] ] } },
{ "type": "Feature", "properties": { "gid": 2722, "fclass": "tertiary", "length": 5.6808946143975048, "status": "disappeared" }, "geometry": { "type": "LineString", "coordinates": [ [ 144.893801021818035, -37.687781842882877 ], [ 144.893858604607004, -37.68780478059125 ] ] } },
{ "type": "Feature", "properties": { "gid": 2730, "fclass": "tertiary", "length": 38.86422766620548, "status": "disappeared" }, "geometry": { "type": "LineString", "coordinates": [ [ 144.919118103120041, -37.692172961536016 ], [ 144.918999274653544, -37.692164298765761 ], [ 144.918875095123525, -37.692108428577981 ], [ 144.918887850941331, -37.691966826181108 ] ] } },
{ "type": "Feature", "properties": { "gid": 2731, "fclass": "tertiary", "length": 23.74508231134519, "status": "disappeared" }, "geometry": { "type": "LineString", "coordinates": [ [ 144.891666320645811, -37.66972228318842 ], [ 144.8916157352553, -37.669850975840248 ], [ 144.891637225111623, -37.669928238334819 ] ] } },
{ "type": "Feature", "properties": { "gid": 2763, "fclass": "tertiary", "length": 8.0342248002509802, "status": "disappeared" }, "geometry": { "type": "LineString", "coordinates": [ [ 144.898470101674206, -37.686092276700215 ], [ 144.898556491408868, -37.686115236576896 ] ] } },
{ "type": "Feature", "properties": { "gid": 2769, "fclass": "tertiary", "length": 26.518996363664435, "status": "disappeared" }, "geometry": { "type": "LineString", "coordinates": [ [ 144.925942688845851, -37.665994941480108 ], [ 144.925856067120264, -37.666223756419591 ] ] } },
{ "type": "Feature", "properties": { "gid": 2773, "fclass": "tertiary", "length": 3.592609205897253, "status": "disappeared" }, "geometry": { "type": "LineString", "coordinates": [ [ 144.926492573400907, -37.692864312082349 ], [ 144.926463786254288, -37.692841407792777 ] ] } },
{ "type": "Feature", "properties": { "gid": 2774, "fclass": "tertiary", "length": 2.5407166127115488, "status": "disappeared" }, "geometry": { "type": "LineString", "coordinates": [ [ 144.926492573400907, -37.692864312082349 ], [ 144.926463764007082, -37.692864294402305 ] ] } },
{ "type": "Feature", "properties": { "gid": 2782, "fclass": "tertiary", "length": 27.753830335465189, "status": "disappeared" }, "geometry": { "type": "LineString", "coordinates": [ [ 144.919862769329058, -37.669103637999939 ], [ 144.919833834117696, -37.669230926619989 ], [ 144.919718549074844, -37.669309522867451 ] ] } },
{ "type": "Feature", "properties": { "gid": 2790, "fclass": "tertiary", "length": 26.992364392667731, "status": "disappeared" }, "geometry": { "type": "LineString", "coordinates": [ [ 144.910213366742312, -37.694455280983135 ], [ 144.910132189092337, -37.694581096484306 ], [ 144.91001150619789, -37.694615335814682 ] ] } },
{ "type": "Feature", "properties": { "gid": 2797, "fclass": "tertiary", "length": 14.81369037772458, "status": "disappeared" }, "geometry": { "type": "LineString", "coordinates": [ [ 144.928256935374037, -37.685495878818848 ], [ 144.928401033293454, -37.685427304971839 ] ] } },
{ "type": "Feature", "properties": { "gid": 2801, "fclass": "tertiary", "length": 28.405818936120308, "status": "disappeared" }, "geometry": { "type": "LineString", "coordinates": [ [ 144.916018686391851, -37.65543753187071 ], [ 144.915701990775744, -37.655391535443854 ] ] } },
{ "type": "Feature", "properties": { "gid": 2803, "fclass": "tertiary", "length": 30.360355936307027, "status": "disappeared" }, "geometry": { "type": "LineString", "coordinates": [ [ 144.913367096823151, -37.657564128020979 ], [ 144.913233794189381, -37.657669883548948 ], [ 144.913251650687755, -37.657792913720648 ] ] } },
{ "type": "Feature", "properties": { "gid": 2817, "fclass": "tertiary", "length": 76.150473039068103, "status": "disappeared" }, "geometry": { "type": "LineString", "coordinates": [ [ 144.899833505875733, -37.678929881555739 ], [ 144.899786915219494, -37.678766774489347 ], [ 144.899960102450649, -37.678492278234721 ], [ 144.900035981077338, -37.678289221641435 ] ] } },
{ "type": "Feature", "properties": { "gid": 2827, "fclass": "tertiary", "length": 3.5926092055679342, "status": "disappeared" }, "geometry": { "type": "LineString", "coordinates": [ [ 144.926463786254288, -37.692841407792777 ], [ 144.926434954613256, -37.692864276715333 ] ] } },
{ "type": "Feature", "properties": { "gid": 2828, "fclass": "tertiary", "length": 2.5400000000372529, "status": "disappeared" }, "geometry": { "type": "LineString", "coordinates": [ [ 144.926463786254288, -37.692841407792777 ], [ 144.926463764007082, -37.692864294402305 ] ] } },
{ "type": "Feature", "properties": { "gid": 2838, "fclass": "tertiary", "length": 27.476685981809307, "status": "disappeared" }, "geometry": { "type": "LineString", "coordinates": [ [ 144.903034542530179, -37.675980123432304 ], [ 144.903207623772715, -37.675774282452274 ] ] } },
{ "type": "Feature", "properties": { "gid": 2846, "fclass": "tertiary", "length": 53.930179736178587, "status": "disappeared" }, "geometry": { "type": "LineString", "coordinates": [ [ 144.894634334127943, -37.689293098802722 ], [ 144.894652470606104, -37.689198707273427 ], [ 144.894605799108518, -37.689097106656945 ], [ 144.894460144441439, -37.688963949692599 ], [ 144.894462092598332, -37.688858100584781 ] ] } },
{ "type": "Feature", "properties": { "gid": 2847, "fclass": "tertiary", "length": 56.995050662410286, "status": "disappeared" }, "geometry": { "type": "LineString", "coordinates": [ [ 144.924397411320768, -37.656106836472951 ], [ 144.924289500106681, -37.656035246607324 ], [ 144.92425357460246, -37.655966563068034 ], [ 144.924271726265147, -37.655812087699573 ], [ 144.92439784568225, -37.655671984875397 ] ] } },
{ "type": "Feature", "properties": { "gid": 2852, "fclass": "tertiary", "length": 8.0324118985402908, "status": "disappeared" }, "geometry": { "type": "LineString", "coordinates": [ [ 144.931448079686277, -37.692546837412252 ], [ 144.931476951151808, -37.692478194053557 ] ] } },
{ "type": "Feature", "properties": { "gid": 2861, "fclass": "tertiary", "length": 34.847735623887502, "status": "disappeared" }, "geometry": { "type": "LineString", "coordinates": [ [ 144.90873297388805, -37.679760915929272 ], [ 144.908727334941261, -37.679958309759961 ], [ 144.908617424589579, -37.68003546870041 ] ] } },
{ "type": "Feature", "properties": { "gid": 2871, "fclass": "tertiary", "length": 37.505029053684602, "status": "disappeared" }, "geometry": { "type": "LineString", "coordinates": [ [ 144.925552741945012, -37.681809469539367 ], [ 144.925754670195346, -37.681512067505047 ] ] } },
{ "type": "Feature", "properties": { "gid": 2885, "fclass": "tertiary", "length": 25.533814647353381, "status": "disappeared" }, "geometry": { "type": "LineString", "coordinates": [ [ 144.921604186273015, -37.656173701143139 ], [ 144.921316208212943, -37.656196399196403 ] ] } },
{ "type": "Feature", "properties": { "gid": 2903, "fclass": "tertiary", "length": 29.77656576970945, "status": "disappeared" }, "geometry": { "type": "LineString", "coordinates": [ [ 144.90748554178046, -37.68699215910906 ], [ 144.907620681852194, -37.686905007937931 ], [ 144.90768744317981, -37.686786334753997 ] ] } },
{ "type": "Feature", "properties": { "gid": 2911, "fclass": "tertiary", "length": 27.757058362643122, "status": "disappeared" }, "geometry": { "type": "LineString", "coordinates": [ [ 144.923870457982076, -37.693320406968034 ], [ 144.924030734181656, -37.693297622089162 ], [ 144.924129858852098, -37.693206138424046 ] ] } },
{ "type": "Feature", "properties": { "gid": 2931, "fclass": "tertiary", "length": 3.5926092052387086, "status": "disappeared" }, "geometry": { "type": "LineString", "coordinates": [ [ 144.929723477138424, -37.657277314335431 ], [ 144.929694702549625, -37.657254410516586 ] ] } },
{ "type": "Feature", "properties": { "gid": 2932, "fclass": "tertiary", "length": 2.5407166122458875, "status": "disappeared" }, "geometry": { "type": "LineString", "coordinates": [ [ 144.929723477138424, -37.657277314335431 ], [ 144.929694681289845, -37.65727729743211 ] ] } },
{ "type": "Feature", "properties": { "gid": 2934, "fclass": "tertiary", "length": 3.5926092055679342, "status": "disappeared" }, "geometry": { "type": "LineString", "coordinates": [ [ 144.931505781121444, -37.692455323914288 ], [ 144.931476992612744, -37.692432420825781 ] ] } },
{ "type": "Feature", "properties": { "gid": 2935, "fclass": "tertiary", "length": 2.5407166122458875, "status": "disappeared" }, "geometry": { "type": "LineString", "coordinates": [ [ 144.931505781121444, -37.692455323914288 ], [ 144.931476971882262, -37.692455307439758 ] ] } },
{ "type": "Feature", "properties": { "gid": 2936, "fclass": "tertiary", "length": 5.0814332249574363, "status": "disappeared" }, "geometry": { "type": "LineString", "coordinates": [ [ 144.931505781121444, -37.692455323914288 ], [ 144.931563399599924, -37.692455356842466 ] ] } },
{ "type": "Feature", "properties": { "gid": 2937, "fclass": "tertiary", "length": 3.5926092055679342, "status": "disappeared" }, "geometry": { "type": "LineString", "coordinates": [ [ 144.931505781121444, -37.692455323914288 ], [ 144.931476951151808, -37.692478194053557 ] ] } },
{ "type": "Feature", "properties": { "gid": 2957, "fclass": "tertiary", "length": 34.849909038707096, "status": "disappeared" }, "geometry": { "type": "LineString", "coordinates": [ [ 144.930189764394783, -37.682475976478337 ], [ 144.930168089023198, -37.68255320649768 ], [ 144.930211218061089, -37.682639056800767 ], [ 144.930259787789424, -37.682681997671104 ], [ 144.930362386380807, -37.682704944071155 ] ] } },
{ "type": "Feature", "properties": { "gid": 2976, "fclass": "tertiary", "length": 18.319778179789196, "status": "disappeared" }, "geometry": { "type": "LineString", "coordinates": [ [ 144.927356923628622, -37.662791646156712 ], [ 144.927529798970028, -37.662700203370846 ] ] } },
{ "type": "Feature", "properties": { "gid": 2977, "fclass": "tertiary", "length": 2.5407166122458875, "status": "disappeared" }, "geometry": { "type": "LineString", "coordinates": [ [ 144.927356923628622, -37.662791646156712 ], [ 144.927328125682465, -37.662791628684325 ] ] } },
{ "type": "Feature", "properties": { "gid": 2978, "fclass": "tertiary", "length": 3.5926092055679342, "status": "disappeared" }, "geometry": { "type": "LineString", "coordinates": [ [ 144.927356923628622, -37.662791646156712 ], [ 144.927328103705463, -37.662814515552505 ] ] } },
{ "type": "Feature", "properties": { "gid": 2980, "fclass": "tertiary", "length": 29.421984749389686, "status": "disappeared" }, "geometry": { "type": "LineString", "coordinates": [ [ 144.926867336428984, -37.662814235052508 ], [ 144.92681526324597, -37.662686894959208 ], [ 144.926665928164681, -37.662631016826481 ] ] } },
{ "type": "Feature", "properties": { "gid": 2989, "fclass": "tertiary", "length": 30.445428319878005, "status": "disappeared" }, "geometry": { "type": "LineString", "coordinates": [ [ 144.927395087803632, -37.683046482926933 ], [ 144.927384359817552, -37.682969233783226 ], [ 144.927292655975691, -37.682850453352344 ], [ 144.927308912712249, -37.682794676863026 ] ] } },
{ "type": "Feature", "properties": { "gid": 2996, "fclass": "tertiary", "length": 29.179862560326832, "status": "disappeared" }, "geometry": { "type": "LineString", "coordinates": [ [ 144.929902982234779, -37.681102605893606 ], [ 144.929978428342253, -37.681282882968915 ], [ 144.929960359020072, -37.681354393412697 ] ] } },
{ "type": "Feature", "properties": { "gid": 2998, "fclass": "tertiary", "length": 42.23337037645959, "status": "disappeared" }, "geometry": { "type": "LineString", "coordinates": [ [ 144.921734791876503, -37.669104875986655 ], [ 144.921839324626887, -37.668977636264025 ], [ 144.922080655270292, -37.668853346378228 ] ] } },
{ "type": "Feature", "properties": { "gid": 3005, "fclass": "tertiary", "length": 58.789667381554025, "status": "disappeared" }, "geometry": { "type": "LineString", "coordinates": [ [ 144.890405091513315, -37.685467228978503 ], [ 144.890290325726085, -37.685149571004587 ], [ 144.890434594104846, -37.684986635314729 ] ] } },
{ "type": "Feature", "properties": { "gid": 3007, "fclass": "tertiary", "length": 28.055281871701446, "status": "disappeared" }, "geometry": { "type": "LineString", "coordinates": [ [ 144.890767813487372, -37.693615211304056 ], [ 144.890738640206081, -37.693866937561992 ] ] } },
{ "type": "Feature", "properties": { "gid": 3019, "fclass": "tertiary", "length": 37.54703711728925, "status": "disappeared" }, "geometry": { "type": "LineString", "coordinates": [ [ 144.91357493664799, -37.677292738401931 ], [ 144.913753197198588, -37.677258536751815 ], [ 144.913863205751738, -37.677086965203507 ] ] } },
{ "type": "Feature", "properties": { "gid": 3033, "fclass": "tertiary", "length": 2.5399999995715916, "status": "disappeared" }, "geometry": { "type": "LineString", "coordinates": [ [ 144.929694681289845, -37.65727729743211 ], [ 144.929694702549625, -37.657254410516586 ] ] } },
{ "type": "Feature", "properties": { "gid": 3034, "fclass": "tertiary", "length": 2.5400000000372529, "status": "disappeared" }, "geometry": { "type": "LineString", "coordinates": [ [ 144.931476971882262, -37.692455307439758 ], [ 144.931476992612744, -37.692432420825781 ] ] } },
{ "type": "Feature", "properties": { "gid": 3035, "fclass": "tertiary", "length": 2.5400000000372529, "status": "disappeared" }, "geometry": { "type": "LineString", "coordinates": [ [ 144.931476971882262, -37.692455307439758 ], [ 144.931476951151808, -37.692478194053557 ] ] } },
{ "type": "Feature", "properties": { "gid": 3061, "fclass": "tertiary", "length": 27.939999999944121, "status": "disappeared" }, "geometry": { "type": "LineString", "coordinates": [ [ 144.896195808424608, -37.685037539638799 ], [ 144.896195463011651, -37.685289293003144 ] ] } },
{ "type": "Feature", "properties": { "gid": 3062, "fclass": "tertiary", "length": 21.3840989710285, "status": "disappeared" }, "geometry": { "type": "LineString", "coordinates": [ [ 144.888969599765716, -37.682170220784755 ], [ 144.888872400750301, -37.682157256867917 ], [ 144.888768097177234, -37.682078486940412 ] ] } },
{ "type": "Feature", "properties": { "gid": 3066, "fclass": "tertiary", "length": 2.5407166127115488, "status": "disappeared" }, "geometry": { "type": "LineString", "coordinates": [ [ 144.927328125682465, -37.662791628684325 ], [ 144.927299327736279, -37.662791611205051 ] ] } },
{ "type": "Feature", "properties": { "gid": 3067, "fclass": "tertiary", "length": 2.5400000000372529, "status": "disappeared" }, "geometry": { "type": "LineString", "coordinates": [ [ 144.927328125682465, -37.662791628684325 ], [ 144.927328103705463, -37.662814515552505 ] ] } },
{ "type": "Feature", "properties": { "gid": 3089, "fclass": "tertiary", "length": 7.6221498372033238, "status": "disappeared" }, "geometry": { "type": "LineString", "coordinates": [ [ 144.888652876074104, -37.682078379891372 ], [ 144.888739291901402, -37.682078460188556 ] ] } },
{ "type": "Feature", "properties": { "gid": 3091, "fclass": "tertiary", "length": 25.795631012760779, "status": "disappeared" }, "geometry": { "type": "LineString", "coordinates": [ [ 144.902280847845702, -37.679710052500191 ], [ 144.902367305279853, -37.679675792888489 ], [ 144.902425105856054, -37.679527076156859 ] ] } },
{ "type": "Feature", "properties": { "gid": 3100, "fclass": "tertiary", "length": 29.772195268130606, "status": "disappeared" }, "geometry": { "type": "LineString", "coordinates": [ [ 144.892422885470666, -37.684530703371635 ], [ 144.892520069855124, -37.684556538149835 ], [ 144.89255953215465, -37.684659563711683 ], [ 144.892537817747098, -37.684736786852078 ] ] } },
{ "type": "Feature", "properties": { "gid": 3110, "fclass": "tertiary", "length": 32.854631431612049, "status": "disappeared" }, "geometry": { "type": "LineString", "coordinates": [ [ 144.888464423487562, -37.692674737219406 ], [ 144.888464237899399, -37.692800613528405 ], [ 144.888665819202771, -37.692858017610511 ] ] } },
{ "type": "Feature", "properties": { "gid": 3111, "fclass": "tertiary", "length": 2.5407166122458875, "status": "disappeared" }, "geometry": { "type": "LineString", "coordinates": [ [ 144.888768097177234, -37.682078486940412 ], [ 144.888739291901402, -37.682078460188556 ] ] } },
{ "type": "Feature", "properties": { "gid": 3126, "fclass": "tertiary", "length": 5.081433224491775, "status": "disappeared" }, "geometry": { "type": "LineString", "coordinates": [ [ 144.927299327736279, -37.662791611205051 ], [ 144.927241731843964, -37.662791576225644 ] ] } },
{ "type": "Feature", "properties": { "gid": 3127, "fclass": "tertiary", "length": 3.592609205897253, "status": "disappeared" }, "geometry": { "type": "LineString", "coordinates": [ [ 144.927299327736279, -37.662791611205051 ], [ 144.927328103705463, -37.662814515552505 ] ] } },
{ "type": "Feature", "properties": { "gid": 3132, "fclass": "tertiary", "length": 98.05213997807509, "status": "disappeared" }, "geometry": { "type": "LineString", "coordinates": [ [ 144.924565219566063, -37.689979397879078 ], [ 144.92459023006046, -37.690176810961155 ], [ 144.924460335304929, -37.690434203889829 ], [ 144.924431389668854, -37.690571505498539 ], [ 144.924218717635256, -37.69078021177058 ] ] } },
{ "type": "Feature", "properties": { "gid": 3141, "fclass": "tertiary", "length": 37.817764979520973, "status": "disappeared" }, "geometry": { "type": "LineString", "coordinates": [ [ 144.927047625178488, -37.655032794107598 ], [ 144.926950429648656, -37.655045608759664 ], [ 144.92686948794119, -37.654999785457932 ], [ 144.926820961411323, -37.654932525401463 ], [ 144.926817464389018, -37.654826671126536 ] ] } },
{ "type": "Feature", "properties": { "gid": 3144, "fclass": "tertiary", "length": 20.951504917779744, "status": "disappeared" }, "geometry": { "type": "LineString", "coordinates": [ [ 144.929577074793571, -37.690829254741452 ], [ 144.929695931618227, -37.690806437910972 ], [ 144.929807543750485, -37.690829389998527 ] ] } },
{ "type": "Feature", "properties": { "gid": 3149, "fclass": "tertiary", "length": 70.303908494896277, "status": "disappeared" }, "geometry": { "type": "LineString", "coordinates": [ [ 144.910079246229031, -37.661864443519065 ], [ 144.910160365101916, -37.661758652520717 ], [ 144.910193088246132, -37.661484034324957 ], [ 144.91039667003534, -37.661315395961978 ] ] } },
{ "type": "Feature", "properties": { "gid": 3153, "fclass": "tertiary", "length": 31.742612843722789, "status": "disappeared" }, "geometry": { "type": "LineString", "coordinates": [ [ 144.929064721517818, -37.684214705122407 ], [ 144.929248373787203, -37.684200509548894 ], [ 144.92932394569263, -37.684247757974234 ], [ 144.929352697043441, -37.684306422095396 ] ] } },
{ "type": "Feature", "properties": { "gid": 3162, "fclass": "tertiary", "length": 15.450334653292398, "status": "disappeared" }, "geometry": { "type": "LineString", "coordinates": [ [ 144.928804002111036, -37.685770845434376 ], [ 144.928832937975017, -37.685633542519511 ] ] } },
{ "type": "Feature", "properties": { "gid": 3167, "fclass": "tertiary", "length": 3.5926092055679342, "status": "disappeared" }, "geometry": { "type": "LineString", "coordinates": [ [ 144.893772214368965, -37.687781817341367 ], [ 144.893801053944657, -37.687758956236614 ] ] } },
{ "type": "Feature", "properties": { "gid": 3177, "fclass": "tertiary", "length": 23.809719844544304, "status": "disappeared" }, "geometry": { "type": "LineString", "coordinates": [ [ 144.910893285506376, -37.655319392725978 ], [ 144.910963559377763, -37.65524649285171 ], [ 144.911095012499885, -37.655182220980045 ] ] } },
{ "type": "Feature", "properties": { "gid": 3179, "fclass": "tertiary", "length": 25.138988702132846, "status": "disappeared" }, "geometry": { "type": "LineString", "coordinates": [ [ 144.916791752162851, -37.659443284146541 ], [ 144.916888994329838, -37.659394716988061 ], [ 144.916907139859717, -37.659260268966484 ] ] } },
{ "type": "Feature", "properties": { "gid": 3180, "fclass": "tertiary", "length": 70.03807659656151, "status": "disappeared" }, "geometry": { "type": "LineString", "coordinates": [ [ 144.896886351152773, -37.685633190109357 ], [ 144.896821384071984, -37.68574470679286 ], [ 144.896767336425398, -37.685770407756166 ], [ 144.896380252485471, -37.68576578229839 ], [ 144.896322715568118, -37.685709946204035 ], [ 144.896339025148279, -37.685632717732219 ] ] } },
{ "type": "Feature", "properties": { "gid": 3195, "fclass": "tertiary", "length": 3.5926092055679342, "status": "disappeared" }, "geometry": { "type": "LineString", "coordinates": [ [ 144.926637152465702, -37.66260811231831 ], [ 144.926665928164681, -37.662631016826481 ] ] } },
{ "type": "Feature", "properties": { "gid": 3197, "fclass": "tertiary", "length": 2.5407166122458875, "status": "disappeared" }, "geometry": { "type": "LineString", "coordinates": [ [ 144.926463764007082, -37.692864294402305 ], [ 144.926434954613256, -37.692864276715333 ] ] } },
{ "type": "Feature", "properties": { "gid": 3201, "fclass": "tertiary", "length": 10.475469176582482, "status": "disappeared" }, "geometry": { "type": "LineString", "coordinates": [ [ 144.931361776456129, -37.692409468244399 ], [ 144.931476992612744, -37.692432420825781 ] ] } },
{ "type": "Feature", "properties": { "gid": 3206, "fclass": "tertiary", "length": 122.54359077275353, "status": "disappeared" }, "geometry": { "type": "LineString", "coordinates": [ [ 144.912167743085178, -37.698507656937672 ], [ 144.91234073001317, -37.69840622444066 ], [ 144.912396709669224, -37.698270376326761 ], [ 144.91244964562037, -37.697652477321562 ], [ 144.912401160870104, -37.697536578547179 ], [ 144.912341752750962, -37.697523661392324 ] ] } },
{ "type": "Feature", "properties": { "gid": 3211, "fclass": "tertiary", "length": 30.824101413154402, "status": "disappeared" }, "geometry": { "type": "LineString", "coordinates": [ [ 144.922872351187038, -37.655030177528161 ], [ 144.922744433245413, -37.655167416751134 ], [ 144.922613032455786, -37.655190218848048 ] ] } },
{ "type": "Feature", "properties": { "gid": 3215, "fclass": "tertiary", "length": 10.162866449449211, "status": "disappeared" }, "geometry": { "type": "LineString", "coordinates": [ [ 144.919751831123307, -37.692242047599649 ], [ 144.919867067744292, -37.692242124734413 ] ] } },
{ "type": "Feature", "properties": { "gid": 3218, "fclass": "tertiary", "length": 31.604995194276064, "status": "disappeared" }, "geometry": { "type": "LineString", "coordinates": [ [ 144.929095500888508, -37.682109146324677 ], [ 144.928933450927389, -37.682130506588926 ], [ 144.928778534879029, -37.682223391860759 ] ] } },
{ "type": "Feature", "properties": { "gid": 3230, "fclass": "tertiary", "length": 24.102674400311166, "status": "disappeared" }, "geometry": { "type": "LineString", "coordinates": [ [ 144.910067657065753, -37.695851254690986 ], [ 144.909808280460794, -37.695919719512567 ] ] } },
{ "type": "Feature", "properties": { "gid": 3240, "fclass": "tertiary", "length": 28.427515971343812, "status": "disappeared" }, "geometry": { "type": "LineString", "coordinates": [ [ 144.896683892133865, -37.686228069603892 ], [ 144.896712570105734, -37.686322501917736 ], [ 144.896683548339666, -37.686479822856278 ] ] } },
{ "type": "Feature", "properties": { "gid": 3245, "fclass": "tertiary", "length": 12.703583061695099, "status": "disappeared" }, "geometry": { "type": "LineString", "coordinates": [ [ 144.926434954613256, -37.692864276715333 ], [ 144.926290907644358, -37.692864188176586 ] ] } },
{ "type": "Feature", "properties": { "gid": 3247, "fclass": "tertiary", "length": 26.788008836798603, "status": "disappeared" }, "geometry": { "type": "LineString", "coordinates": [ [ 144.926240741966751, -37.685220014088756 ], [ 144.926359524155913, -37.685265860546814 ], [ 144.926528784571417, -37.685243077789956 ] ] } },
{ "type": "Feature", "properties": { "gid": 3252, "fclass": "tertiary", "length": 37.213455055584326, "status": "disappeared" }, "geometry": { "type": "LineString", "coordinates": [ [ 144.911979567713502, -37.66214049806851 ], [ 144.911874886251923, -37.662389316000173 ], [ 144.911806434827213, -37.662437900244882 ] ] } },
{ "type": "Feature", "properties": { "gid": 3259, "fclass": "tertiary", "length": 18.491872907102067, "status": "disappeared" }, "geometry": { "type": "LineString", "coordinates": [ [ 144.893858893589481, -37.687598800769365 ], [ 144.893801053944657, -37.687758956236614 ] ] } },
{ "type": "Feature", "properties": { "gid": 3293, "fclass": "tertiary", "length": 26.029330705085414, "status": "disappeared" }, "geometry": { "type": "LineString", "coordinates": [ [ 144.920333501714651, -37.659674561888757 ], [ 144.920229231064098, -37.659562918788509 ], [ 144.920247328495435, -37.659468522335892 ] ] } },
{ "type": "Feature", "properties": { "gid": 3298, "fclass": "tertiary", "length": 17.96547812658169, "status": "disappeared" }, "geometry": { "type": "LineString", "coordinates": [ [ 144.89443909674398, -37.684692703981895 ], [ 144.894640772527396, -37.684669994831523 ] ] } },
{ "type": "Feature", "properties": { "gid": 3304, "fclass": "tertiary", "length": 8.0324118983929989, "status": "disappeared" }, "geometry": { "type": "LineString", "coordinates": [ [ 144.929723562142584, -37.657185766672129 ], [ 144.929694702549625, -37.657254410516586 ] ] } },
{ "type": "Feature", "properties": { "gid": 3312, "fclass": "tertiary", "length": 2.5407166122458875, "status": "disappeared" }, "geometry": { "type": "LineString", "coordinates": [ [ 144.926665928164681, -37.662631016826481 ], [ 144.926637130279772, -37.66263099918794 ] ] } },
{ "type": "Feature", "properties": { "gid": 3530, "fclass": "unclassified", "length": 141.48945237291682, "status": "disappeared" }, "geometry": { "type": "LineString", "coordinates": [ [ 144.920458218606854, -37.678006996661651 ], [ 144.920641908431122, -37.677944179933348 ], [ 144.921678725086821, -37.678057865719538 ], [ 144.921835290831325, -37.678110893606629 ], [ 144.921840537870708, -37.678259660912225 ] ] } },
{ "type": "Feature", "properties": { "gid": 3569, "fclass": "unclassified", "length": 28.427515971158762, "status": "disappeared" }, "geometry": { "type": "LineString", "coordinates": [ [ 144.921811402936527, -37.678580056383318 ], [ 144.921782696575747, -37.67848562980555 ], [ 144.921811663088533, -37.67832830231734 ] ] } },
{ "type": "Feature", "properties": { "gid": 3610, "fclass": "unclassified", "length": 132.12314577652873, "status": "disappeared" }, "geometry": { "type": "LineString", "coordinates": [ [ 144.916576451807515, -37.671893585754006 ], [ 144.91695146351924, -37.671353145530389 ], [ 144.917108239279941, -37.671198768162022 ], [ 144.917257751567007, -37.671101602594632 ], [ 144.917527821178624, -37.671047432689122 ] ] } },
{ "type": "Feature", "properties": { "gid": 3614, "fclass": "unclassified", "length": 143.03710972291563, "status": "disappeared" }, "geometry": { "type": "LineString", "coordinates": [ [ 144.91838375720863, -37.67855488312555 ], [ 144.917030749866825, -37.67784446425398 ] ] } },
{ "type": "Feature", "properties": { "gid": 3849, "fclass": "unclassified", "length": 394.65306048768633, "status": "disappeared" }, "geometry": { "type": "LineString", "coordinates": [ [ 144.909179806374482, -37.691456353948936 ], [ 144.909153117573624, -37.691190276522498 ], [ 144.908727092059706, -37.690606343282553 ], [ 144.90828116336013, -37.690108218098679 ], [ 144.908124789009577, -37.689884953419387 ], [ 144.907731355298154, -37.689163721376936 ], [ 144.907580553754229, -37.688803140226113 ], [ 144.907573456646219, -37.688717309765565 ], [ 144.907640179482854, -37.688631536237907 ], [ 144.908031180570532, -37.688388666239128 ] ] } },
{ "type": "Feature", "properties": { "gid": 3904, "fclass": "unclassified", "length": 94.560110720465161, "status": "disappeared" }, "geometry": { "type": "LineString", "coordinates": [ [ 144.905503937116123, -37.682115745334563 ], [ 144.9053958564472, -37.682164294304414 ], [ 144.905338095488702, -37.682284403951037 ], [ 144.905415273851077, -37.682473280344517 ], [ 144.905550063605943, -37.682662202114159 ], [ 144.905560604993212, -37.682871051700502 ] ] } },
{ "type": "Feature", "properties": { "gid": 3956, "fclass": "unclassified", "length": 155.8905525813293, "status": "disappeared" }, "geometry": { "type": "LineString", "coordinates": [ [ 144.919034394639198, -37.689632487776649 ], [ 144.919224410378803, -37.688731453949174 ], [ 144.919348708141001, -37.688671460211424 ], [ 144.919813161070493, -37.688740431980115 ] ] } },
{ "type": "Feature", "properties": { "gid": 3972, "fclass": "unclassified", "length": 28.965547004324328, "status": "disappeared" }, "geometry": { "type": "LineString", "coordinates": [ [ 144.891763747751355, -37.682149891398112 ], [ 144.891504270282468, -37.682309863720384 ] ] } },
{ "type": "Feature", "properties": { "gid": 3985, "fclass": "unclassified", "length": 176.87979488798376, "status": "disappeared" }, "geometry": { "type": "LineString", "coordinates": [ [ 144.914433941884255, -37.681802043074647 ], [ 144.914412231206342, -37.681896435288103 ], [ 144.91411660755881, -37.682222359445817 ], [ 144.913503591445021, -37.683011510011312 ], [ 144.913408079451727, -37.683092974912597 ], [ 144.913337850885767, -37.683105797899586 ] ] } },
{ "type": "Feature", "properties": { "gid": 4041, "fclass": "unclassified", "length": 168.56589104087104, "status": "disappeared" }, "geometry": { "type": "LineString", "coordinates": [ [ 144.918784015370704, -37.681347337031461 ], [ 144.918665286978808, -37.681261431254498 ], [ 144.917200666722692, -37.680499444075217 ] ] } },
{ "type": "Feature", "properties": { "gid": 4194, "fclass": "unclassified", "length": 151.42620112874249, "status": "disappeared" }, "geometry": { "type": "LineString", "coordinates": [ [ 144.892435227232056, -37.696111360839453 ], [ 144.892532475269661, -37.696102865634153 ], [ 144.892694636446009, -37.696031490348588 ], [ 144.892914677629165, -37.695777073753234 ], [ 144.892936491995897, -37.695631191136222 ], [ 144.892835675726985, -37.69561679687213 ], [ 144.89268972348529, -37.695686756465371 ], [ 144.892428191372829, -37.695994060681741 ], [ 144.892406449163559, -37.696088448396139 ] ] } },
{ "type": "Feature", "properties": { "gid": 4200, "fclass": "unclassified", "length": 398.27770481415223, "status": "disappeared" }, "geometry": { "type": "LineString", "coordinates": [ [ 144.902055212309591, -37.676002213375341 ], [ 144.902303636054654, -37.676003846686442 ], [ 144.903685974606987, -37.676165173643554 ], [ 144.903923554195785, -37.676201125032001 ], [ 144.903991896085415, -37.676252675068469 ], [ 144.903636519145294, -37.678246398916833 ] ] } },
{ "type": "Feature", "properties": { "gid": 4303, "fclass": "unclassified", "length": 180.41079558141718, "status": "disappeared" }, "geometry": { "type": "LineString", "coordinates": [ [ 144.907240055297876, -37.675754586479037 ], [ 144.907135423682462, -37.675934738749 ], [ 144.907095566731584, -37.676140688794312 ], [ 144.907151183020289, -37.676295217625338 ], [ 144.907280623355007, -37.676436929784181 ], [ 144.907430036113766, -37.676439906198382 ], [ 144.907602907327089, -37.676397126986174 ], [ 144.908206252019454, -37.676167292769833 ], [ 144.908276542639555, -37.676098686303853 ] ] } },
{ "type": "Feature", "properties": { "gid": 4349, "fclass": "unclassified", "length": 162.45030612215692, "status": "disappeared" }, "geometry": { "type": "LineString", "coordinates": [ [ 144.909930253492746, -37.690266815025453 ], [ 144.909786017036424, -37.690429773865311 ], [ 144.90984314301744, -37.690841776496228 ], [ 144.909837454997842, -37.6910820819676 ], [ 144.909442745376964, -37.691407918885098 ], [ 144.909266205484442, -37.691479306055328 ] ] } },
{ "type": "Feature", "properties": { "gid": 4435, "fclass": "unclassified", "length": 415.23483066936365, "status": "disappeared" }, "geometry": { "type": "LineString", "coordinates": [ [ 144.908006575142167, -37.684932758544633 ], [ 144.908276785721569, -37.684808519338915 ], [ 144.910482430920098, -37.683152332319459 ], [ 144.910896997896884, -37.682740680589362 ], [ 144.911041348485213, -37.682466147294896 ], [ 144.911264808661286, -37.682280358461625 ] ] } },
{ "type": "Feature", "properties": { "gid": 4476, "fclass": "unclassified", "length": 108.35503870607727, "status": "disappeared" }, "geometry": { "type": "LineString", "coordinates": [ [ 144.913197656077188, -37.679764234567678 ], [ 144.91329491027571, -37.679729974896588 ], [ 144.913509330960977, -37.679565631470446 ], [ 144.913611969240293, -37.679545679640384 ], [ 144.913946559158887, -37.67977478788405 ], [ 144.913975114740083, -37.679993662827883 ] ] } }
]
}
