{
"type": "FeatureCollection",
"crs": { "type": "name", "properties": { "name": "urn:ogc:def:crs:OGC:1.3:CRS84" } },
"features": [
{ "type": "Feature", "properties": { "gid": 10816, "osm_id": "357024855", "code": 5113.0, "fclass": "primary", "name": "Airport Drive", "pixel_count": 50, "Var_line": 24.624998092651367, "Edge_contrast": 22.735363006591797, "ROI": 2360.6666666666661, "Road_detected": -1, "ROI_norm": -0.7539684153195958, "Pred": 0 }, "geometry": { "type": "LineString", "coordinates": [ [ 144.866363233680858, -37.694488769921605 ], [ 144.866125433472121, -37.692931269947451 ] ] } },
{ "type": "Feature", "properties": { "gid": 10847, "osm_id": "292140443", "code": 5115.0, "fclass": "tertiary", "name": "Watson Drive", "pixel_count": 315, "Var_line": 14.513733863830566, "Edge_contrast": 9.3041648864746094, "ROI": 7611.333333333333, "Road_detected": -1, "ROI_norm": -0.32727083133983759, "Pred": 0 }, "geometry": { "type": "LineString", "coordinates": [ [ 144.868469433758946, -37.691829969794995 ], [ 144.868251233560471, -37.690335969819117 ], [ 144.868114933436203, -37.689400269834238 ], [ 144.868048933375462, -37.688941669841519 ], [ 144.868047433370123, -37.688894769841909 ], [ 144.868048633364452, -37.6888400698422 ], [ 144.868055033358132, -37.688770969842189 ], [ 144.868069033353237, -37.68870296984165 ], [ 144.868088333349903, -37.68864106984072 ], [ 144.86811543334764, -37.688576269839281 ], [ 144.868140533346349, -37.688523969837902 ], [ 144.868172333345541, -37.688465369836109 ], [ 144.868218233346454, -37.688400269833409 ], [ 144.868256833347516, -37.688347869831091 ], [ 144.868317233350894, -37.688282369827398 ], [ 144.868490433365082, -37.688135969816528 ], [ 144.868642633378272, -37.688013969806939 ] ] } },
{ "type": "Feature", "properties": { "gid": 10851, "osm_id": "305393009", "code": 5121.0, "fclass": "unclassified", "name": null, "pixel_count": 181, "Var_line": 21.718996047973633, "Edge_contrast": 31.228849411010742, "ROI": 2068.0, "Road_detected": -1, "ROI_norm": -0.77775209223263708, "Pred": 0 }, "geometry": { "type": "LineString", "coordinates": [ [ 144.866864334127939, -37.697837969866725 ], [ 144.866705034042326, -37.697298269880939 ], [ 144.866670634029447, -37.697233769883645 ], [ 144.866623034016328, -37.697188169887212 ], [ 144.866562234001208, -37.697145969891565 ], [ 144.866483733985461, -37.697125769897042 ], [ 144.866365533964398, -37.697119869905087 ], [ 144.866234733941951, -37.697121469914002 ], [ 144.866079933913625, -37.697107169924557 ] ] } },
{ "type": "Feature", "properties": { "gid": 164053, "osm_id": "379725274", "code": 5121.0, "fclass": "unclassified", "name": null, "pixel_count": 141, "Var_line": 64.424591064453125, "Edge_contrast": 38.548538208007812, "ROI": 9044.1666666666661, "Road_detected": -1, "ROI_norm": -0.21083104180600123, "Pred": 0 }, "geometry": { "type": "LineString", "coordinates": [ [ 144.858660030543746, -37.677706170549186 ], [ 144.858534730511622, -37.677609170558306 ], [ 144.858451430490049, -37.677542070564392 ], [ 144.858370630468471, -37.677471070570313 ], [ 144.858171530414438, -37.677288870584974 ], [ 144.857867630333175, -37.677021570607266 ] ] } },
{ "type": "Feature", "properties": { "gid": 165421, "osm_id": "27591186", "code": 5121.0, "fclass": "unclassified", "name": "Tarmac Drive", "pixel_count": 125, "Var_line": 63.182624816894531, "Edge_contrast": 42.422866821289062, "ROI": 8789.3333333333321, "Road_detected": -1, "ROI_norm": -0.23154017734133173, "Pred": 0 }, "geometry": { "type": "LineString", "coordinates": [ [ 144.871612934446802, -37.693169769573061 ], [ 144.871552034474973, -37.693529269574931 ], [ 144.871514234492423, -37.693752269576123 ], [ 144.871347234569697, -37.694738369581344 ], [ 144.871325234579899, -37.694868469582033 ] ] } },
{ "type": "Feature", "properties": { "gid": 183316, "osm_id": "352180076", "code": 5113.0, "fclass": "primary", "name": "Airport Drive", "pixel_count": 71, "Var_line": 0.0, "Edge_contrast": 14.383278846740723, "ROI": 966.99999999999989, "Road_detected": -1, "ROI_norm": -0.86722530959456834, "Pred": 0 }, "geometry": { "type": "LineString", "coordinates": [ [ 144.866015333393023, -37.692373369958375 ], [ 144.865994833380256, -37.692287469960299 ], [ 144.865874833307316, -37.691802069971502 ] ] } },
{ "type": "Feature", "properties": { "gid": 183317, "osm_id": "352180068", "code": 5113.0, "fclass": "primary", "name": "Airport Drive", "pixel_count": 76, "Var_line": 23.426448822021484, "Edge_contrast": 8.7208642959594727, "ROI": 2025.9999999999995, "Road_detected": -1, "ROI_norm": -0.78116523948895056, "Pred": 0 }, "geometry": { "type": "LineString", "coordinates": [ [ 144.866308633343607, -37.691442469944249 ], [ 144.866445933450223, -37.692212769930109 ], [ 144.866450833453712, -37.692236969929652 ], [ 144.866473633469042, -37.692343069927439 ] ] } },
{ "type": "Feature", "properties": { "gid": 183318, "osm_id": "354712282", "code": 5113.0, "fclass": "primary", "name": "Airport Drive", "pixel_count": 115, "Var_line": 67.493896484375, "Edge_contrast": 24.265787124633789, "ROI": 3419.1666666666661, "Road_detected": -1, "ROI_norm": -0.66794897791941032, "Pred": 0 }, "geometry": { "type": "LineString", "coordinates": [ [ 144.863505731863569, -37.682189970192169 ], [ 144.863537331875733, -37.682252070189627 ], [ 144.863619031900271, -37.682348670183494 ], [ 144.86376053194104, -37.682500770172943 ], [ 144.863988032004244, -37.682722670156139 ] ] } },
{ "type": "Feature", "properties": { "gid": 183319, "osm_id": "354712285", "code": 5113.0, "fclass": "primary", "name": "Airport Drive", "pixel_count": 462, "Var_line": 29.629274368286133, "Edge_contrast": 7.2003202438354492, "ROI": 22823.5, "Road_detected": -1, "ROI_norm": 0.90895214296769355, "Pred": 0 }, "geometry": { "type": "LineString", "coordinates": [ [ 144.865771933207782, -37.691042769983198 ], [ 144.865589533083948, -37.690184970000914 ], [ 144.865382232906228, -37.688866270023183 ], [ 144.865253732772572, -37.687830970038362 ], [ 144.865147832633909, -37.686712070052522 ], [ 144.865062732544857, -37.686020970062593 ], [ 144.864985932481858, -37.685558570070683 ], [ 144.864895632415738, -37.685089270079729 ], [ 144.864799632351009, -37.684641870089031 ], [ 144.864667732268003, -37.684082170101483 ], [ 144.864590832228117, -37.683835070108252 ], [ 144.864511432190852, -37.683616370114969 ], [ 144.864400132151331, -37.6834277701237 ], [ 144.864228732093125, -37.683162170137017 ], [ 144.863989932023316, -37.682896870154913 ], [ 144.863660631926251, -37.682523770179607 ], [ 144.863620531914449, -37.682478270182585 ], [ 144.863504631884524, -37.682386470191027 ], [ 144.863374831855339, -37.682323870200243 ] ] } },
{ "type": "Feature", "properties": { "gid": 183328, "osm_id": "245242782", "code": 5121.0, "fclass": "unclassified", "name": "Sky Road", "pixel_count": 75, "Var_line": 32.144638061523438, "Edge_contrast": 10.744711875915527, "ROI": 3998.0, "Road_detected": -1, "ROI_norm": -0.62090984926394743, "Pred": 0 }, "geometry": { "type": "LineString", "coordinates": [ [ 144.855792432233187, -37.698028670617639 ], [ 144.856331532315068, -37.697922570581724 ], [ 144.856675332366024, -37.697843270558856 ] ] } },
{ "type": "Feature", "properties": { "gid": 183329, "osm_id": "245242783", "code": 5121.0, "fclass": "unclassified", "name": "Sky Road", "pixel_count": 100, "Var_line": 27.959751129150391, "Edge_contrast": 25.911075592041016, "ROI": 6446.0, "Road_detected": -1, "ROI_norm": -0.42197212346739182, "Pred": 0 }, "geometry": { "type": "LineString", "coordinates": [ [ 144.856718832399253, -37.698082470554411 ], [ 144.856559232368369, -37.698052070565438 ], [ 144.856355432330361, -37.698026570579465 ], [ 144.855792432233187, -37.698028670617639 ] ] } },
{ "type": "Feature", "properties": { "gid": 183347, "osm_id": "292140428", "code": 5113.0, "fclass": "primary", "name": "Link Road", "pixel_count": 50, "Var_line": 13.698782920837402, "Edge_contrast": 14.528236389160156, "ROI": 811.33333333333326, "Road_detected": -1, "ROI_norm": -0.87987562521915863, "Pred": 0 }, "geometry": { "type": "LineString", "coordinates": [ [ 144.866015333393023, -37.692373369958375 ], [ 144.866473633469042, -37.692343069927439 ] ] } },
{ "type": "Feature", "properties": { "gid": 183356, "osm_id": "328938073", "code": 5122.0, "fclass": "residential", "name": null, "pixel_count": 548, "Var_line": 4.0815601348876953, "Edge_contrast": 3.6157238483428955, "ROI": 5788.6666666666661, "Road_detected": -1, "ROI_norm": -0.47539058687572622, "Pred": 0 }, "geometry": { "type": "LineString", "coordinates": [ [ 144.873753834730763, -37.692368169432477 ], [ 144.873564234710102, -37.692480869444665 ], [ 144.873445434694332, -37.692525169452473 ], [ 144.87330863467335, -37.692549969461652 ], [ 144.873190334653657, -37.692557069469643 ], [ 144.873056634629563, -37.692547869478773 ], [ 144.872937934607194, -37.692530869486951 ], [ 144.872839334586871, -37.692500669493825 ], [ 144.872707234558703, -37.69245096950312 ], [ 144.872569934529878, -37.692404069512747 ], [ 144.872486934513773, -37.692387469518529 ], [ 144.871659034362381, -37.692311069575233 ], [ 144.871237934285546, -37.692273969604102 ], [ 144.871023434245046, -37.692242169618851 ], [ 144.870765934194537, -37.692186969636708 ], [ 144.870492334140152, -37.692121169655714 ], [ 144.870170434070531, -37.691991669678409 ], [ 144.8696186339333, -37.691602669718307 ], [ 144.869336433863054, -37.691403669738726 ], [ 144.869193733827217, -37.691300169749084 ], [ 144.86900453378172, -37.69118116976265 ], [ 144.868853033745211, -37.691085869773588 ], [ 144.868702833707829, -37.69097966978444 ] ] } },
{ "type": "Feature", "properties": { "gid": 183368, "osm_id": "344268286", "code": 5121.0, "fclass": "unclassified", "name": "Mickleham Road Service Road", "pixel_count": 50, "Var_line": 85.490585327148438, "Edge_contrast": 31.348237991333008, "ROI": 3988.3333333333335, "Road_detected": -1, "ROI_norm": -0.62169541490230518, "Pred": 0 }, "geometry": { "type": "LineString", "coordinates": [ [ 144.882480235644692, -37.686842368873478 ], [ 144.882295535598502, -37.686709668886841 ] ] } },
{ "type": "Feature", "properties": { "gid": 190508, "osm_id": "127588609", "code": 5121.0, "fclass": "unclassified", "name": "Francis Briggs Road", "pixel_count": 124, "Var_line": 0.81382280588150024, "Edge_contrast": 9.5968008041381836, "ROI": 2823.0, "Road_detected": -1, "ROI_norm": -0.71639670702985958, "Pred": 0 }, "geometry": { "type": "LineString", "coordinates": [ [ 144.85743723044456, -37.678749570625776 ], [ 144.857379730440812, -37.678806970629317 ], [ 144.857343930439811, -37.678855070631435 ], [ 144.857306530440923, -37.678925970633529 ], [ 144.857280130449851, -37.679051470634583 ], [ 144.857265030485053, -37.679403270633372 ] ] } },
{ "type": "Feature", "properties": { "gid": 190510, "osm_id": "717186237", "code": 5113.0, "fclass": "primary", "name": "Airport Drive", "pixel_count": 82, "Var_line": 67.158317565917969, "Edge_contrast": 21.157684326171875, "ROI": 2785.0, "Road_detected": -1, "ROI_norm": -0.71948479264271459, "Pred": 0 }, "geometry": { "type": "LineString", "coordinates": [ [ 144.859012730605656, -37.677714970525187 ], [ 144.859308430686923, -37.677995670503357 ], [ 144.859324930691571, -37.678012070502135 ], [ 144.859419930718644, -37.67811137049506 ] ] } },
{ "type": "Feature", "properties": { "gid": 190514, "osm_id": "360225993", "code": 5121.0, "fclass": "unclassified", "name": "Mace Way", "pixel_count": 130, "Var_line": 0.0, "Edge_contrast": 0.0, "ROI": 2636.333333333333, "Road_detected": -1, "ROI_norm": -0.73156625039125256, "Pred": 0 }, "geometry": { "type": "LineString", "coordinates": [ [ 144.86377583231652, -37.685966970150346 ], [ 144.863624832213048, -37.68524767016509 ], [ 144.863518532137448, -37.684715670175606 ], [ 144.863499432127469, -37.684653570177289 ], [ 144.86346723211463, -37.684586270179906 ], [ 144.863342232076405, -37.684431570189389 ] ] } },
{ "type": "Feature", "properties": { "gid": 190552, "osm_id": "292140435", "code": 5113.0, "fclass": "primary", "name": "Airport Drive", "pixel_count": 50, "Var_line": 1.5260518789291382, "Edge_contrast": 26.459278106689453, "ROI": 756.33333333333326, "Road_detected": -1, "ROI_norm": -0.88434522281671202, "Pred": 0 }, "geometry": { "type": "LineString", "coordinates": [ [ 144.866045333411506, -37.692496469955579 ], [ 144.866015333393023, -37.692373369958375 ] ] } },
{ "type": "Feature", "properties": { "gid": 190559, "osm_id": "614140288", "code": 5115.0, "fclass": "tertiary", "name": "Arrival Drive", "pixel_count": 478, "Var_line": 116.84943389892578, "Edge_contrast": 20.621677398681641, "ROI": 39793.166666666672, "Road_detected": -1, "ROI_norm": 2.2879990768697707, "Pred": 0 }, "geometry": { "type": "LineString", "coordinates": [ [ 144.851057628685624, -37.672643571096899 ], [ 144.850737228609916, -37.672454371119805 ], [ 144.850550128566084, -37.672347071133181 ], [ 144.850472428547818, -37.672302571138729 ], [ 144.850388828528196, -37.672254371144703 ], [ 144.850311528510503, -37.672214271150196 ], [ 144.850205028487039, -37.672167171157732 ], [ 144.84993912842998, -37.672063471176422 ], [ 144.849695728377696, -37.671968571193503 ], [ 144.849524728341038, -37.671902371205555 ], [ 144.849448628324467, -37.671870271210913 ], [ 144.849385328309751, -37.67183517121542 ], [ 144.849324528294915, -37.671795071219798 ], [ 144.849276328281832, -37.671750971223361 ], [ 144.849240928270234, -37.671699771226066 ], [ 144.849219328261626, -37.671654671227849 ], [ 144.849199028249956, -37.671578471229672 ], [ 144.849164828224758, -37.671398971233096 ], [ 144.849137028198498, -37.671199371236241 ], [ 144.849134428193565, -37.67115727123668 ], [ 144.84914082819185, -37.671131171236404 ], [ 144.849161028192299, -37.671103071235201 ], [ 144.849220228196089, -37.67104287123157 ], [ 144.849769228228297, -37.670459271197899 ], [ 144.85020142825428, -37.670006471171384 ] ] } },
{ "type": "Feature", "properties": { "gid": 190680, "osm_id": "44873114", "code": 5121.0, "fclass": "unclassified", "name": "Centre Road", "pixel_count": 89, "Var_line": 72.65130615234375, "Edge_contrast": 38.372188568115234, "ROI": 2134.5, "Road_detected": -1, "ROI_norm": -0.77234794241014082, "Pred": 0 }, "geometry": { "type": "LineString", "coordinates": [ [ 144.852602629548699, -37.678190370957537 ], [ 144.852672429577183, -37.678343270951828 ], [ 144.852703829589075, -37.678402970949342 ], [ 144.852762829609986, -37.678502770944711 ] ] } },
{ "type": "Feature", "properties": { "gid": 192840, "osm_id": "59283057", "code": 5122.0, "fclass": "residential", "name": "Parkers Court", "pixel_count": 165, "Var_line": 79.2271728515625, "Edge_contrast": 23.260160446166992, "ROI": 15324.0, "Road_detected": -1, "ROI_norm": 0.29950219418858071, "Pred": 0 }, "geometry": { "type": "LineString", "coordinates": [ [ 144.883993534395898, -37.672815468857728 ], [ 144.88402223438726, -37.672689468856568 ], [ 144.884059734386909, -37.672625768854417 ], [ 144.884133634389059, -37.672527468849985 ], [ 144.88419513438788, -37.672417368846546 ], [ 144.884320234375792, -37.672104568839927 ], [ 144.884449234344174, -37.671603668834258 ] ] } },
{ "type": "Feature", "properties": { "gid": 194795, "osm_id": "292140434", "code": 5113.0, "fclass": "primary", "name": "Airport Drive", "pixel_count": 75, "Var_line": 17.747802734375, "Edge_contrast": 19.49432373046875, "ROI": 5071.333333333333, "Road_detected": -1, "ROI_norm": -0.53368497493593692, "Pred": 0 }, "geometry": { "type": "LineString", "coordinates": [ [ 144.86670713364461, -37.693599569903753 ], [ 144.866763233691842, -37.693948169897801 ], [ 144.867359434219253, -37.69789036983277 ], [ 144.867568134406866, -37.699298069809835 ], [ 144.867778734609857, -37.70084566978592 ], [ 144.867932134746809, -37.701871269769121 ], [ 144.86810243489839, -37.70300576975049 ], [ 144.868156234957411, -37.703467569743971 ], [ 144.868192835020551, -37.703995569738218 ], [ 144.868190335064241, -37.704405169735828 ], [ 144.86816143510336, -37.704814969735253 ], [ 144.868098035157374, -37.705418769735807 ] ] } },
{ "type": "Feature", "properties": { "gid": 196142, "osm_id": "580733188", "code": 5121.0, "fclass": "unclassified", "name": null, "pixel_count": 196, "Var_line": 65.821617126464844, "Edge_contrast": 7.8678045272827148, "ROI": 12192.333333333334, "Road_detected": -1, "ROI_norm": 0.04500601583092282, "Pred": 0 }, "geometry": { "type": "LineString", "coordinates": [ [ 144.850374928661694, -37.673519271137806 ], [ 144.850924528749431, -37.673451871100909 ], [ 144.851234428798875, -37.673413071080091 ], [ 144.851554528849221, -37.673367071058657 ], [ 144.851634628861831, -37.673355571053285 ], [ 144.851743328878825, -37.673338871046056 ], [ 144.851779828885384, -37.673341371043513 ], [ 144.851816828892538, -37.673348271040972 ], [ 144.851852628899707, -37.673357271038483 ], [ 144.851882428906066, -37.673368871036374 ], [ 144.851915728913951, -37.673388671033997 ], [ 144.851943128921135, -37.673411071032 ], [ 144.851961328926222, -37.673429171030655 ], [ 144.851992128935251, -37.673463871028332 ] ] } },
{ "type": "Feature", "properties": { "gid": 196197, "osm_id": "511908450", "code": 5121.0, "fclass": "unclassified", "name": "Terminal 4 Drop Off Ramp", "pixel_count": 153, "Var_line": 72.835762023925781, "Edge_contrast": 4.1768312454223633, "ROI": 15634.166666666666, "Road_detected": -1, "ROI_norm": 0.32470801579175262, "Pred": 0 }, "geometry": { "type": "LineString", "coordinates": [ [ 144.852307229202779, -37.675446770994625 ], [ 144.85226622919501, -37.675440470997451 ], [ 144.852200329182125, -37.675425871002012 ], [ 144.851989429142378, -37.675395771016554 ], [ 144.851656829081946, -37.675368171039267 ], [ 144.850700028909074, -37.675298371104645 ], [ 144.850187828815223, -37.675248971139744 ], [ 144.850145728807462, -37.675244871142603 ] ] } },
{ "type": "Feature", "properties": { "gid": 196221, "osm_id": "538864329", "code": 5121.0, "fclass": "unclassified", "name": null, "pixel_count": 153, "Var_line": 77.206977844238281, "Edge_contrast": 24.966409683227539, "ROI": 7253.0, "Road_detected": -1, "ROI_norm": -0.35639093689965473, "Pred": 0 }, "geometry": { "type": "LineString", "coordinates": [ [ 144.850592328910864, -37.675488371110788 ], [ 144.850411228879125, -37.675484371123105 ], [ 144.850348128868092, -37.675483371127406 ], [ 144.850270628854247, -37.675479171132686 ], [ 144.850190528839988, -37.675475071138145 ], [ 144.850151128833346, -37.675477071140783 ], [ 144.850109128826801, -37.675483371143599 ], [ 144.850073628821633, -37.675492671145967 ], [ 144.850050028818686, -37.675503071147496 ], [ 144.850034228817208, -37.675514571148526 ], [ 144.850022428816402, -37.675525971149241 ], [ 144.850013228816465, -37.675541571149793 ], [ 144.850006628817113, -37.675558171150087 ], [ 144.85000472881751, -37.675564571150197 ], [ 144.850001428818132, -37.675575871150357 ], [ 144.849998128823216, -37.675628671150278 ] ] } },
{ "type": "Feature", "properties": { "gid": 196235, "osm_id": "577263886", "code": 5113.0, "fclass": "primary", "name": "Airport Drive", "pixel_count": 40, "Var_line": 31.129526138305664, "Edge_contrast": 16.486337661743164, "ROI": 1387.5, "Road_detected": -1, "ROI_norm": -0.8330532043260015, "Pred": 0 }, "geometry": { "type": "LineString", "coordinates": [ [ 144.852238929213257, -37.675654070998 ], [ 144.852136329194934, -37.675648671004957 ] ] } },
{ "type": "Feature", "properties": { "gid": 196273, "osm_id": "787181736", "code": 5113.0, "fclass": "primary", "name": "Airport Drive", "pixel_count": 96, "Var_line": 104.54273223876953, "Edge_contrast": 33.108486175537109, "ROI": 6488.6666666666661, "Road_detected": -1, "ROI_norm": -0.41850479927050199, "Pred": 0 }, "geometry": { "type": "LineString", "coordinates": [ [ 144.852913429322996, -37.675590170952567 ], [ 144.853021829343021, -37.675602170945176 ], [ 144.853490529430474, -37.675662070912971 ], [ 144.853854229497728, -37.675702870887982 ] ] } },
{ "type": "Feature", "properties": { "gid": 196278, "osm_id": "784400687", "code": 5113.0, "fclass": "primary", "name": "Airport Drive", "pixel_count": 50, "Var_line": 0.0, "Edge_contrast": 3.6091558933258057, "ROI": 1603.333333333333, "Road_detected": -1, "ROI_norm": -0.81551341981439063, "Pred": 0 }, "geometry": { "type": "LineString", "coordinates": [ [ 144.865874833307316, -37.691802069971502 ], [ 144.865771933207782, -37.691042769983198 ] ] } },
{ "type": "Feature", "properties": { "gid": 196309, "osm_id": "74466884", "code": 5121.0, "fclass": "unclassified", "name": "Mickleham Road Service Road", "pixel_count": 215, "Var_line": 82.927017211914062, "Edge_contrast": 13.709277153015137, "ROI": 26878.166666666668, "Road_detected": -1, "ROI_norm": 1.2384562955533833, "Pred": 0 }, "geometry": { "type": "LineString", "coordinates": [ [ 144.882940335440452, -37.684207068858584 ], [ 144.882859835415701, -37.684106468864648 ], [ 144.88282223540233, -37.684042768867627 ], [ 144.88280613539132, -37.683966368869193 ], [ 144.882821435385353, -37.683886268868648 ], [ 144.882878935362868, -37.683585068866584 ], [ 144.883083535284129, -37.682525368859267 ], [ 144.883107135284746, -37.682493468857849 ], [ 144.883142535288073, -37.682467268855611 ], [ 144.883218935298061, -37.682437468850608 ], [ 144.883281935306456, -37.682414268846465 ], [ 144.883324035311659, -37.682394868843744 ] ] } },
{ "type": "Feature", "properties": { "gid": 196327, "osm_id": "127588611", "code": 5121.0, "fclass": "unclassified", "name": "Francis Briggs Road", "pixel_count": 133, "Var_line": 75.247665405273438, "Edge_contrast": 13.841884613037109, "ROI": 6708.5, "Road_detected": -1, "ROI_norm": -0.40063995311543271, "Pred": 0 }, "geometry": { "type": "LineString", "coordinates": [ [ 144.863186431824431, -37.682338870212945 ], [ 144.863036131803199, -37.682383270222886 ], [ 144.862882031782021, -37.682434470233027 ], [ 144.862798831771073, -37.682466170238492 ], [ 144.862731131763582, -37.682505170242841 ], [ 144.862589331749007, -37.682597770251903 ] ] } },
{ "type": "Feature", "properties": { "gid": 196338, "osm_id": "329067716", "code": 5121.0, "fclass": "unclassified", "name": "Francis Briggs Road", "pixel_count": 790, "Var_line": 33.649112701416016, "Edge_contrast": 7.5144705772399902, "ROI": 27895.166666666664, "Road_detected": -1, "ROI_norm": 1.3211032184026874, "Pred": 0 }, "geometry": { "type": "LineString", "coordinates": [ [ 144.857265030485053, -37.679403270633372 ], [ 144.857343730524377, -37.679642670626549 ], [ 144.857445630560477, -37.679814570618575 ], [ 144.857484030572266, -37.679861870615717 ], [ 144.858509130858494, -37.680876270539734 ], [ 144.858838430950726, -37.681204470515368 ], [ 144.859645031173784, -37.681981970455688 ], [ 144.859779131212946, -37.682130870445711 ], [ 144.859924231255377, -37.682291970434839 ], [ 144.860265731350097, -37.682623870409607 ], [ 144.860334031368012, -37.682680670404551 ], [ 144.860400231384631, -37.682728870399792 ], [ 144.860494031406432, -37.682780670393107 ], [ 144.860563031421975, -37.682814370388193 ], [ 144.860644431439482, -37.682846570382488 ], [ 144.860766531464975, -37.682887170373924 ], [ 144.860860331484076, -37.682913770367399 ], [ 144.860971831506077, -37.682939170359667 ], [ 144.861079731526956, -37.682959970352201 ], [ 144.861157631541346, -37.682968370346849 ], [ 144.861260231559356, -37.682971170339869 ], [ 144.861364631577544, -37.682972570332765 ], [ 144.86147093159525, -37.68296597032559 ], [ 144.86162123161921, -37.682947370315503 ], [ 144.861738031637003, -37.68292497030771 ], [ 144.861861931655113, -37.682894170299456 ], [ 144.861959231668465, -37.682861970293047 ], [ 144.862067131682323, -37.682817170286008 ], [ 144.862199931697774, -37.682747070277429 ], [ 144.862396331717548, -37.682615470264899 ], [ 144.862488331727121, -37.682556670259018 ], [ 144.862580331736694, -37.682497770253143 ], [ 144.862668831746277, -37.682444570247455 ], [ 144.862748431755392, -37.682401170242336 ], [ 144.862824531765511, -37.682373170237327 ], [ 144.862888231774406, -37.682353570233126 ], [ 144.86293603178072, -37.682335370229964 ], [ 144.862973231783542, -37.682301770227653 ], [ 144.862990931783315, -37.682270970226668 ], [ 144.863003331782409, -37.682242970226007 ], [ 144.863018431780716, -37.682202870225211 ] ] } },
{ "type": "Feature", "properties": { "gid": 204245, "osm_id": "497540738", "code": 5121.0, "fclass": "unclassified", "name": null, "pixel_count": 253, "Var_line": 15.029345512390137, "Edge_contrast": 0.30560162663459778, "ROI": 2097.3333333333326, "Road_detected": -1, "ROI_norm": -0.77536830684727542, "Pred": 0 }, "geometry": { "type": "LineString", "coordinates": [ [ 144.862710733365645, -37.697430970151494 ], [ 144.862713233359983, -37.697374170151662 ], [ 144.862740033358961, -37.697321570150187 ], [ 144.862788033362733, -37.69727937014715 ], [ 144.862851333370827, -37.697252670143058 ], [ 144.862900033378878, -37.697249170139742 ], [ 144.862942733385921, -37.697246070136885 ], [ 144.863011033399573, -37.697263270132126 ], [ 144.863067933413134, -37.697297970128041 ], [ 144.863106333424952, -37.697345970125134 ], [ 144.863119633431381, -37.69738427012399 ], [ 144.863117633437128, -37.697441070123787 ], [ 144.863091133438246, -37.697493870125243 ], [ 144.863043533434535, -37.697536270128204 ], [ 144.862959733423452, -37.697567770133737 ], [ 144.862888033411309, -37.697570170138569 ], [ 144.862819633397635, -37.697552970143342 ], [ 144.862762833384068, -37.697518370147392 ], [ 144.862724333372284, -37.697470470150314 ], [ 144.862710733365645, -37.697430970151494 ] ] } },
{ "type": "Feature", "properties": { "gid": 204315, "osm_id": "784400684", "code": 5113.0, "fclass": "primary", "name": "Airport Drive", "pixel_count": 50, "Var_line": 27.150905609130859, "Edge_contrast": 3.273794412612915, "ROI": 2757.333333333333, "Road_detected": -1, "ROI_norm": -0.72173313567663533, "Pred": 0 }, "geometry": { "type": "LineString", "coordinates": [ [ 144.866551833514023, -37.692635269920281 ], [ 144.86670713364461, -37.693599569903753 ] ] } },
{ "type": "Feature", "properties": { "gid": 211633, "osm_id": "74466033", "code": 5113.0, "fclass": "primary", "name": "Mickleham Road", "pixel_count": 232, "Var_line": 131.80421447753906, "Edge_contrast": 96.783424377441406, "ROI": 32028.0, "Road_detected": -1, "ROI_norm": 1.6569596172709604, "Pred": 0 }, "geometry": { "type": "LineString", "coordinates": [ [ 144.883567235334709, -37.682218768828264 ], [ 144.883541035334872, -37.682262468829791 ], [ 144.883494135337145, -37.682358968832375 ], [ 144.883455235341188, -37.682458768834401 ], [ 144.88341093534612, -37.68257556883669 ], [ 144.883378735353801, -37.682698668838114 ], [ 144.883345235367074, -37.682875868839304 ], [ 144.88326843540105, -37.683314468841786 ], [ 144.883104335470193, -37.684219768847328 ], [ 144.883077535482499, -37.684376968848163 ] ] } },
{ "type": "Feature", "properties": { "gid": 211635, "osm_id": "74466913", "code": 5122.0, "fclass": "residential", "name": "Mickleham Road Service Road", "pixel_count": 115, "Var_line": 107.32028961181641, "Edge_contrast": 2.394798755645752, "ROI": 8620.0, "Road_detected": -1, "ROI_norm": -0.24530112024773826, "Pred": 0 }, "geometry": { "type": "LineString", "coordinates": [ [ 144.883324035311659, -37.682394868843744 ], [ 144.883298535299332, -37.682321668845901 ], [ 144.883273935290646, -37.682280368847827 ], [ 144.883232335279899, -37.682247468850896 ], [ 144.883193435269192, -37.682210368853731 ], [ 144.883174735261946, -37.682173268855266 ], [ 144.883166635256686, -37.682137168856038 ], [ 144.883167935248537, -37.682059568856424 ] ] } },
{ "type": "Feature", "properties": { "gid": 211659, "osm_id": "74659229", "code": 5115.0, "fclass": "tertiary", "name": "Rylandes Drive", "pixel_count": 88, "Var_line": 43.273334503173828, "Edge_contrast": 11.067051887512207, "ROI": 5309.666666666667, "Road_detected": -1, "ROI_norm": -0.5143167186798725, "Pred": 0 }, "geometry": { "type": "LineString", "coordinates": [ [ 144.886629336165839, -37.685021068602566 ], [ 144.886719136185746, -37.685061468596203 ], [ 144.886788936201469, -37.685095568591237 ], [ 144.886852836214786, -37.68511656858675 ], [ 144.886923036228751, -37.685133468581874 ] ] } },
{ "type": "Feature", "properties": { "gid": 211710, "osm_id": "292140430", "code": 5113.0, "fclass": "primary", "name": "Airport Drive", "pixel_count": 50, "Var_line": 32.365322113037109, "Edge_contrast": 14.310081481933594, "ROI": 778.66666666666652, "Road_detected": -1, "ROI_norm": -0.88253029530740257, "Pred": 0 }, "geometry": { "type": "LineString", "coordinates": [ [ 144.866473633469042, -37.692343069927439 ], [ 144.86649703348553, -37.692458769925146 ] ] } },
{ "type": "Feature", "properties": { "gid": 234357, "osm_id": "784400694", "code": 5121.0, "fclass": "unclassified", "name": "Francis Briggs Road", "pixel_count": 649, "Var_line": 27.050004959106445, "Edge_contrast": 13.445212364196777, "ROI": 21204.5, "Road_detected": -1, "ROI_norm": 0.77738344277789662, "Pred": 0 }, "geometry": { "type": "LineString", "coordinates": [ [ 144.862589331749007, -37.682597770251903 ], [ 144.862373731726677, -37.682736770265677 ], [ 144.862175131705953, -37.682863370278376 ], [ 144.862022931687761, -37.682938970288255 ], [ 144.861917731674339, -37.682983070295137 ], [ 144.861753931651521, -37.683034170305945 ], [ 144.8616000316282, -37.683064970316202 ], [ 144.861446031603407, -37.683081770326567 ], [ 144.861366431590397, -37.683088770331921 ], [ 144.861262031572778, -37.683092970338997 ], [ 144.861106231545278, -37.683087370349604 ], [ 144.861001631525653, -37.683073370356787 ], [ 144.86085503149684, -37.683041170366984 ], [ 144.86072223146968, -37.68300197037621 ], [ 144.860610831446337, -37.682964170384054 ], [ 144.860508131424069, -37.682922170391265 ], [ 144.860403731400169, -37.682867570398699 ], [ 144.860297531374982, -37.682804470406289 ], [ 144.860193131349575, -37.682735870413815 ], [ 144.860097631323441, -37.682646270420868 ], [ 144.859396831127896, -37.681954470472753 ], [ 144.859069331035585, -37.681622770497071 ], [ 144.859004031017236, -37.681556670501905 ], [ 144.858839730970175, -37.681383470514142 ], [ 144.858679330925753, -37.681228370526 ], [ 144.857901530710933, -37.680480770583458 ], [ 144.857739830666247, -37.680325170595459 ], [ 144.857625830635016, -37.680217870603848 ] ] } },
{ "type": "Feature", "properties": { "gid": 234359, "osm_id": "753383877", "code": 5113.0, "fclass": "primary", "name": "Airport Drive", "pixel_count": 85, "Var_line": 15.772916793823242, "Edge_contrast": 27.287990570068359, "ROI": 1580.6666666666665, "Road_detected": -1, "ROI_norm": -0.81735543579398851, "Pred": 0 }, "geometry": { "type": "LineString", "coordinates": [ [ 144.866125433472121, -37.692931269947451 ], [ 144.866074633432362, -37.692643469952671 ], [ 144.866070633428478, -37.692613869953142 ], [ 144.866045333411506, -37.692496469955579 ] ] } },
{ "type": "Feature", "properties": { "gid": 234409, "osm_id": "44764257", "code": 5113.0, "fclass": "primary", "name": null, "pixel_count": 300, "Var_line": 62.630218505859375, "Edge_contrast": 22.749948501586914, "ROI": 9634.3333333333303, "Road_detected": -1, "ROI_norm": -0.16287090516073977, "Pred": 0 }, "geometry": { "type": "LineString", "coordinates": [ [ 144.86334473185147, -37.682336070202226 ], [ 144.86328243184181, -37.682346870206366 ], [ 144.863233931833435, -37.68234657020966 ], [ 144.863186431824431, -37.682338870212945 ], [ 144.863112031808356, -37.682309470218179 ], [ 144.863053931793246, -37.682262370222418 ], [ 144.863018431780716, -37.682202870225211 ], [ 144.863009131772799, -37.682144270226203 ], [ 144.863021931768742, -37.6820859702257 ], [ 144.863057331769028, -37.682031870223625 ], [ 144.863111731773841, -37.681988770220201 ], [ 144.863180031782662, -37.681960670215723 ], [ 144.863255931794612, -37.681950370210636 ], [ 144.863332231808698, -37.681958670205447 ], [ 144.863401731823558, -37.681984970200531 ], [ 144.863457931837729, -37.682026670196493 ], [ 144.863495431849941, -37.682079870193583 ], [ 144.86351083185906, -37.682139570192163 ], [ 144.863505731863569, -37.682189970192169 ], [ 144.863484731865043, -37.682237670193324 ], [ 144.863449231863456, -37.682279570195448 ], [ 144.863401531858813, -37.682313070198482 ], [ 144.863374831855339, -37.682323870200243 ], [ 144.86334473185147, -37.682336070202226 ] ] } },
{ "type": "Feature", "properties": { "gid": 234448, "osm_id": "70645450", "code": 5121.0, "fclass": "unclassified", "name": "Gowrie Park Drive", "pixel_count": 282, "Var_line": 67.612823486328125, "Edge_contrast": 24.981246948242188, "ROI": 26176.833333333332, "Road_detected": -1, "ROI_norm": 1.1814621540670061, "Pred": 0 }, "geometry": { "type": "LineString", "coordinates": [ [ 144.852637928880313, -37.671913770994138 ], [ 144.853189329002788, -37.672166970955118 ], [ 144.853391229047787, -37.672260970940847 ], [ 144.85355442908417, -37.672336970929301 ], [ 144.853753229128472, -37.672429470915233 ], [ 144.854588629315231, -37.672823870856035 ], [ 144.854821029367287, -37.672934570839537 ], [ 144.855060429420917, -37.673048670822602 ], [ 144.855153129441732, -37.673093070816023 ], [ 144.855395929496467, -37.673212070798826 ], [ 144.855576529536933, -37.673298270786006 ], [ 144.855617229546084, -37.673317670783121 ] ] } },
{ "type": "Feature", "properties": { "gid": 255640, "osm_id": "357024860", "code": 5115.0, "fclass": "tertiary", "name": "Link Road", "pixel_count": 139, "Var_line": 18.071657180786133, "Edge_contrast": 12.89312744140625, "ROI": 10208.166666666664, "Road_detected": -1, "ROI_norm": -0.11623810355959993, "Pred": 0 }, "geometry": { "type": "LineString", "coordinates": [ [ 144.865528533325772, -37.692530469990487 ], [ 144.862702332862938, -37.692771570180966 ], [ 144.856766131897416, -37.693340370580657 ], [ 144.85638753183602, -37.693378470606156 ], [ 144.856282931821823, -37.693414570613015 ], [ 144.856204231812228, -37.693452270618131 ] ] } },
{ "type": "Feature", "properties": { "gid": 255645, "osm_id": "292140433", "code": 5113.0, "fclass": "primary", "name": "Link Road", "pixel_count": 50, "Var_line": 18.836572647094727, "Edge_contrast": 1.9769788980484009, "ROI": 1333.833333333333, "Road_detected": -1, "ROI_norm": -0.83741444804240195, "Pred": 0 }, "geometry": { "type": "LineString", "coordinates": [ [ 144.86649703348553, -37.692458769925146 ], [ 144.866045333411506, -37.692496469955579 ] ] } },
{ "type": "Feature", "properties": { "gid": 261817, "osm_id": "784400685", "code": 5113.0, "fclass": "primary", "name": "Airport Drive", "pixel_count": 63, "Var_line": 37.877887725830078, "Edge_contrast": 23.359851837158203, "ROI": 2188.0, "Road_detected": -1, "ROI_norm": -0.76800024292888436, "Pred": 0 }, "geometry": { "type": "LineString", "coordinates": [ [ 144.86649703348553, -37.692458769925146 ], [ 144.866524733500313, -37.692551369922668 ], [ 144.866551833514023, -37.692635269920281 ] ] } },
{ "type": "Feature", "properties": { "gid": 261818, "osm_id": "784400688", "code": 5115.0, "fclass": "tertiary", "name": "Link Road", "pixel_count": 50, "Var_line": 0.0, "Edge_contrast": 0.0, "ROI": 0.0, "Road_detected": -1, "ROI_norm": -0.94580896190064245, "Pred": 0 }, "geometry": { "type": "LineString", "coordinates": [ [ 144.865780933368086, -37.692518469973407 ], [ 144.865528533325772, -37.692530469990487 ] ] } },
{ "type": "Feature", "properties": { "gid": 261819, "osm_id": "784400691", "code": 5113.0, "fclass": "primary", "name": "Airport Drive", "pixel_count": 75, "Var_line": 9.0516538619995117, "Edge_contrast": 6.2802863121032715, "ROI": 1767.333333333333, "Road_detected": -1, "ROI_norm": -0.8021858924325953, "Pred": 0 }, "geometry": { "type": "LineString", "coordinates": [ [ 144.866103533168427, -37.69014426996624 ], [ 144.866246833289068, -37.691035069950971 ], [ 144.866308633343607, -37.691442469944249 ] ] } },
{ "type": "Feature", "properties": { "gid": 261820, "osm_id": "784400692", "code": 5113.0, "fclass": "primary", "name": "Airport Drive", "pixel_count": 434, "Var_line": 36.53790283203125, "Edge_contrast": 5.8943839073181152, "ROI": 21633.5, "Road_detected": -1, "ROI_norm": 0.81224630403881226, "Pred": 0 }, "geometry": { "type": "LineString", "coordinates": [ [ 144.863988032004244, -37.682722670156139 ], [ 144.864241532076221, -37.682984270137268 ], [ 144.86436903211802, -37.683168170127445 ], [ 144.864489032157991, -37.683346670118205 ], [ 144.864618332207982, -37.683603770107808 ], [ 144.864737732259243, -37.68388857009792 ], [ 144.864913432349056, -37.684441070082549 ], [ 144.865016532394236, -37.684694870073969 ], [ 144.865188032469348, -37.685117770059691 ], [ 144.865368732550508, -37.685582070044518 ], [ 144.86545893260228, -37.685917970036307 ], [ 144.865548132654283, -37.686258170028132 ], [ 144.865627132716099, -37.686705670019983 ], [ 144.865683932778779, -37.687196870013068 ], [ 144.865745132857143, -37.687826870005019 ], [ 144.865878132976889, -37.688726469990378 ], [ 144.866096633162613, -37.690101169966979 ], [ 144.866103533168427, -37.69014426996624 ] ] } },
{ "type": "Feature", "properties": { "gid": 261889, "osm_id": "44097145", "code": 5122.0, "fclass": "residential", "name": "Haddon Hall Drive", "pixel_count": 394, "Var_line": 64.236907958984375, "Edge_contrast": 22.737539291381836, "ROI": 13933.833333333332, "Road_detected": -1, "ROI_norm": 0.1865297288516341, "Pred": 0 }, "geometry": { "type": "LineString", "coordinates": [ [ 144.885337034311505, -37.669875368784624 ], [ 144.885075734264746, -37.669860668802507 ], [ 144.884798834215474, -37.669846568821427 ], [ 144.884668034194334, -37.669860668830232 ], [ 144.884555434180811, -37.669915868837563 ], [ 144.884464234173322, -37.669992368843282 ], [ 144.884399834176776, -37.670128168846766 ], [ 144.884356934209677, -37.670501868847403 ], [ 144.884303334226388, -37.670743868849542 ], [ 144.884233534228969, -37.670879768853503 ], [ 144.88407263421945, -37.671049668863333 ], [ 144.883858034195157, -37.671168468877205 ], [ 144.883681034172383, -37.671240668888792 ], [ 144.883471834140323, -37.671278868902775 ], [ 144.882677834010451, -37.671346868956341 ], [ 144.882474933982706, -37.671415268969739 ] ] } },
{ "type": "Feature", "properties": { "gid": 261936, "osm_id": "74466941", "code": 5122.0, "fclass": "residential", "name": "Mickleham Road Service Road", "pixel_count": 105, "Var_line": 91.638008117675781, "Edge_contrast": 19.644060134887695, "ROI": 19069.333333333332, "Road_detected": -1, "ROI_norm": 0.60386824634681846, "Pred": 0 }, "geometry": { "type": "LineString", "coordinates": [ [ 144.883546735184922, -37.680860668838122 ], [ 144.883426835167796, -37.680893868846077 ], [ 144.883403235164536, -37.680901768847583 ], [ 144.883387135162963, -37.680912968848624 ], [ 144.883377635163015, -37.680928668849177 ], [ 144.883370935163924, -37.680947968849502 ], [ 144.883173835244747, -37.682014868856299 ], [ 144.883167935248537, -37.682059568856424 ] ] } },
{ "type": "Feature", "properties": { "gid": 17, "osm_id": null, "code": null, "fclass": "residential", "name": null, "pixel_count": 80, "Var_line": 0.0, "Edge_contrast": 0.0, "ROI": 196.83333333333331, "Road_detected": -1, "ROI_norm": -0.92981322019545909, "Pred": 0 }, "geometry": { "type": "LineString", "coordinates": [ [ 144.860536954714064, -37.683124621189123 ], [ 144.860461310829919, -37.683140267719757 ], [ 144.860396537665252, -37.683118735943651 ], [ 144.860364331932942, -37.683009986457961 ] ] } },
{ "type": "Feature", "properties": { "gid": 44, "osm_id": null, "code": null, "fclass": "residential", "name": null, "pixel_count": 100, "Var_line": 86.459648132324219, "Edge_contrast": 17.343776702880859, "ROI": 8921.3333333333321, "Road_detected": -1, "ROI_norm": -0.22081314310720374, "Pred": 0 }, "geometry": { "type": "LineString", "coordinates": [ [ 144.853414080323915, -37.672313559003435 ], [ 144.853337860799769, -37.672631020314675 ], [ 144.853097480583273, -37.673128513970283 ], [ 144.852980234041212, -37.673251386728836 ] ] } },
{ "type": "Feature", "properties": { "gid": 50, "osm_id": null, "code": null, "fclass": "residential", "name": null, "pixel_count": 75, "Var_line": 26.916536331176758, "Edge_contrast": 23.048238754272461, "ROI": 3472.0, "Road_detected": -1, "ROI_norm": -0.66365545537873016, "Pred": 0 }, "geometry": { "type": "LineString", "coordinates": [ [ 144.862469555128456, -37.681684991605863 ], [ 144.862291508321675, -37.681583227151627 ], [ 144.862124394213708, -37.681409953952674 ] ] } },
{ "type": "Feature", "properties": { "gid": 120, "osm_id": null, "code": null, "fclass": "residential", "name": null, "pixel_count": 94, "Var_line": 34.24163818359375, "Edge_contrast": 10.201128959655762, "ROI": 6766.1666666666661, "Road_detected": -1, "ROI_norm": -0.39595364775557385, "Pred": 0 }, "geometry": { "type": "LineString", "coordinates": [ [ 144.850567156816595, -37.670067131322519 ], [ 144.850632178593656, -37.669955639080513 ], [ 144.850707887524635, -37.669901377228051 ], [ 144.85108610965753, -37.669793135595718 ] ] } },
{ "type": "Feature", "properties": { "gid": 166, "osm_id": null, "code": null, "fclass": "residential", "name": null, "pixel_count": 75, "Var_line": 115.02600860595703, "Edge_contrast": 6.8579549789428711, "ROI": 6465.8333333333321, "Road_detected": -1, "ROI_norm": -0.42036035948524386, "Pred": 0 }, "geometry": { "type": "LineString", "coordinates": [ [ 144.848982890657254, -37.670179578345525 ], [ 144.848954312630951, -37.670067968955976 ], [ 144.849012285035286, -37.669882086460078 ] ] } },
{ "type": "Feature", "properties": { "gid": 167, "osm_id": null, "code": null, "fclass": "residential", "name": null, "pixel_count": 109, "Var_line": 34.593254089355469, "Edge_contrast": 20.237796783447266, "ROI": 4848.8333333333321, "Road_detected": -1, "ROI_norm": -0.5517665288533119, "Pred": 0 }, "geometry": { "type": "LineString", "coordinates": [ [ 144.849238130293514, -37.672171054311292 ], [ 144.849378537547608, -37.672171230969518 ], [ 144.849421688544339, -37.672197032904783 ], [ 144.849434050120465, -37.672317204265362 ], [ 144.849352835047654, -37.672422953690884 ] ] } },
{ "type": "Feature", "properties": { "gid": 175, "osm_id": null, "code": null, "fclass": "residential", "name": null, "pixel_count": 75, "Var_line": 0.0, "Edge_contrast": 0.0, "ROI": 0.0, "Road_detected": -1, "ROI_norm": -0.94580896190064245, "Pred": 0 }, "geometry": { "type": "LineString", "coordinates": [ [ 144.86873374415228, -37.690526284928396 ], [ 144.868704742032236, -37.690637825603723 ], [ 144.868762036501266, -37.690823842467026 ] ] } },
{ "type": "Feature", "properties": { "gid": 195, "osm_id": null, "code": null, "fclass": "residential", "name": null, "pixel_count": 50, "Var_line": 14.541192054748535, "Edge_contrast": 18.377164840698242, "ROI": 1248.6666666666667, "Road_detected": -1, "ROI_norm": -0.84433555220103773, "Pred": 0 }, "geometry": { "type": "LineString", "coordinates": [ [ 144.875338133202263, -37.668653605812274 ], [ 144.875050131596964, -37.668653305684799 ] ] } },
{ "type": "Feature", "properties": { "gid": 263, "osm_id": null, "code": null, "fclass": "residential", "name": null, "pixel_count": 50, "Var_line": 77.905006408691406, "Edge_contrast": 17.519054412841797, "ROI": 8321.5, "Road_detected": -1, "ROI_norm": -0.26955884539082314, "Pred": 0 }, "geometry": { "type": "LineString", "coordinates": [ [ 144.851604475289207, -37.669816665843193 ], [ 144.851287668767867, -37.669816272884134 ] ] } },
{ "type": "Feature", "properties": { "gid": 273, "osm_id": null, "code": null, "fclass": "residential", "name": null, "pixel_count": 73, "Var_line": 13.770926475524902, "Edge_contrast": 7.6921453475952148, "ROI": 2137.1666666666665, "Road_detected": -1, "ROI_norm": -0.77213123464783529, "Pred": 0 }, "geometry": { "type": "LineString", "coordinates": [ [ 144.872908667784856, -37.69190398578943 ], [ 144.872811596095886, -37.691809475359058 ], [ 144.872793816578138, -37.691674997434042 ] ] } },
{ "type": "Feature", "properties": { "gid": 338, "osm_id": null, "code": null, "fclass": "residential", "name": null, "pixel_count": 73, "Var_line": 124.45687103271484, "Edge_contrast": 24.975189208984375, "ROI": 4858.5, "Road_detected": -1, "ROI_norm": -0.55098096321495393, "Pred": 0 }, "geometry": { "type": "LineString", "coordinates": [ [ 144.85107935368103, -37.673226151483576 ], [ 144.851198313374226, -37.673149056338787 ], [ 144.851367552405549, -37.673134962220658 ] ] } },
{ "type": "Feature", "properties": { "gid": 362, "osm_id": null, "code": null, "fclass": "residential", "name": null, "pixel_count": 75, "Var_line": 43.560222625732422, "Edge_contrast": 33.1658935546875, "ROI": 3297.8333333333335, "Road_detected": -1, "ROI_norm": -0.67780918110431576, "Pred": 0 }, "geometry": { "type": "LineString", "coordinates": [ [ 144.849926914962367, -37.673407807528342 ], [ 144.85011071162495, -37.673315060006146 ], [ 144.850330414002485, -37.673270991553359 ] ] } },
{ "type": "Feature", "properties": { "gid": 368, "osm_id": null, "code": null, "fclass": "residential", "name": null, "pixel_count": 50, "Var_line": 43.546321868896484, "Edge_contrast": 41.700668334960938, "ROI": 3997.5, "Road_detected": -1, "ROI_norm": -0.62095048196937974, "Pred": 0 }, "geometry": { "type": "LineString", "coordinates": [ [ 144.850560829260388, -37.673271279266082 ], [ 144.850877740448766, -37.673225900632033 ] ] } },
{ "type": "Feature", "properties": { "gid": 474, "osm_id": null, "code": null, "fclass": "residential", "name": null, "pixel_count": 50, "Var_line": 106.2471923828125, "Edge_contrast": 25.312263488769531, "ROI": 4697.6666666666661, "Road_detected": -1, "ROI_norm": -0.56405115012901141, "Pred": 0 }, "geometry": { "type": "LineString", "coordinates": [ [ 144.851248970692552, -37.674851325549056 ], [ 144.851248430791969, -37.675125966463099 ] ] } },
{ "type": "Feature", "properties": { "gid": 540, "osm_id": null, "code": null, "fclass": "residential", "name": null, "pixel_count": 50, "Var_line": 22.605997085571289, "Edge_contrast": 17.088264465332031, "ROI": 4218.333333333333, "Road_detected": -1, "ROI_norm": -0.6030043704034459, "Pred": 0 }, "geometry": { "type": "LineString", "coordinates": [ [ 144.863363753655619, -37.680999412750097 ], [ 144.862815880465746, -37.681319200922033 ] ] } },
{ "type": "Feature", "properties": { "gid": 622, "osm_id": null, "code": null, "fclass": "motorway", "name": null, "pixel_count": 125, "Var_line": 44.356723785400391, "Edge_contrast": 12.604894638061523, "ROI": 15777.0, "Road_detected": -1, "ROI_norm": 0.33631542531024727, "Pred": 0 }, "geometry": { "type": "LineString", "coordinates": [ [ 144.861672426492845, -37.676534552843464 ], [ 144.861481246846068, -37.676730299961989 ], [ 144.860269989743102, -37.677552817016966 ], [ 144.859707633776509, -37.677922639287722 ], [ 144.859509470354595, -37.677996789024903 ] ] } },
{ "type": "Feature", "properties": { "gid": 714, "osm_id": null, "code": null, "fclass": "trunk", "name": null, "pixel_count": 92, "Var_line": 81.458877563476562, "Edge_contrast": 33.504997253417969, "ROI": 8567.5, "Road_detected": -1, "ROI_norm": -0.24956755431813007, "Pred": 0 }, "geometry": { "type": "LineString", "coordinates": [ [ 144.871981130727903, -37.678216748853991 ], [ 144.871894661207051, -37.678250986550225 ], [ 144.871813335451492, -37.678436854490428 ], [ 144.871778224262783, -37.678971794915256 ] ] } },
{ "type": "Feature", "properties": { "gid": 779, "osm_id": null, "code": null, "fclass": "trunk", "name": null, "pixel_count": 50, "Var_line": 111.69960784912109, "Edge_contrast": 38.087955474853516, "ROI": 5995.3333333333339, "Road_detected": -1, "ROI_norm": -0.4585957352970409, "Pred": 0 }, "geometry": { "type": "LineString", "coordinates": [ [ 144.883985860182094, -37.682440138324814 ], [ 144.884130202689022, -37.682234297515144 ] ] } },
{ "type": "Feature", "properties": { "gid": 792, "osm_id": null, "code": null, "fclass": "trunk", "name": null, "pixel_count": 96, "Var_line": 120.97575378417969, "Edge_contrast": 30.056264877319336, "ROI": 9173.5, "Road_detected": -1, "ROI_norm": -0.20032071533417881, "Pred": 0 }, "geometry": { "type": "LineString", "coordinates": [ [ 144.885606229959876, -37.677635480502808 ], [ 144.885703545768479, -37.677566913110056 ], [ 144.886092643583453, -37.677401354717887 ], [ 144.88621162148246, -37.677292755662997 ] ] } },
{ "type": "Feature", "properties": { "gid": 801, "osm_id": null, "code": null, "fclass": "trunk", "name": null, "pixel_count": 69, "Var_line": 103.42958068847656, "Edge_contrast": 41.444770812988281, "ROI": 1853.6666666666667, "Road_detected": -1, "ROI_norm": -0.79516997862795102, "Pred": 0 }, "geometry": { "type": "LineString", "coordinates": [ [ 144.879778306517125, -37.68367187221579 ], [ 144.879724418286543, -37.683594575458542 ], [ 144.879720985831568, -37.683488720953385 ] ] } },
{ "type": "Feature", "properties": { "gid": 880, "osm_id": null, "code": null, "fclass": "trunk", "name": null, "pixel_count": 34, "Var_line": 117.68400573730469, "Edge_contrast": 18.527482986450195, "ROI": 5703.333333333333, "Road_detected": -1, "ROI_norm": -0.48232523526950594, "Pred": 0 }, "geometry": { "type": "LineString", "coordinates": [ [ 144.849067786447876, -37.670934951001144 ], [ 144.849096633105489, -37.670912100516261 ] ] } },
{ "type": "Feature", "properties": { "gid": 972, "osm_id": null, "code": null, "fclass": "trunk", "name": null, "pixel_count": 71, "Var_line": 150.24369812011719, "Edge_contrast": 99.200080871582031, "ROI": 8578.0, "Road_detected": -1, "ROI_norm": -0.24871426750405171, "Pred": 0 }, "geometry": { "type": "LineString", "coordinates": [ [ 144.881246831622633, -37.684039524452992 ], [ 144.881365692340864, -37.68401675551678 ], [ 144.881563697840676, -37.684039838161546 ] ] } },
{ "type": "Feature", "properties": { "gid": 1090, "osm_id": null, "code": null, "fclass": "trunk", "name": null, "pixel_count": 75, "Var_line": 153.26307678222656, "Edge_contrast": 52.405021667480469, "ROI": 2666.333333333333, "Road_detected": -1, "ROI_norm": -0.72912828806531438, "Pred": 0 }, "geometry": { "type": "LineString", "coordinates": [ [ 144.875010742513552, -37.692501250020975 ], [ 144.875151102571152, -37.692552891313341 ], [ 144.875327342407189, -37.692684673016011 ] ] } },
{ "type": "Feature", "properties": { "gid": 1091, "osm_id": null, "code": null, "fclass": "trunk", "name": null, "pixel_count": 30, "Var_line": 120.91073608398438, "Edge_contrast": 24.340694427490234, "ROI": 3317.166666666667, "Road_detected": -1, "ROI_norm": -0.67623804982760005, "Pred": 0 }, "geometry": { "type": "LineString", "coordinates": [ [ 144.8491254341142, -37.670912136801377 ], [ 144.849125479745652, -37.670889250024274 ] ] } },
{ "type": "Feature", "properties": { "gid": 1092, "osm_id": null, "code": null, "fclass": "trunk", "name": null, "pixel_count": 30, "Var_line": 115.99472808837891, "Edge_contrast": 20.806344985961914, "ROI": 3375.8333333333335, "Road_detected": -1, "ROI_norm": -0.6714704790568764, "Pred": 0 }, "geometry": { "type": "LineString", "coordinates": [ [ 144.8491254341142, -37.670912136801377 ], [ 144.849096633105489, -37.670912100516261 ] ] } },
{ "type": "Feature", "properties": { "gid": 1102, "osm_id": null, "code": null, "fclass": "trunk", "name": null, "pixel_count": 34, "Var_line": 29.37824821472168, "Edge_contrast": 29.969747543334961, "ROI": 2261.6666666666665, "Road_detected": -1, "ROI_norm": -0.76201369099519178, "Pred": 0 }, "geometry": { "type": "LineString", "coordinates": [ [ 144.865256070358498, -37.685945088010818 ], [ 144.865227222850052, -37.685967942258181 ] ] } },
{ "type": "Feature", "properties": { "gid": 1103, "osm_id": null, "code": null, "fclass": "trunk", "name": null, "pixel_count": 30, "Var_line": 23.883399963378906, "Edge_contrast": 41.82281494140625, "ROI": 755.66666666666652, "Road_detected": -1, "ROI_norm": -0.88439939975728854, "Pred": 0 }, "geometry": { "type": "LineString", "coordinates": [ [ 144.865256070358498, -37.685945088010818 ], [ 144.86525602959756, -37.685967974664095 ] ] } },
{ "type": "Feature", "properties": { "gid": 1132, "osm_id": null, "code": null, "fclass": "trunk", "name": null, "pixel_count": 73, "Var_line": 50.916168212890625, "Edge_contrast": 39.943382263183594, "ROI": 1419.0, "Road_detected": -1, "ROI_norm": -0.83049334388376639, "Pred": 0 }, "geometry": { "type": "LineString", "coordinates": [ [ 144.869722021593248, -37.685423634054366 ], [ 144.869992299230205, -37.685298050824066 ], [ 144.870096860309388, -37.685218060795222 ] ] } },
{ "type": "Feature", "properties": { "gid": 1163, "osm_id": null, "code": null, "fclass": "trunk", "name": null, "pixel_count": 34, "Var_line": 120.92462158203125, "Edge_contrast": 22.34654426574707, "ROI": 4533.9999999999991, "Road_detected": -1, "ROI_norm": -0.57735158904051864, "Pred": 0 }, "geometry": { "type": "LineString", "coordinates": [ [ 144.849096633105489, -37.670912100516261 ], [ 144.849125479745652, -37.670889250024274 ] ] } },
{ "type": "Feature", "properties": { "gid": 1223, "osm_id": null, "code": null, "fclass": "trunk", "name": null, "pixel_count": 50, "Var_line": 138.42266845703125, "Edge_contrast": 66.248779296875, "ROI": 3976.3333333333339, "Road_detected": -1, "ROI_norm": -0.62267059983268047, "Pred": 0 }, "geometry": { "type": "LineString", "coordinates": [ [ 144.880935079822194, -37.680789300075226 ], [ 144.881223307286206, -37.680675152531705 ] ] } },
{ "type": "Feature", "properties": { "gid": 1252, "osm_id": null, "code": null, "fclass": "trunk", "name": null, "pixel_count": 75, "Var_line": 107.12297058105469, "Edge_contrast": 32.6612548828125, "ROI": 5576.3333333333339, "Road_detected": -1, "ROI_norm": -0.49264594244931081, "Pred": 0 }, "geometry": { "type": "LineString", "coordinates": [ [ 144.883947541315678, -37.688642396043214 ], [ 144.884105920523012, -37.688684031457434 ], [ 144.884523067978051, -37.689054912226531 ] ] } },
{ "type": "Feature", "properties": { "gid": 1344, "osm_id": null, "code": null, "fclass": "trunk", "name": null, "pixel_count": 30, "Var_line": 32.689888000488281, "Edge_contrast": 39.953071594238281, "ROI": 863.5, "Road_detected": -1, "ROI_norm": -0.8756362796190551, "Pred": 0 }, "geometry": { "type": "LineString", "coordinates": [ [ 144.86525602959756, -37.685967974664095 ], [ 144.865227222850052, -37.685967942258181 ] ] } },
{ "type": "Feature", "properties": { "gid": 1372, "osm_id": null, "code": null, "fclass": "trunk", "name": null, "pixel_count": 75, "Var_line": 0.0, "Edge_contrast": 13.565518379211426, "ROI": 2664.0000000000005, "Road_detected": -1, "ROI_norm": -0.72931790735733193, "Pred": 0 }, "geometry": { "type": "LineString", "coordinates": [ [ 144.867357959228855, -37.686519601218286 ], [ 144.867095583216781, -37.686241809236037 ], [ 144.866811513418043, -37.686015487601111 ] ] } },
{ "type": "Feature", "properties": { "gid": 1433, "osm_id": null, "code": null, "fclass": "primary", "name": null, "pixel_count": 30, "Var_line": 100.91719818115234, "Edge_contrast": 37.227848052978516, "ROI": 4503.5, "Road_detected": -1, "ROI_norm": -0.57983018407188902, "Pred": 0 }, "geometry": { "type": "LineString", "coordinates": [ [ 144.874538445311714, -37.681972881255248 ], [ 144.874567250542015, -37.681972911422065 ] ] } },
{ "type": "Feature", "properties": { "gid": 1477, "osm_id": null, "code": null, "fclass": "primary", "name": null, "pixel_count": 292, "Var_line": 61.001529693603516, "Edge_contrast": 13.608706474304199, "ROI": 35978.333333333336, "Road_detected": -1, "ROI_norm": 1.9779850786564426, "Pred": 0 }, "geometry": { "type": "LineString", "coordinates": [ [ 144.870852196412756, -37.681488342188992 ], [ 144.870064569694961, -37.680956804156168 ], [ 144.868467494980735, -37.680038160846401 ], [ 144.867927712893163, -37.67986448584778 ], [ 144.867322865124777, -37.67983806981519 ], [ 144.866739351515918, -37.679964729612152 ], [ 144.86637180410014, -37.680128818655739 ], [ 144.864230437277001, -37.681592592626693 ], [ 144.86405746800628, -37.681669639187199 ], [ 144.863664521540528, -37.681933820471549 ], [ 144.863622967086997, -37.682015307158707 ], [ 144.863620934708962, -37.682144042719216 ] ] } },
{ "type": "Feature", "properties": { "gid": 1480, "osm_id": null, "code": null, "fclass": "primary", "name": null, "pixel_count": 34, "Var_line": 52.951271057128906, "Edge_contrast": 23.028352737426758, "ROI": 2727.6666666666665, "Road_detected": -1, "ROI_norm": -0.7241440095322853, "Pred": 0 }, "geometry": { "type": "LineString", "coordinates": [ [ 144.869967041006475, -37.693708873456416 ], [ 144.869938270657826, -37.693685955595875 ] ] } },
{ "type": "Feature", "properties": { "gid": 1481, "osm_id": null, "code": null, "fclass": "primary", "name": null, "pixel_count": 30, "Var_line": 63.060787200927734, "Edge_contrast": 26.340169906616211, "ROI": 4409.3333333333339, "Road_detected": -1, "ROI_norm": -0.58748267692830614, "Pred": 0 }, "geometry": { "type": "LineString", "coordinates": [ [ 144.869967041006475, -37.693708873456416 ], [ 144.869938231309305, -37.69370884218349 ] ] } },
{ "type": "Feature", "properties": { "gid": 1482, "osm_id": null, "code": null, "fclass": "primary", "name": null, "pixel_count": 45, "Var_line": 74.867012023925781, "Edge_contrast": 40.619094848632812, "ROI": 5311.833333333333, "Road_detected": -1, "ROI_norm": -0.51414064362299916, "Pred": 0 }, "geometry": { "type": "LineString", "coordinates": [ [ 144.869967041006475, -37.693708873456416 ], [ 144.870082279795383, -37.693708998478726 ] ] } },
{ "type": "Feature", "properties": { "gid": 1490, "osm_id": null, "code": null, "fclass": "primary", "name": null, "pixel_count": 111, "Var_line": 111.33658599853516, "Edge_contrast": 15.587826728820801, "ROI": 8942.8333333333339, "Road_detected": -1, "ROI_norm": -0.21906593677361455, "Pred": 0 }, "geometry": { "type": "LineString", "coordinates": [ [ 144.870048280481967, -37.696729995052891 ], [ 144.870032207090844, -37.696652735328541 ], [ 144.870089939270741, -37.696588429366066 ], [ 144.870369222777697, -37.6964843117333 ], [ 144.870567541462123, -37.696341484855942 ] ] } },
{ "type": "Feature", "properties": { "gid": 1492, "osm_id": null, "code": null, "fclass": "primary", "name": null, "pixel_count": 63, "Var_line": 138.1895751953125, "Edge_contrast": 47.121421813964844, "ROI": 3526.0, "Road_detected": -1, "ROI_norm": -0.6592671231920415, "Pred": 0 }, "geometry": { "type": "LineString", "coordinates": [ [ 144.883653568932829, -37.673742846785608 ], [ 144.883696666553533, -37.673811549037737 ], [ 144.883797438851758, -37.673834533647167 ] ] } },
{ "type": "Feature", "properties": { "gid": 1496, "osm_id": null, "code": null, "fclass": "primary", "name": null, "pixel_count": 61, "Var_line": 102.32712554931641, "Edge_contrast": 33.862098693847656, "ROI": 3553.333333333333, "Road_detected": -1, "ROI_norm": -0.65704586862840897, "Pred": 0 }, "geometry": { "type": "LineString", "coordinates": [ [ 144.874740119814135, -37.681950205586531 ], [ 144.874642923520582, -37.681937230122365 ], [ 144.874567250542015, -37.681972911422065 ] ] } },
{ "type": "Feature", "properties": { "gid": 1509, "osm_id": null, "code": null, "fclass": "primary", "name": null, "pixel_count": 100, "Var_line": 89.296836853027344, "Edge_contrast": 34.501075744628906, "ROI": 5129.5, "Road_detected": -1, "ROI_norm": -0.52895803687064569, "Pred": 0 }, "geometry": { "type": "LineString", "coordinates": [ [ 144.869938270657826, -37.693685955595875 ], [ 144.869940410638947, -37.693488560724099 ], [ 144.869985632163861, -37.693368454986704 ], [ 144.870169533737766, -37.693228473789183 ] ] } },
{ "type": "Feature", "properties": { "gid": 1532, "osm_id": null, "code": null, "fclass": "primary", "name": null, "pixel_count": 50, "Var_line": 101.48403930664062, "Edge_contrast": 20.44025993347168, "ROI": 3357.0000000000005, "Road_detected": -1, "ROI_norm": -0.67300097762815991, "Pred": 0 }, "geometry": { "type": "LineString", "coordinates": [ [ 144.881298016269938, -37.688136293208686 ], [ 144.881298195815475, -37.688021860008462 ] ] } },
{ "type": "Feature", "properties": { "gid": 1542, "osm_id": null, "code": null, "fclass": "primary", "name": null, "pixel_count": 50, "Var_line": 75.998146057128906, "Edge_contrast": 20.118494033813477, "ROI": 2118.0, "Road_detected": -1, "ROI_norm": -0.77368882168940678, "Pred": 0 }, "geometry": { "type": "LineString", "coordinates": [ [ 144.884601797413438, -37.656326854115193 ], [ 144.884486894957377, -37.656143647748472 ] ] } },
{ "type": "Feature", "properties": { "gid": 1546, "osm_id": null, "code": null, "fclass": "primary", "name": null, "pixel_count": 50, "Var_line": 128.70198059082031, "Edge_contrast": 36.287887573242188, "ROI": 3095.0, "Road_detected": -1, "ROI_norm": -0.69429251527468672, "Pred": 0 }, "geometry": { "type": "LineString", "coordinates": [ [ 144.87506355307849, -37.677968249260111 ], [ 144.874804357594513, -37.67794509185773 ] ] } },
{ "type": "Feature", "properties": { "gid": 1567, "osm_id": null, "code": null, "fclass": "primary", "name": null, "pixel_count": 67, "Var_line": 112.98649597167969, "Edge_contrast": 38.167888641357422, "ROI": 3455.5, "Road_detected": -1, "ROI_norm": -0.66499633465799624, "Pred": 0 }, "geometry": { "type": "LineString", "coordinates": [ [ 144.875746686413976, -37.682935383151708 ], [ 144.875887273260048, -37.682838260328865 ], [ 144.875977318773096, -37.682821188550619 ] ] } },
{ "type": "Feature", "properties": { "gid": 1575, "osm_id": null, "code": null, "fclass": "primary", "name": null, "pixel_count": 71, "Var_line": 113.65998840332031, "Edge_contrast": 25.185937881469727, "ROI": 6496.1666666666661, "Road_detected": -1, "ROI_norm": -0.41789530868901748, "Pred": 0 }, "geometry": { "type": "LineString", "coordinates": [ [ 144.885318159440004, -37.677658091799792 ], [ 144.88541527408438, -37.677722553767254 ], [ 144.885606091555502, -37.677727027427281 ] ] } },
{ "type": "Feature", "properties": { "gid": 1576, "osm_id": null, "code": null, "fclass": "primary", "name": null, "pixel_count": 50, "Var_line": 120.24997711181641, "Edge_contrast": 36.494781494140625, "ROI": 3792.5, "Road_detected": -1, "ROI_norm": -0.63760989119662392, "Pred": 0 }, "geometry": { "type": "LineString", "coordinates": [ [ 144.86942976937766, -37.687849305197361 ], [ 144.869660031954936, -37.687963989354692 ] ] } },
{ "type": "Feature", "properties": { "gid": 1578, "osm_id": null, "code": null, "fclass": "primary", "name": null, "pixel_count": 34, "Var_line": 88.75079345703125, "Edge_contrast": 27.974599838256836, "ROI": 3556.1666666666661, "Road_detected": -1, "ROI_norm": -0.65681561663095922, "Pred": 0 }, "geometry": { "type": "LineString", "coordinates": [ [ 144.874538407360802, -37.681995767945978 ], [ 144.874567250542015, -37.681972911422065 ] ] } },
{ "type": "Feature", "properties": { "gid": 1583, "osm_id": null, "code": null, "fclass": "primary", "name": null, "pixel_count": 75, "Var_line": 111.76128387451172, "Edge_contrast": 35.061080932617188, "ROI": 6094.0, "Road_detected": -1, "ROI_norm": -0.45057754809173312, "Pred": 0 }, "geometry": { "type": "LineString", "coordinates": [ [ 144.85522922467311, -37.687031951487242 ], [ 144.855146683472782, -37.686885949032927 ], [ 144.855143372897743, -37.68673432067321 ] ] } },
{ "type": "Feature", "properties": { "gid": 1591, "osm_id": null, "code": null, "fclass": "primary", "name": null, "pixel_count": 50, "Var_line": 134.53439331054688, "Edge_contrast": 31.717216491699219, "ROI": 4534.3333333333339, "Road_detected": -1, "ROI_norm": -0.57732450057023033, "Pred": 0 }, "geometry": { "type": "LineString", "coordinates": [ [ 144.876304089697726, -37.694379296088279 ], [ 144.875958295183381, -37.694424711809788 ] ] } },
{ "type": "Feature", "properties": { "gid": 1612, "osm_id": null, "code": null, "fclass": "primary", "name": null, "pixel_count": 74, "Var_line": 124.26296234130859, "Edge_contrast": 24.772756576538086, "ROI": 7359.5, "Road_detected": -1, "ROI_norm": -0.34773617064257417, "Pred": 0 }, "geometry": { "type": "LineString", "coordinates": [ [ 144.873074907283268, -37.678675648108175 ], [ 144.87313990329082, -37.678564144009364 ], [ 144.873248076186627, -37.678469850639836 ] ] } },
{ "type": "Feature", "properties": { "gid": 1615, "osm_id": null, "code": null, "fclass": "primary", "name": null, "pixel_count": 66, "Var_line": 40.286502838134766, "Edge_contrast": 5.1807889938354492, "ROI": 7038.1666666666679, "Road_detected": -1, "ROI_norm": -0.37384945600040081, "Pred": 0 }, "geometry": { "type": "LineString", "coordinates": [ [ 144.853159707350358, -37.669818582760286 ], [ 144.853113256229051, -37.669638291909912 ], [ 144.853044949426533, -37.669589573571351 ] ] } },
{ "type": "Feature", "properties": { "gid": 1620, "osm_id": null, "code": null, "fclass": "primary", "name": null, "pixel_count": 75, "Var_line": 111.201171875, "Edge_contrast": 26.074026107788086, "ROI": 4210.5, "Road_detected": -1, "ROI_norm": -0.60364094945521862, "Pred": 0 }, "geometry": { "type": "LineString", "coordinates": [ [ 144.885665735087542, -37.695441380269308 ], [ 144.885475063498035, -37.695311030556297 ], [ 144.885392270688129, -37.69528663436013 ], [ 144.885349029216798, -37.695303757946071 ] ] } },
{ "type": "Feature", "properties": { "gid": 1627, "osm_id": null, "code": null, "fclass": "primary", "name": null, "pixel_count": 69, "Var_line": 108.5189208984375, "Edge_contrast": 38.614147186279297, "ROI": 1826.6666666666665, "Road_detected": -1, "ROI_norm": -0.79736414472129546, "Pred": 0 }, "geometry": { "type": "LineString", "coordinates": [ [ 144.871457250823624, -37.698356463352134 ], [ 144.8713922596489, -37.698453661609612 ], [ 144.871284148354135, -37.698493597041981 ] ] } },
{ "type": "Feature", "properties": { "gid": 1628, "osm_id": null, "code": null, "fclass": "primary", "name": null, "pixel_count": 75, "Var_line": 126.27585601806641, "Edge_contrast": 30.687938690185547, "ROI": 4176.0, "Road_detected": -1, "ROI_norm": -0.60644460613004758, "Pred": 0 }, "geometry": { "type": "LineString", "coordinates": [ [ 144.885942075109284, -37.684135633934261 ], [ 144.886276943385241, -37.68413738273356 ], [ 144.88648928720491, -37.684204813841639 ] ] } },
{ "type": "Feature", "properties": { "gid": 1629, "osm_id": null, "code": null, "fclass": "primary", "name": null, "pixel_count": 50, "Var_line": 132.42530822753906, "Edge_contrast": 26.015453338623047, "ROI": 4506.8333333333339, "Road_detected": -1, "ROI_norm": -0.57955929936900696, "Pred": 0 }, "geometry": { "type": "LineString", "coordinates": [ [ 144.883812887128784, -37.682531517566417 ], [ 144.884072171215678, -37.682508882056943 ] ] } },
{ "type": "Feature", "properties": { "gid": 1637, "osm_id": null, "code": null, "fclass": "primary", "name": null, "pixel_count": 50, "Var_line": 96.11114501953125, "Edge_contrast": 40.905265808105469, "ROI": 4771.8333333333339, "Road_detected": -1, "ROI_norm": -0.55802396548988642, "Pred": 0 }, "geometry": { "type": "LineString", "coordinates": [ [ 144.884742443528097, -37.696333073255836 ], [ 144.884540978203432, -37.696195559653219 ] ] } },
{ "type": "Feature", "properties": { "gid": 1640, "osm_id": null, "code": null, "fclass": "primary", "name": null, "pixel_count": 75, "Var_line": 116.70276641845703, "Edge_contrast": 41.073310852050781, "ROI": 5946.3333333333339, "Road_detected": -1, "ROI_norm": -0.46257774042940658, "Pred": 0 }, "geometry": { "type": "LineString", "coordinates": [ [ 144.878085213493733, -37.679664982914936 ], [ 144.878330013692505, -37.679688118574305 ], [ 144.878373036285893, -37.679802596010283 ] ] } },
{ "type": "Feature", "properties": { "gid": 1666, "osm_id": null, "code": null, "fclass": "tertiary", "name": null, "pixel_count": 38, "Var_line": 32.237354278564453, "Edge_contrast": 16.674440383911133, "ROI": 5441.5, "Road_detected": -1, "ROI_norm": -0.50360322868088858, "Pred": 0 }, "geometry": { "type": "LineString", "coordinates": [ [ 144.87050995923903, -37.696318536027263 ], [ 144.87053869159385, -37.696364340292128 ] ] } },
{ "type": "Feature", "properties": { "gid": 1670, "osm_id": null, "code": null, "fclass": "tertiary", "name": null, "pixel_count": 75, "Var_line": 151.25015258789062, "Edge_contrast": 55.76226806640625, "ROI": 5929.0, "Road_detected": -1, "ROI_norm": -0.46398634088439311, "Pred": 0 }, "geometry": { "type": "LineString", "coordinates": [ [ 144.883965186481703, -37.695920364115324 ], [ 144.884170522941332, -37.695880511247587 ], [ 144.88439762445833, -37.695737689296344 ] ] } },
{ "type": "Feature", "properties": { "gid": 1678, "osm_id": null, "code": null, "fclass": "tertiary", "name": null, "pixel_count": 75, "Var_line": 37.402938842773438, "Edge_contrast": 9.9298162460327148, "ROI": 5629.5, "Road_detected": -1, "ROI_norm": -0.48832533143834267, "Pred": 0 }, "geometry": { "type": "LineString", "coordinates": [ [ 144.882059801185193, -37.698413142577927 ], [ 144.882001977379559, -37.69854182268314 ], [ 144.881857727538716, -37.698664695918332 ] ] } },
{ "type": "Feature", "properties": { "gid": 1730, "osm_id": null, "code": null, "fclass": "tertiary", "name": null, "pixel_count": 83, "Var_line": 97.0648193359375, "Edge_contrast": 8.1811866760253906, "ROI": 5662.833333333333, "Road_detected": -1, "ROI_norm": -0.48561648440952249, "Pred": 0 }, "geometry": { "type": "LineString", "coordinates": [ [ 144.878349125907107, -37.676758632493645 ], [ 144.878333041382689, -37.676685664562434 ], [ 144.878252094471549, -37.676646960877555 ], [ 144.878032400868562, -37.67668965006979 ] ] } },
{ "type": "Feature", "properties": { "gid": 1735, "osm_id": null, "code": null, "fclass": "tertiary", "name": null, "pixel_count": 338, "Var_line": 67.430831909179688, "Edge_contrast": 8.1630001068115234, "ROI": 35873.5, "Road_detected": -1, "ROI_norm": 1.969465754750803, "Pred": 0 }, "geometry": { "type": "LineString", "coordinates": [ [ 144.870852196412756, -37.681488342188992 ], [ 144.870064569694961, -37.680956804156168 ], [ 144.868445909021631, -37.680028124188112 ], [ 144.867927712893163, -37.67986448584778 ], [ 144.867711727224787, -37.679837069488492 ], [ 144.867236451881126, -37.679837974067603 ], [ 144.866717735570404, -37.679971857671347 ], [ 144.86637180410014, -37.680128818655739 ], [ 144.864230437277001, -37.681592592626693 ], [ 144.864037674774693, -37.681663895038213 ], [ 144.863770836049355, -37.681881015854216 ], [ 144.863673536055614, -37.681926678626674 ], [ 144.863624808666856, -37.681992422521461 ], [ 144.863592088155855, -37.682166896605679 ] ] } },
{ "type": "Feature", "properties": { "gid": 1738, "osm_id": null, "code": null, "fclass": "tertiary", "name": null, "pixel_count": 34, "Var_line": 52.951271057128906, "Edge_contrast": 23.028352737426758, "ROI": 2727.6666666666665, "Road_detected": -1, "ROI_norm": -0.7241440095322853, "Pred": 0 }, "geometry": { "type": "LineString", "coordinates": [ [ 144.869967041006475, -37.693708873456416 ], [ 144.869938270657826, -37.693685955595875 ] ] } },
{ "type": "Feature", "properties": { "gid": 1739, "osm_id": null, "code": null, "fclass": "tertiary", "name": null, "pixel_count": 30, "Var_line": 63.060787200927734, "Edge_contrast": 26.340169906616211, "ROI": 4409.3333333333339, "Road_detected": -1, "ROI_norm": -0.58748267692830614, "Pred": 0 }, "geometry": { "type": "LineString", "coordinates": [ [ 144.869967041006475, -37.693708873456416 ], [ 144.869938231309305, -37.69370884218349 ] ] } },
{ "type": "Feature", "properties": { "gid": 1740, "osm_id": null, "code": null, "fclass": "tertiary", "name": null, "pixel_count": 50, "Var_line": 64.474700927734375, "Edge_contrast": 25.340993881225586, "ROI": 4847.8333333333339, "Road_detected": -1, "ROI_norm": -0.55184779426417629, "Pred": 0 }, "geometry": { "type": "LineString", "coordinates": [ [ 144.869967041006475, -37.693708873456416 ], [ 144.870111128788949, -37.693686143129312 ] ] } },
{ "type": "Feature", "properties": { "gid": 1748, "osm_id": null, "code": null, "fclass": "tertiary", "name": null, "pixel_count": 71, "Var_line": 90.632675170898438, "Edge_contrast": 1.702154278755188, "ROI": 3591.0, "Road_detected": -1, "ROI_norm": -0.65398487148584206, "Pred": 0 }, "geometry": { "type": "LineString", "coordinates": [ [ 144.874480872819561, -37.681949934209982 ], [ 144.874599732290903, -37.681927171969456 ], [ 144.874740119814135, -37.681950205586531 ] ] } },
{ "type": "Feature", "properties": { "gid": 1767, "osm_id": null, "code": null, "fclass": "tertiary", "name": null, "pixel_count": 75, "Var_line": 106.04895782470703, "Edge_contrast": 43.429157257080078, "ROI": 5724.0, "Road_detected": -1, "ROI_norm": -0.4806457501116374, "Pred": 0 }, "geometry": { "type": "LineString", "coordinates": [ [ 144.855200373721431, -37.687054803310545 ], [ 144.855143203093007, -37.686823006413292 ], [ 144.855172267556128, -37.686688582217577 ] ] } },
{ "type": "Feature", "properties": { "gid": 1770, "osm_id": null, "code": null, "fclass": "tertiary", "name": null, "pixel_count": 50, "Var_line": 84.882423400878906, "Edge_contrast": 26.380859375, "ROI": 4750.3333333333339, "Road_detected": -1, "ROI_norm": -0.55977117182347547, "Pred": 0 }, "geometry": { "type": "LineString", "coordinates": [ [ 144.880422502598037, -37.695276055526591 ], [ 144.880134472146437, -37.695229994473969 ] ] } },
{ "type": "Feature", "properties": { "gid": 1774, "osm_id": null, "code": null, "fclass": "tertiary", "name": null, "pixel_count": 50, "Var_line": 75.892105102539062, "Edge_contrast": 34.612869262695312, "ROI": 2606.5, "Road_detected": -1, "ROI_norm": -0.73399066848204675, "Pred": 0 }, "geometry": { "type": "LineString", "coordinates": [ [ 144.872152439441521, -37.696160093723726 ], [ 144.872152632840965, -37.696045660886909 ] ] } },
{ "type": "Feature", "properties": { "gid": 1807, "osm_id": null, "code": null, "fclass": "tertiary", "name": null, "pixel_count": 50, "Var_line": 128.70198059082031, "Edge_contrast": 36.287887573242188, "ROI": 3095.0, "Road_detected": -1, "ROI_norm": -0.69429251527468672, "Pred": 0 }, "geometry": { "type": "LineString", "coordinates": [ [ 144.87506355307849, -37.677968249260111 ], [ 144.874804357594513, -37.67794509185773 ] ] } },
{ "type": "Feature", "properties": { "gid": 1829, "osm_id": null, "code": null, "fclass": "tertiary", "name": null, "pixel_count": 75, "Var_line": 131.98696899414062, "Edge_contrast": 65.881324768066406, "ROI": 5014.5, "Road_detected": -1, "ROI_norm": -0.53830355912007533, "Pred": 0 }, "geometry": { "type": "LineString", "coordinates": [ [ 144.88563695932433, -37.69541846619417 ], [ 144.885475063498035, -37.695311030556297 ], [ 144.885320253601947, -37.695280843793647 ] ] } },
{ "type": "Feature", "properties": { "gid": 1837, "osm_id": null, "code": null, "fclass": "tertiary", "name": null, "pixel_count": 50, "Var_line": 122.03369140625, "Edge_contrast": 30.847984313964844, "ROI": 6314.833333333333, "Road_detected": -1, "ROI_norm": -0.43263143652579933, "Pred": 0 }, "geometry": { "type": "LineString", "coordinates": [ [ 144.869401001420101, -37.687826387156761 ], [ 144.869660031954936, -37.687963989354692 ] ] } },
{ "type": "Feature", "properties": { "gid": 1863, "osm_id": null, "code": null, "fclass": "tertiary", "name": null, "pixel_count": 69, "Var_line": 129.07699584960938, "Edge_contrast": 26.430471420288086, "ROI": 8142.666666666667, "Road_detected": -1, "ROI_norm": -0.28409180970044351, "Pred": 0 }, "geometry": { "type": "LineString", "coordinates": [ [ 144.884101046770866, -37.682463136552585 ], [ 144.88400376268649, -37.682505954991818 ], [ 144.883812887128784, -37.682531517566417 ] ] } },
{ "type": "Feature", "properties": { "gid": 1875, "osm_id": null, "code": null, "fclass": "tertiary", "name": null, "pixel_count": 60, "Var_line": 104.13370513916016, "Edge_contrast": 28.148349761962891, "ROI": 3632.166666666667, "Road_detected": -1, "ROI_norm": -0.65063944540524909, "Pred": 0 }, "geometry": { "type": "LineString", "coordinates": [ [ 144.882203879893126, -37.67989797160029 ], [ 144.881890689628136, -37.679860472229443 ], [ 144.881887173926231, -37.679806112739335 ] ] } },
{ "type": "Feature", "properties": { "gid": 1885, "osm_id": null, "code": null, "fclass": "tertiary", "name": null, "pixel_count": 88, "Var_line": 133.07049560546875, "Edge_contrast": 20.039030075073242, "ROI": 8011.3333333333339, "Road_detected": -1, "ROI_norm": -0.29476466699399506, "Pred": 0 }, "geometry": { "type": "LineString", "coordinates": [ [ 144.885942075109284, -37.684135633934261 ], [ 144.886255375399259, -37.6841130451281 ], [ 144.886447893486235, -37.684194761675563 ], [ 144.886518127617705, -37.684181954459319 ] ] } },
{ "type": "Feature", "properties": { "gid": 1890, "osm_id": null, "code": null, "fclass": "tertiary", "name": null, "pixel_count": 80, "Var_line": 27.644920349121094, "Edge_contrast": 6.8872642517089844, "ROI": 6843.9999999999991, "Road_detected": -1, "ROI_norm": -0.3896284899432787, "Pred": 0 }, "geometry": { "type": "LineString", "coordinates": [ [ 144.853130906755894, -37.669818547445331 ], [ 144.853149090334682, -37.669724161516591 ], [ 144.853053996805215, -37.669565267400259 ], [ 144.853073838806807, -37.669543835327126 ] ] } },
{ "type": "Feature", "properties": { "gid": 1899, "osm_id": null, "code": null, "fclass": "tertiary", "name": null, "pixel_count": 75, "Var_line": 107.05946350097656, "Edge_contrast": 11.107030868530273, "ROI": 5682.5, "Road_detected": -1, "ROI_norm": -0.48401826466251863, "Pred": 0 }, "geometry": { "type": "LineString", "coordinates": [ [ 144.876332974481329, -37.694333552662528 ], [ 144.876105960347417, -37.694416282122134 ], [ 144.875958295183381, -37.694424711809788 ] ] } },
{ "type": "Feature", "properties": { "gid": 1905, "osm_id": null, "code": null, "fclass": "tertiary", "name": null, "pixel_count": 34, "Var_line": 78.08367919921875, "Edge_contrast": 0.47017186880111694, "ROI": 3801.0000000000009, "Road_detected": -1, "ROI_norm": -0.63691913520427479, "Pred": 0 }, "geometry": { "type": "LineString", "coordinates": [ [ 144.87053869159385, -37.696364340292128 ], [ 144.870567541462123, -37.696341484855942 ] ] } },
{ "type": "Feature", "properties": { "gid": 1914, "osm_id": null, "code": null, "fclass": "tertiary", "name": null, "pixel_count": 100, "Var_line": 86.637527465820312, "Edge_contrast": 5.9298510551452637, "ROI": 8633.8333333333321, "Road_detected": -1, "ROI_norm": -0.24417694873077797, "Pred": 0 }, "geometry": { "type": "LineString", "coordinates": [ [ 144.885287660399229, -37.697775452089232 ], [ 144.885423454119433, -37.697286381121152 ], [ 144.885353513310548, -37.697097499805594 ], [ 144.885404118906848, -37.696974532763832 ] ] } },
{ "type": "Feature", "properties": { "gid": 1933, "osm_id": null, "code": null, "fclass": "unclassified", "name": null, "pixel_count": 247, "Var_line": 52.081775665283203, "Edge_contrast": 10.121947288513184, "ROI": 10862.666666666666, "Road_detected": -1, "ROI_norm": -0.063049892148715134, "Pred": 0 }, "geometry": { "type": "LineString", "coordinates": [ [ 144.875560903935565, -37.690808210911719 ], [ 144.875548653141806, -37.690593635798791 ], [ 144.875629775850996, -37.690533642572852 ], [ 144.875759475134487, -37.690496586334632 ], [ 144.875862081859481, -37.690510996861704 ], [ 144.875906888635456, -37.69063691988876 ], [ 144.876061640746826, -37.690694296724509 ], [ 144.876032649366692, -37.690805839166508 ], [ 144.875967740912955, -37.690860127783878 ], [ 144.87583803876052, -37.690898614655872 ], [ 144.875647179240275, -37.690899847110273 ] ] } },
{ "type": "Feature", "properties": { "gid": 1940, "osm_id": null, "code": null, "fclass": "unclassified", "name": null, "pixel_count": 65, "Var_line": 92.009483337402344, "Edge_contrast": 27.879287719726562, "ROI": 2887.1666666666665, "Road_detected": -1, "ROI_norm": -0.71118217649938065, "Pred": 0 }, "geometry": { "type": "LineString", "coordinates": [ [ 144.884494260047404, -37.689054884453917 ], [ 144.884397020167341, -37.689063373157353 ], [ 144.884206390921406, -37.688917286548545 ] ] } },
{ "type": "Feature", "properties": { "gid": 1956, "osm_id": null, "code": null, "fclass": "unclassified", "name": null, "pixel_count": 75, "Var_line": 22.88642692565918, "Edge_contrast": 5.3299527168273926, "ROI": 2346.5, "Road_detected": -1, "ROI_norm": -0.75511967530684432, "Pred": 0 }, "geometry": { "type": "LineString", "coordinates": [ [ 144.862787033983949, -37.681342054621759 ], [ 144.863035717794531, -37.681209310053241 ], [ 144.86336379498627, -37.680976526054522 ] ] } },
{ "type": "Feature", "properties": { "gid": 2062, "osm_id": null, "code": null, "fclass": "unclassified", "name": null, "pixel_count": 119, "Var_line": 0.0, "Edge_contrast": 0.0, "ROI": 3285.5, "Road_detected": -1, "ROI_norm": -0.67881145450497926, "Pred": 0 }, "geometry": { "type": "LineString", "coordinates": [ [ 144.85630778196159, -37.680350327285772 ], [ 144.856469927256512, -37.680287583122066 ], [ 144.857226015125292, -37.680305651786945 ], [ 144.857463712261591, -37.680274465590578 ], [ 144.857546595439857, -37.680237373219128 ] ] } },
{ "type": "Feature", "properties": { "gid": 2080, "osm_id": null, "code": null, "fclass": "unclassified", "name": null, "pixel_count": 163, "Var_line": 77.315376281738281, "Edge_contrast": 22.558670043945312, "ROI": 13692.0, "Road_detected": -1, "ROI_norm": 0.16687704365754363, "Pred": 0 }, "geometry": { "type": "LineString", "coordinates": [ [ 144.850739690087693, -37.670204667512579 ], [ 144.850620983039107, -37.670155884977746 ], [ 144.85056715116724, -37.670069992170617 ], [ 144.85063214753572, -37.669971373745618 ], [ 144.850758308365556, -37.669891427075356 ], [ 144.851514546412062, -37.669779363262791 ], [ 144.851633275882165, -37.669816701525235 ] ] } },
{ "type": "Feature", "properties": { "gid": 2089, "osm_id": null, "code": null, "fclass": "unclassified", "name": null, "pixel_count": 107, "Var_line": 18.547206878662109, "Edge_contrast": 8.038482666015625, "ROI": 3874.1666666666665, "Road_detected": -1, "ROI_norm": -0.63097321597601452, "Pred": 0 }, "geometry": { "type": "LineString", "coordinates": [ [ 144.862469555128456, -37.681684991605863 ], [ 144.862377801266376, -37.68165055611788 ], [ 144.862020119521844, -37.681331160715168 ], [ 144.861868916876404, -37.681318112657173 ], [ 144.861807664501555, -37.68134092874751 ] ] } },
{ "type": "Feature", "properties": { "gid": 2113, "osm_id": null, "code": null, "fclass": "unclassified", "name": null, "pixel_count": 95, "Var_line": 0.0, "Edge_contrast": 15.176294326782227, "ROI": 3596.6666666666661, "Road_detected": -1, "ROI_norm": -0.65352436749094267, "Pred": 0 }, "geometry": { "type": "LineString", "coordinates": [ [ 144.863103375813125, -37.697546178627775 ], [ 144.863097585406877, -37.697760733868868 ], [ 144.862847999218758, -37.698361221527406 ], [ 144.86281323045074, -37.698667289872091 ] ] } },
{ "type": "Feature", "properties": { "gid": 2124, "osm_id": null, "code": null, "fclass": "unclassified", "name": null, "pixel_count": 71, "Var_line": 60.387722015380859, "Edge_contrast": 17.205331802368164, "ROI": 1705.6666666666667, "Road_detected": -1, "ROI_norm": -0.8071972594359127, "Pred": 0 }, "geometry": { "type": "LineString", "coordinates": [ [ 144.856373949756829, -37.67584171293057 ], [ 144.856345326102371, -37.675747270595195 ], [ 144.856374514500743, -37.675544185327659 ] ] } },
{ "type": "Feature", "properties": { "gid": 2152, "osm_id": null, "code": null, "fclass": "unclassified", "name": null, "pixel_count": 75, "Var_line": 127.70130157470703, "Edge_contrast": 25.405670166015625, "ROI": 12601.833333333332, "Road_detected": -1, "ROI_norm": 0.078284201579978854, "Pred": 0 }, "geometry": { "type": "LineString", "coordinates": [ [ 144.884168012843105, -37.676352439154016 ], [ 144.884224147136933, -37.67613792989323 ], [ 144.884342720472404, -37.675116721793366 ] ] } },
{ "type": "Feature", "properties": { "gid": 2205, "osm_id": null, "code": null, "fclass": "unclassified", "name": null, "pixel_count": 71, "Var_line": 75.788925170898438, "Edge_contrast": 40.802787780761719, "ROI": 2244.6666666666665, "Road_detected": -1, "ROI_norm": -0.76339520297989005, "Pred": 0 }, "geometry": { "type": "LineString", "coordinates": [ [ 144.856431555533845, -37.675841781993604 ], [ 144.856512710133018, -37.675764636326576 ], [ 144.85654720098421, -37.675613052652054 ] ] } },
{ "type": "Feature", "properties": { "gid": 2265, "osm_id": null, "code": null, "fclass": "unclassified", "name": null, "pixel_count": 50, "Var_line": 75.518791198730469, "Edge_contrast": 40.411006927490234, "ROI": 7218.5, "Road_detected": -1, "ROI_norm": -0.35919459357448363, "Pred": 0 }, "geometry": { "type": "LineString", "coordinates": [ [ 144.851368676263661, -37.672562793189975 ], [ 144.850937373046548, -37.672196068037387 ] ] } },
{ "type": "Feature", "properties": { "gid": 2284, "osm_id": null, "code": null, "fclass": "unclassified", "name": null, "pixel_count": 75, "Var_line": 75.919158935546875, "Edge_contrast": 30.456943511962891, "ROI": 4189.0, "Road_detected": -1, "ROI_norm": -0.60538815578880767, "Pred": 0 }, "geometry": { "type": "LineString", "coordinates": [ [ 144.849578607197742, -37.674757692212594 ], [ 144.849711608397911, -37.674863710626653 ], [ 144.849836693986475, -37.675330186030848 ] ] } },
{ "type": "Feature", "properties": { "gid": 2291, "osm_id": null, "code": null, "fclass": "unclassified", "name": null, "pixel_count": 125, "Var_line": 23.73444938659668, "Edge_contrast": 10.258847236633301, "ROI": 4773.333333333333, "Road_detected": -1, "ROI_norm": -0.55790206737358961, "Pred": 0 }, "geometry": { "type": "LineString", "coordinates": [ [ 144.864138361428047, -37.682739685684744 ], [ 144.864423323430657, -37.682456785284828 ], [ 144.864429554878313, -37.681993336020703 ], [ 144.864543405717626, -37.681753154106524 ], [ 144.86445735416757, -37.681549936977959 ] ] } },
{ "type": "Feature", "properties": { "gid": 2301, "osm_id": null, "code": null, "fclass": "unclassified", "name": null, "pixel_count": 50, "Var_line": 49.923069000244141, "Edge_contrast": 31.841510772705078, "ROI": 4299.8333333333321, "Road_detected": -1, "ROI_norm": -0.5963812394179806, "Pred": 0 }, "geometry": { "type": "LineString", "coordinates": [ [ 144.845602781184965, -37.689400146525038 ], [ 144.845489699158691, -37.688347213399425 ] ] } },
{ "type": "Feature", "properties": { "gid": 2309, "osm_id": null, "code": null, "fclass": "unclassified", "name": null, "pixel_count": 415, "Var_line": 16.108024597167969, "Edge_contrast": 39.040008544921875, "ROI": 13053.16666666667, "Road_detected": -1, "ROI_norm": 0.11496199035020473, "Pred": 0 }, "geometry": { "type": "LineString", "coordinates": [ [ 144.863717728655246, -37.69237450257895 ], [ 144.863565438296661, -37.691953787125065 ], [ 144.863207777831747, -37.691592914545588 ], [ 144.863008351329796, -37.691352376821676 ], [ 144.862970726332463, -37.6912493438506 ], [ 144.862989384635654, -37.690888900365707 ], [ 144.863377554436369, -37.69030573385502 ], [ 144.863531125438357, -37.690014103937379 ], [ 144.863746438181835, -37.689430739010156 ], [ 144.863868245660967, -37.688778607326839 ], [ 144.864047643337898, -37.68613539875556 ], [ 144.86411481402223, -37.685826504528151 ], [ 144.864326294069343, -37.685363288506039 ], [ 144.864277898618781, -37.685243078482038 ], [ 144.864159226022053, -37.685157118819859 ], [ 144.864051227581655, -37.685142692110595 ], [ 144.863673060675126, -37.685188035748865 ] ] } },
{ "type": "Feature", "properties": { "gid": 2330, "osm_id": null, "code": null, "fclass": "unclassified", "name": null, "pixel_count": 190, "Var_line": 25.537496566772461, "Edge_contrast": 27.307628631591797, "ROI": 12857.5, "Road_detected": -1, "ROI_norm": 0.099061058291029749, "Pred": 0 }, "geometry": { "type": "LineString", "coordinates": [ [ 144.849324306897103, -37.672285596872371 ], [ 144.849498821535292, -37.673238480111962 ], [ 144.849588588618161, -37.673358748650038 ], [ 144.850009811325634, -37.673362137742842 ], [ 144.850182741923192, -37.673302276295338 ], [ 144.850420419962376, -37.673271103993898 ], [ 144.850528398859296, -37.673285543056501 ], [ 144.850618297531071, -37.673340011396093 ] ] } }
]
}
