{
"type": "FeatureCollection",
"crs": { "type": "name", "properties": { "name": "urn:ogc:def:crs:OGC:1.3:CRS84" } },
"features": [
{ "type": "Feature", "properties": { "gid": 61, "fclass": "residential", "length": 25.62842025229974, "status": "disappeared" }, "geometry": { "type": "LineString", "coordinates": [ [ 144.851821121673282, -37.676843185586179 ], [ 144.851658940644427, -37.676925949423762 ], [ 144.851561712673629, -37.676934411512711 ] ] } },
{ "type": "Feature", "properties": { "gid": 65, "fclass": "residential", "length": 25.330504223944228, "status": "disappeared" }, "geometry": { "type": "LineString", "coordinates": [ [ 144.857463242923416, -37.678612314223862 ], [ 144.857322710412348, -37.67867222466721 ], [ 144.857203964239147, -37.678634892168979 ] ] } },
{ "type": "Feature", "properties": { "gid": 83, "fclass": "residential", "length": 32.774326319632948, "status": "disappeared" }, "geometry": { "type": "LineString", "coordinates": [ [ 144.884174984488311, -37.671797973583189 ], [ 144.884085098558302, -37.671720643621121 ], [ 144.883858380283414, -37.67166034609064 ] ] } },
{ "type": "Feature", "properties": { "gid": 131, "fclass": "residential", "length": 50.809287052595593, "status": "disappeared" }, "geometry": { "type": "LineString", "coordinates": [ [ 144.849813569547479, -37.672469305963503 ], [ 144.849691032038947, -37.672534951852853 ], [ 144.849685444198798, -37.672629352972287 ], [ 144.849915778061956, -37.672669693760071 ], [ 144.849986016181532, -37.672652616640825 ] ] } },
{ "type": "Feature", "properties": { "gid": 156, "fclass": "residential", "length": 143.00309232323656, "status": "disappeared" }, "geometry": { "type": "LineString", "coordinates": [ [ 144.864224654770879, -37.682808443709362 ], [ 144.864311009835632, -37.682842871649683 ], [ 144.864582398889098, -37.683102084838787 ], [ 144.864614667034488, -37.683179364005724 ], [ 144.864880779869964, -37.683369910355907 ], [ 144.864907637132859, -37.683452905012324 ], [ 144.865047789805885, -37.683607548351304 ], [ 144.865029372764639, -37.683839255626616 ] ] } },
{ "type": "Feature", "properties": { "gid": 199, "fclass": "residential", "length": 23.007088326583119, "status": "disappeared" }, "geometry": { "type": "LineString", "coordinates": [ [ 144.853091176039868, -37.675448655996789 ], [ 144.853350445033271, -37.675426086927352 ] ] } },
{ "type": "Feature", "properties": { "gid": 206, "fclass": "residential", "length": 81.788195681389027, "status": "disappeared" }, "geometry": { "type": "LineString", "coordinates": [ [ 144.850879815154258, -37.67217310956584 ], [ 144.850390616879167, -37.671956505081226 ], [ 144.850361982361562, -37.671872074140275 ], [ 144.850391185323105, -37.671668990036473 ] ] } },
{ "type": "Feature", "properties": { "gid": 239, "fclass": "residential", "length": 58.941830808582104, "status": "disappeared" }, "geometry": { "type": "LineString", "coordinates": [ [ 144.862297890733913, -37.681043965671449 ], [ 144.862420259417945, -37.681072714710922 ], [ 144.862470532759517, -37.681147154354242 ], [ 144.862713228998473, -37.681337678792225 ], [ 144.862729299447921, -37.681410648692349 ] ] } },
{ "type": "Feature", "properties": { "gid": 257, "fclass": "residential", "length": 333.12321974168475, "status": "disappeared" }, "geometry": { "type": "LineString", "coordinates": [ [ 144.851903231355891, -37.693756565472341 ], [ 144.851977047834396, -37.693760947942543 ], [ 144.852101163859743, -37.693825469891664 ], [ 144.852317368109624, -37.693758507108967 ], [ 144.855234972581002, -37.693437363959106 ], [ 144.855472804714168, -37.69335754787496 ], [ 144.85559166052056, -37.693349108710407 ] ] } },
{ "type": "Feature", "properties": { "gid": 304, "fclass": "residential", "length": 24.884599486081399, "status": "disappeared" }, "geometry": { "type": "LineString", "coordinates": [ [ 144.885591695670541, -37.687247890331243 ], [ 144.885548387429168, -37.687312217753238 ], [ 144.885361099009543, -37.687339216604173 ] ] } },
{ "type": "Feature", "properties": { "gid": 314, "fclass": "residential", "length": 89.191549217297876, "status": "disappeared" }, "geometry": { "type": "LineString", "coordinates": [ [ 144.876880288806177, -37.694379889614275 ], [ 144.877382915129544, -37.69422448997431 ], [ 144.877457340625, -37.693854088881935 ] ] } },
{ "type": "Feature", "properties": { "gid": 328, "fclass": "residential", "length": 38.975576273174141, "status": "disappeared" }, "geometry": { "type": "LineString", "coordinates": [ [ 144.848806610995013, -37.671918755277041 ], [ 144.84896841612084, -37.67202051971497 ], [ 144.849070969862595, -37.672046396671917 ], [ 144.849151817080838, -37.672125171984618 ] ] } },
{ "type": "Feature", "properties": { "gid": 342, "fclass": "residential", "length": 23.000757398813438, "status": "disappeared" }, "geometry": { "type": "LineString", "coordinates": [ [ 144.882104949495101, -37.687931109979587 ], [ 144.88207646305554, -37.687725101843405 ] ] } },
{ "type": "Feature", "properties": { "gid": 361, "fclass": "residential", "length": 31.599812077832389, "status": "disappeared" }, "geometry": { "type": "LineString", "coordinates": [ [ 144.884580963173363, -37.688871874685027 ], [ 144.884554152253941, -37.688743111341374 ], [ 144.884437308427096, -37.688619982835284 ] ] } },
{ "type": "Feature", "properties": { "gid": 386, "fclass": "residential", "length": 25.557506638449404, "status": "disappeared" }, "geometry": { "type": "LineString", "coordinates": [ [ 144.850669126496314, -37.67677309453321 ], [ 144.850485333424359, -37.676860121110423 ], [ 144.850409716348111, -37.676864317967251 ] ] } },
{ "type": "Feature", "properties": { "gid": 403, "fclass": "residential", "length": 51.09518498706494, "status": "disappeared" }, "geometry": { "type": "LineString", "coordinates": [ [ 144.884609736126635, -37.688894789070837 ], [ 144.884856473177308, -37.688849253143445 ], [ 144.884997078887125, -37.688739246114352 ], [ 144.885042236718817, -37.688643451529529 ] ] } },
{ "type": "Feature", "properties": { "gid": 409, "fclass": "residential", "length": 42.95213085398052, "status": "disappeared" }, "geometry": { "type": "LineString", "coordinates": [ [ 144.874312755874399, -37.679111801790057 ], [ 144.874208041224136, -37.679291925057754 ], [ 144.874168126185481, -37.679477838000814 ] ] } },
{ "type": "Feature", "properties": { "gid": 412, "fclass": "residential", "length": 77.270667609456012, "status": "disappeared" }, "geometry": { "type": "LineString", "coordinates": [ [ 144.861895561308785, -37.664748091820883 ], [ 144.862211367415028, -37.665286297273063 ], [ 144.862283312538381, -37.665314988625511 ], [ 144.862326542092177, -37.665297873171802 ] ] } },
{ "type": "Feature", "properties": { "gid": 415, "fclass": "residential", "length": 63.702782021813022, "status": "disappeared" }, "geometry": { "type": "LineString", "coordinates": [ [ 144.884313917850903, -37.675116693977976 ], [ 144.884292447122732, -37.675030847787085 ], [ 144.884116188978737, -37.674927686837947 ], [ 144.883738287353765, -37.674841495155292 ] ] } },
{ "type": "Feature", "properties": { "gid": 425, "fclass": "residential", "length": 27.984044179646446, "status": "disappeared" }, "geometry": { "type": "LineString", "coordinates": [ [ 144.851299154611922, -37.678627707167422 ], [ 144.851439483979789, -37.678673654831968 ], [ 144.851558479933203, -37.678582255292042 ] ] } },
{ "type": "Feature", "properties": { "gid": 472, "fclass": "residential", "length": 75.62722287096372, "status": "disappeared" }, "geometry": { "type": "LineString", "coordinates": [ [ 144.8614988535073, -37.676946314300977 ], [ 144.861433867930373, -37.67704350794444 ], [ 144.86114737216576, -37.677186218519651 ], [ 144.86105172974203, -37.677311984873853 ], [ 144.860864423146779, -37.677357540991892 ] ] } },
{ "type": "Feature", "properties": { "gid": 474, "fclass": "residential", "length": 97.893146118457409, "status": "disappeared" }, "geometry": { "type": "LineString", "coordinates": [ [ 144.849351103613657, -37.673292650586482 ], [ 144.849352647434813, -37.673421390853825 ], [ 144.849522185613409, -37.674162564439612 ] ] } },
{ "type": "Feature", "properties": { "gid": 479, "fclass": "residential", "length": 53.524284222630541, "status": "disappeared" }, "geometry": { "type": "LineString", "coordinates": [ [ 144.849444840701779, -37.669607988869281 ], [ 144.84939238924818, -37.669733800568878 ], [ 144.849143915977947, -37.669767818116412 ], [ 144.849069840623599, -37.669905045850257 ] ] } },
{ "type": "Feature", "properties": { "gid": 495, "fclass": "residential", "length": 201.73151640182556, "status": "disappeared" }, "geometry": { "type": "LineString", "coordinates": [ [ 144.852027757350726, -37.674280120170195 ], [ 144.851887301379179, -37.674302833366866 ], [ 144.851736207016387, -37.674242568563542 ], [ 144.849780815171897, -37.674460417559601 ] ] } },
{ "type": "Feature", "properties": { "gid": 523, "fclass": "residential", "length": 35.878182016119268, "status": "disappeared" }, "geometry": { "type": "LineString", "coordinates": [ [ 144.857611225022367, -37.676506906995662 ], [ 144.857686900529075, -37.676471236334912 ], [ 144.857769685325309, -37.676484208483565 ], [ 144.857812545967874, -37.676667353632915 ] ] } },
{ "type": "Feature", "properties": { "gid": 530, "fclass": "residential", "length": 26.63526892624909, "status": "disappeared" }, "geometry": { "type": "LineString", "coordinates": [ [ 144.883890241898627, -37.688436360483649 ], [ 144.883803937449642, -37.688359034285128 ], [ 144.883746519942122, -37.688230241043314 ] ] } },
{ "type": "Feature", "properties": { "gid": 607, "fclass": "motorway", "length": 88.243815020555857, "status": "disappeared" }, "geometry": { "type": "LineString", "coordinates": [ [ 144.854312392083273, -37.669476687833431 ], [ 144.854755476528283, -37.669332752792705 ], [ 144.855177150646654, -37.669088660261771 ] ] } },
{ "type": "Feature", "properties": { "gid": 653, "fclass": "trunk", "length": 21.569124258893417, "status": "disappeared" }, "geometry": { "type": "LineString", "coordinates": [ [ 144.885606314686612, -37.696631427014744 ], [ 144.885514460726142, -37.69664421298976 ], [ 144.885433276478722, -37.696745694670106 ] ] } },
{ "type": "Feature", "properties": { "gid": 671, "fclass": "trunk", "length": 167.62275499537787, "status": "disappeared" }, "geometry": { "type": "LineString", "coordinates": [ [ 144.854883836927257, -37.671857612379043 ], [ 144.854934486124506, -37.671728935347716 ], [ 144.85490241377218, -37.671557245301607 ], [ 144.85458652353006, -37.671076238780167 ], [ 144.854430644137608, -37.67069841668129 ], [ 144.854396943954185, -37.670438037963166 ] ] } },
{ "type": "Feature", "properties": { "gid": 691, "fclass": "trunk", "length": 10.162866449449211, "status": "disappeared" }, "geometry": { "type": "LineString", "coordinates": [ [ 144.877795700371848, -37.698408869211093 ], [ 144.877910946333486, -37.698408986702916 ] ] } },
{ "type": "Feature", "properties": { "gid": 748, "fclass": "trunk", "length": 77.411701823448155, "status": "disappeared" }, "geometry": { "type": "LineString", "coordinates": [ [ 144.852287826843224, -37.673845591870034 ], [ 144.852317507830264, -37.674317668847031 ], [ 144.852401696081444, -37.674532336402798 ] ] } },
{ "type": "Feature", "properties": { "gid": 810, "fclass": "trunk", "length": 24.168644419832205, "status": "disappeared" }, "geometry": { "type": "LineString", "coordinates": [ [ 144.883182630282391, -37.68028800477785 ], [ 144.883279956112091, -37.68021657858408 ], [ 144.883298131054687, -37.680105023418484 ] ] } },
{ "type": "Feature", "properties": { "gid": 819, "fclass": "trunk", "length": 23.000757398350625, "status": "disappeared" }, "geometry": { "type": "LineString", "coordinates": [ [ 144.85245760507766, -37.675402103628336 ], [ 144.85242920407245, -37.675196087479094 ] ] } },
{ "type": "Feature", "properties": { "gid": 858, "fclass": "primary", "length": 26.930343004275628, "status": "disappeared" }, "geometry": { "type": "LineString", "coordinates": [ [ 144.887104187060743, -37.677522467934502 ], [ 144.887212127843924, -37.677571204000053 ], [ 144.88727673554007, -37.677705724558734 ] ] } },
{ "type": "Feature", "properties": { "gid": 868, "fclass": "primary", "length": 2.5400000000372529, "status": "disappeared" }, "geometry": { "type": "LineString", "coordinates": [ [ 144.883697911609374, -37.682371198925559 ], [ 144.883697946789823, -37.68234831223527 ] ] } },
{ "type": "Feature", "properties": { "gid": 870, "fclass": "primary", "length": 2.5400000000372529, "status": "disappeared" }, "geometry": { "type": "LineString", "coordinates": [ [ 144.883697911609374, -37.682371198925559 ], [ 144.883697876428869, -37.682394085615584 ] ] } },
{ "type": "Feature", "properties": { "gid": 889, "fclass": "primary", "length": 16.823688480576394, "status": "disappeared" }, "geometry": { "type": "LineString", "coordinates": [ [ 144.876768218002923, -37.692434410782212 ], [ 144.876778867685005, -37.69252882912113 ], [ 144.876825612846602, -37.692571789637633 ] ] } },
{ "type": "Feature", "properties": { "gid": 903, "fclass": "primary", "length": 43.684144173757247, "status": "disappeared" }, "geometry": { "type": "LineString", "coordinates": [ [ 144.886892709253118, -37.684113648610349 ], [ 144.886948841580164, -37.683899138699644 ], [ 144.886950902706587, -37.683724629474078 ] ] } },
{ "type": "Feature", "properties": { "gid": 907, "fclass": "primary", "length": 25.262503853894501, "status": "disappeared" }, "geometry": { "type": "LineString", "coordinates": [ [ 144.885506936445665, -37.686149248407645 ], [ 144.885625790546413, -37.686132196927041 ], [ 144.885737563868872, -37.686035035153886 ] ] } },
{ "type": "Feature", "properties": { "gid": 917, "fclass": "primary", "length": 44.475488712364111, "status": "disappeared" }, "geometry": { "type": "LineString", "coordinates": [ [ 144.884473864709094, -37.664680453337922 ], [ 144.884444921903338, -37.664774833774842 ], [ 144.884462685231512, -37.664929337314817 ], [ 144.884527399473313, -37.664983756055392 ], [ 144.884617369451291, -37.665001007927245 ] ] } },
{ "type": "Feature", "properties": { "gid": 949, "fclass": "primary", "length": 2.5400000000372529, "status": "disappeared" }, "geometry": { "type": "LineString", "coordinates": [ [ 144.88727670144425, -37.677728611290028 ], [ 144.88727673554007, -37.677705724558734 ] ] } },
{ "type": "Feature", "properties": { "gid": 1016, "fclass": "primary", "length": 22.616142424576072, "status": "disappeared" }, "geometry": { "type": "LineString", "coordinates": [ [ 144.884606690795664, -37.672004371623487 ], [ 144.884588519727885, -37.672115927326765 ], [ 144.884491240487961, -37.672164468022956 ] ] } },
{ "type": "Feature", "properties": { "gid": 1027, "fclass": "primary", "length": 24.837257077516583, "status": "disappeared" }, "geometry": { "type": "LineString", "coordinates": [ [ 144.871316580402322, -37.679429034957487 ], [ 144.871386674078394, -37.679497770499786 ], [ 144.871546820214434, -37.679543715852823 ] ] } },
{ "type": "Feature", "properties": { "gid": 1028, "fclass": "primary", "length": 37.021109669251274, "status": "disappeared" }, "geometry": { "type": "LineString", "coordinates": [ [ 144.880280588111731, -37.693925603267196 ], [ 144.88018881129716, -37.693891181582558 ], [ 144.880061147102595, -37.693778051127595 ], [ 144.87993512497718, -37.693765051170246 ] ] } },
{ "type": "Feature", "properties": { "gid": 1038, "fclass": "primary", "length": 30.589459260853246, "status": "disappeared" }, "geometry": { "type": "LineString", "coordinates": [ [ 144.86109098540561, -37.679463386403157 ], [ 144.860860930034193, -37.679257138570222 ] ] } },
{ "type": "Feature", "properties": { "gid": 1044, "fclass": "primary", "length": 28.202945822401158, "status": "disappeared" }, "geometry": { "type": "LineString", "coordinates": [ [ 144.866857880694226, -37.676036919988469 ], [ 144.867012495522687, -37.676151525676268 ], [ 144.867116866245198, -37.676174528297175 ] ] } },
{ "type": "Feature", "properties": { "gid": 1057, "fclass": "primary", "length": 26.525242513804713, "status": "disappeared" }, "geometry": { "type": "LineString", "coordinates": [ [ 144.883096357951899, -37.680196373638566 ], [ 144.883384297702406, -37.680265314541145 ] ] } },
{ "type": "Feature", "properties": { "gid": 1065, "fclass": "primary", "length": 33.369611009576147, "status": "disappeared" }, "geometry": { "type": "LineString", "coordinates": [ [ 144.859107155979729, -37.67749280748049 ], [ 144.859150089661341, -37.677638761157326 ], [ 144.859308355054026, -37.677721911711728 ] ] } },
{ "type": "Feature", "properties": { "gid": 1100, "fclass": "tertiary", "length": 3.5926092055679342, "status": "disappeared" }, "geometry": { "type": "LineString", "coordinates": [ [ 144.887092917122942, -37.685075079056794 ], [ 144.887064144870266, -37.685052165234268 ] ] } },
{ "type": "Feature", "properties": { "gid": 1101, "fclass": "tertiary", "length": 2.5400000000372529, "status": "disappeared" }, "geometry": { "type": "LineString", "coordinates": [ [ 144.887092917122942, -37.685075079056794 ], [ 144.887092951277651, -37.685052192388945 ] ] } },
{ "type": "Feature", "properties": { "gid": 1115, "fclass": "tertiary", "length": 37.914352028834188, "status": "disappeared" }, "geometry": { "type": "LineString", "coordinates": [ [ 144.88030943410655, -37.693902745464037 ], [ 144.880212214705779, -37.693894065813161 ], [ 144.880066533052059, -37.693788069418481 ], [ 144.87993512497718, -37.693765051170246 ] ] } },
{ "type": "Feature", "properties": { "gid": 1145, "fclass": "tertiary", "length": 35.44458978616565, "status": "disappeared" }, "geometry": { "type": "LineString", "coordinates": [ [ 144.860889818380855, -37.679211398606455 ], [ 144.86087888268176, -37.679284337448543 ], [ 144.86109098540561, -37.679463386403157 ] ] } },
{ "type": "Feature", "properties": { "gid": 1163, "fclass": "tertiary", "length": 32.353187097213997, "status": "disappeared" }, "geometry": { "type": "LineString", "coordinates": [ [ 144.885506936445665, -37.686149248407645 ], [ 144.885647412956246, -37.686120774224008 ], [ 144.885795246526669, -37.685989316775718 ] ] } },
{ "type": "Feature", "properties": { "gid": 1192, "fclass": "tertiary", "length": 18.513018100422489, "status": "disappeared" }, "geometry": { "type": "LineString", "coordinates": [ [ 144.876797101763287, -37.692388667210672 ], [ 144.876768138779454, -37.692483044808469 ], [ 144.876796840852734, -37.692548873414317 ] ] } },
{ "type": "Feature", "properties": { "gid": 1216, "fclass": "tertiary", "length": 68.478873935330753, "status": "disappeared" }, "geometry": { "type": "LineString", "coordinates": [ [ 144.887092985432361, -37.685029305720903 ], [ 144.88735456733329, -37.684677668946762 ], [ 144.887439479415377, -37.684480350941485 ] ] } },
{ "type": "Feature", "properties": { "gid": 1217, "fclass": "tertiary", "length": 3.5926092055679342, "status": "disappeared" }, "geometry": { "type": "LineString", "coordinates": [ [ 144.887092985432361, -37.685029305720903 ], [ 144.887064144870266, -37.685052165234268 ] ] } },
{ "type": "Feature", "properties": { "gid": 1218, "fclass": "tertiary", "length": 2.5400000000372529, "status": "disappeared" }, "geometry": { "type": "LineString", "coordinates": [ [ 144.887092985432361, -37.685029305720903 ], [ 144.887092951277651, -37.685052192388945 ] ] } },
{ "type": "Feature", "properties": { "gid": 1229, "fclass": "tertiary", "length": 28.125126043323103, "status": "disappeared" }, "geometry": { "type": "LineString", "coordinates": [ [ 144.884635562019298, -37.671958625809737 ], [ 144.884550663223763, -37.672151651485514 ], [ 144.884491240487961, -37.672164468022956 ] ] } },
{ "type": "Feature", "properties": { "gid": 1237, "fclass": "tertiary", "length": 25.910046129205799, "status": "disappeared" }, "geometry": { "type": "LineString", "coordinates": [ [ 144.883384332976732, -37.680242427832837 ], [ 144.883096357951899, -37.680196373638566 ] ] } },
{ "type": "Feature", "properties": { "gid": 1273, "fclass": "tertiary", "length": 26.027169723344844, "status": "disappeared" }, "geometry": { "type": "LineString", "coordinates": [ [ 144.871546859069014, -37.679520829141936 ], [ 144.871406462439097, -37.679506374277956 ], [ 144.871287776141827, -37.679429004008952 ] ] } },
{ "type": "Feature", "properties": { "gid": 1276, "fclass": "tertiary", "length": 53.471827043402484, "status": "disappeared" }, "geometry": { "type": "LineString", "coordinates": [ [ 144.88464620311106, -37.664978148831089 ], [ 144.884527399473313, -37.664983756055392 ], [ 144.884455511752236, -37.664912165238668 ], [ 144.884450374074447, -37.664740508722971 ], [ 144.884531531853668, -37.664634735202092 ] ] } },
{ "type": "Feature", "properties": { "gid": 1277, "fclass": "tertiary", "length": 31.772516000949288, "status": "disappeared" }, "geometry": { "type": "LineString", "coordinates": [ [ 144.867116906438014, -37.676151641558768 ], [ 144.867019711358807, -37.676142951144172 ], [ 144.866933385347579, -37.676095651279212 ], [ 144.866868689357204, -37.676032640730838 ], [ 144.866886764186319, -37.675991178523155 ] ] } },
{ "type": "Feature", "properties": { "gid": 1289, "fclass": "tertiary", "length": 52.06385590937132, "status": "disappeared" }, "geometry": { "type": "LineString", "coordinates": [ [ 144.886979776985186, -37.683678883296807 ], [ 144.886916238171807, -37.684030706505702 ], [ 144.886863868979503, -37.684136508083455 ] ] } },
{ "type": "Feature", "properties": { "gid": 1303, "fclass": "tertiary", "length": 37.437554268783032, "status": "disappeared" }, "geometry": { "type": "LineString", "coordinates": [ [ 144.85930839760951, -37.67769902498933 ], [ 144.859135722493193, -37.677620148758542 ], [ 144.859107076074253, -37.677535720088045 ], [ 144.859136044712926, -37.677447067909391 ] ] } },
{ "type": "Feature", "properties": { "gid": 1319, "fclass": "tertiary", "length": 2.5407166122458875, "status": "disappeared" }, "geometry": { "type": "LineString", "coordinates": [ [ 144.887092951277651, -37.685052192388945 ], [ 144.887064144870266, -37.685052165234268 ] ] } },
{ "type": "Feature", "properties": { "gid": 1343, "fclass": "unclassified", "length": 193.52772959399829, "status": "disappeared" }, "geometry": { "type": "LineString", "coordinates": [ [ 144.85179747349116, -37.674211175031402 ], [ 144.851700181742075, -37.674253967365672 ], [ 144.850403759526699, -37.674413993204212 ], [ 144.849950029035085, -37.674460629668246 ], [ 144.84963680337421, -37.674460236853299 ] ] } },
{ "type": "Feature", "properties": { "gid": 1356, "fclass": "unclassified", "length": 277.64020148212563, "status": "disappeared" }, "geometry": { "type": "LineString", "coordinates": [ [ 144.860832998768188, -37.663121892587988 ], [ 144.861301367053073, -37.663886286023718 ], [ 144.86188666092491, -37.664693725210398 ], [ 144.862180846761419, -37.66524334925731 ], [ 144.86226886102952, -37.665343580602645 ] ] } },
{ "type": "Feature", "properties": { "gid": 1420, "fclass": "unclassified", "length": 50.646683906444167, "status": "disappeared" }, "geometry": { "type": "LineString", "coordinates": [ [ 144.876851478850654, -37.694379860003835 ], [ 144.876711268104117, -37.694233813577625 ], [ 144.876709663311516, -37.694113657150012 ], [ 144.876765720084165, -37.693967812589094 ] ] } },
{ "type": "Feature", "properties": { "gid": 1487, "fclass": "unclassified", "length": 412.36729194116953, "status": "disappeared" }, "geometry": { "type": "LineString", "coordinates": [ [ 144.855562763571726, -37.693394847151573 ], [ 144.852439814950458, -37.693755797157039 ], [ 144.851467349724913, -37.693824685769712 ], [ 144.850923566017457, -37.693824010356245 ] ] } },
{ "type": "Feature", "properties": { "gid": 1501, "fclass": "unclassified", "length": 36.547938404664698, "status": "disappeared" }, "geometry": { "type": "LineString", "coordinates": [ [ 144.851558479933203, -37.678582255292042 ], [ 144.851515417199778, -37.678509250344 ], [ 144.851432673389866, -37.678474817589198 ], [ 144.851335395625426, -37.678507596621877 ], [ 144.851270440639865, -37.678581897981665 ] ] } },
{ "type": "Feature", "properties": { "gid": 1502, "fclass": "unclassified", "length": 29.594531583578657, "status": "disappeared" }, "geometry": { "type": "LineString", "coordinates": [ [ 144.852768111391924, -37.678652408568425 ], [ 144.852541235630497, -37.678675016246942 ], [ 144.852451312499539, -37.67862913197677 ] ] } },
{ "type": "Feature", "properties": { "gid": 1503, "fclass": "unclassified", "length": 595.12289569162454, "status": "disappeared" }, "geometry": { "type": "LineString", "coordinates": [ [ 144.850865946552346, -37.693823938644627 ], [ 144.848716343582339, -37.693659606628266 ], [ 144.848176294350338, -37.693593124372953 ], [ 144.846728801084595, -37.693496873877258 ], [ 144.84592951515063, -37.693407162909089 ], [ 144.845627017571132, -37.693405343092756 ], [ 144.844154364056493, -37.693289003240956 ] ] } },
{ "type": "Feature", "properties": { "gid": 1517, "fclass": "unclassified", "length": 84.56889690831467, "status": "disappeared" }, "geometry": { "type": "LineString", "coordinates": [ [ 144.876909098761672, -37.694379919217809 ], [ 144.877157693800513, -37.694312944919261 ], [ 144.877377529504372, -37.694214471564372 ], [ 144.877403194835864, -37.693932706264107 ], [ 144.877457303551154, -37.693876975470488 ] ] } },
{ "type": "Feature", "properties": { "gid": 1532, "fclass": "unclassified", "length": 70.840967146742969, "status": "disappeared" }, "geometry": { "type": "LineString", "coordinates": [ [ 144.849151862705043, -37.672102285217946 ], [ 144.848795850488443, -37.671898715719927 ], [ 144.848432192904994, -37.67191828203454 ] ] } },
{ "type": "Feature", "properties": { "gid": 1558, "fclass": "unclassified", "length": 619.99260371032756, "status": "disappeared" }, "geometry": { "type": "LineString", "coordinates": [ [ 144.868633218905018, -37.665465165374947 ], [ 144.868299768093948, -37.665730859035541 ], [ 144.867995039234529, -37.666039496286608 ], [ 144.867800400004171, -37.666179463657826 ], [ 144.867670735998672, -37.666217942044391 ], [ 144.867195546187077, -37.66621884646564 ], [ 144.866504511007719, -37.666135113265696 ], [ 144.865986637119875, -37.665845588134133 ], [ 144.8655118105969, -37.665643365283906 ], [ 144.864777826878793, -37.665423683035378 ], [ 144.864238018929314, -37.665327233512762 ], [ 144.863849323985221, -37.665276727199917 ], [ 144.863395741773644, -37.66527621067123 ], [ 144.86226886102952, -37.665343580602645 ] ] } },
{ "type": "Feature", "properties": { "gid": 1563, "fclass": "unclassified", "length": 145.20794312736626, "status": "disappeared" }, "geometry": { "type": "LineString", "coordinates": [ [ 144.852286039751874, -37.674761061834261 ], [ 144.852317923268913, -37.675027160191142 ], [ 144.852384378539426, -37.67510448505459 ], [ 144.852771357895932, -37.675133569859419 ], [ 144.852959816364432, -37.675421316737932 ], [ 144.853260436505707, -37.675425976688743 ], [ 144.853350489389555, -37.675403200187397 ] ] } },
{ "type": "Feature", "properties": { "gid": 1589, "fclass": "unclassified", "length": 96.947699382309281, "status": "disappeared" }, "geometry": { "type": "LineString", "coordinates": [ [ 144.884314092804573, -37.675002260211649 ], [ 144.884087399573986, -37.674919076434428 ], [ 144.883612274132986, -37.674842803194807 ], [ 144.883248609220288, -37.674863905622736 ] ] } },
{ "type": "Feature", "properties": { "gid": 1595, "fclass": "unclassified", "length": 537.43684695178285, "status": "disappeared" }, "geometry": { "type": "LineString", "coordinates": [ [ 144.857319568466096, -37.678429049037248 ], [ 144.857434649332106, -37.677545184548393 ], [ 144.857355698480575, -37.677407769900711 ], [ 144.85718849420681, -37.677293136777685 ], [ 144.853192785737406, -37.67689207864084 ], [ 144.852656327310285, -37.676889989492864 ] ] } },
{ "type": "Feature", "properties": { "gid": 1601, "fclass": "unclassified", "length": 77.853076538491351, "status": "disappeared" }, "geometry": { "type": "LineString", "coordinates": [ [ 144.850419896139698, -37.671714799551758 ], [ 144.85036207287763, -37.671826300601445 ], [ 144.850423038254235, -37.671946532590091 ], [ 144.850703530207511, -37.672109951185966 ], [ 144.850908616643807, -37.672173145422079 ] ] } },
{ "type": "Feature", "properties": { "gid": 1627, "fclass": "unclassified", "length": 692.10124964069155, "status": "disappeared" }, "geometry": { "type": "LineString", "coordinates": [ [ 144.883445114702596, -37.659484130644181 ], [ 144.883196970767074, -37.659336554308062 ], [ 144.883002646664522, -37.659302034223231 ], [ 144.880713535321149, -37.659161023846501 ], [ 144.880645075839652, -37.659203868612906 ], [ 144.880596319148879, -37.659306811159517 ], [ 144.880541133408713, -37.660062024457133 ], [ 144.880578834533679, -37.660122140214945 ], [ 144.88074794654591, -37.660166652142316 ], [ 144.883253037092601, -37.660326468153627 ], [ 144.883328675511763, -37.660296502797856 ], [ 144.88335214801981, -37.660247890973494 ], [ 144.883445079456294, -37.659507017529911 ] ] } },
{ "type": "Feature", "properties": { "gid": 1648, "fclass": "unclassified", "length": 380.82481291876928, "status": "disappeared" }, "geometry": { "type": "LineString", "coordinates": [ [ 144.857117725257467, -37.678543242265135 ], [ 144.856718070908983, -37.67854276485965 ], [ 144.855897279156409, -37.678478841596053 ], [ 144.853974232934576, -37.678676771813819 ], [ 144.853520570464298, -37.678676217885929 ], [ 144.85282580833919, -37.678606705941348 ] ] } },
{ "type": "Feature", "properties": { "gid": 1651, "fclass": "unclassified", "length": 34.616298098686237, "status": "disappeared" }, "geometry": { "type": "LineString", "coordinates": [ [ 144.85714648596479, -37.67856616333561 ], [ 144.857216565968201, -37.678634907191537 ], [ 144.857301137112245, -37.678656464317072 ], [ 144.857382161731749, -37.678649408703805 ], [ 144.8574632860375, -37.678589427509785 ] ] } },
{ "type": "Feature", "properties": { "gid": 1663, "fclass": "unclassified", "length": 101.52843903013721, "status": "disappeared" }, "geometry": { "type": "LineString", "coordinates": [ [ 144.885589619041639, -37.688621088884595 ], [ 144.88516829895579, -37.688624977015095 ], [ 144.884923100039259, -37.688843595497083 ], [ 144.884609596495807, -37.688986335605016 ] ] } },
{ "type": "Feature", "properties": { "gid": 1674, "fclass": "unclassified", "length": 155.16219232246866, "status": "disappeared" }, "geometry": { "type": "LineString", "coordinates": [ [ 144.85922053902928, -37.67847707190996 ], [ 144.858820687513713, -37.678582452578333 ], [ 144.858431735398199, -37.678634919148664 ], [ 144.857956467497132, -37.678635786906632 ], [ 144.857492089972453, -37.678589461782749 ] ] } },
{ "type": "Feature", "properties": { "gid": 1676, "fclass": "unclassified", "length": 132.16677375725186, "status": "disappeared" }, "geometry": { "type": "LineString", "coordinates": [ [ 144.849608046502368, -37.674437313944395 ], [ 144.849498766718227, -37.674171117567063 ], [ 144.849352556306258, -37.67346716436456 ], [ 144.849351149178233, -37.673269763829737 ] ] } },
{ "type": "Feature", "properties": { "gid": 1745, "fclass": "unclassified", "length": 30.635241501268297, "status": "disappeared" }, "geometry": { "type": "LineString", "coordinates": [ [ 144.851558435033041, -37.678605142004031 ], [ 144.851468287944016, -37.678673690553524 ], [ 144.851360301178431, -37.67865925236741 ], [ 144.851270395652591, -37.678604784693505 ] ] } }
]
}
