{
"type": "FeatureCollection",
"crs": { "type": "name", "properties": { "name": "urn:ogc:def:crs:OGC:1.3:CRS84" } },
"features": [
{ "type": "Feature", "properties": { "gid": 35, "fclass": "residential", "length": 25.903300245533149, "status": "disappeared" }, "geometry": { "type": "LineString", "coordinates": [ [ 144.783714733163777, -37.692256781290141 ], [ 144.783656460462907, -37.692485542869072 ] ] } },
{ "type": "Feature", "properties": { "gid": 54, "fclass": "residential", "length": 61.476904932139377, "status": "disappeared" }, "geometry": { "type": "LineString", "coordinates": [ [ 144.759204364829571, -37.681224387362192 ], [ 144.759118196110222, -37.681146971191517 ], [ 144.758917596784528, -37.680821861253456 ], [ 144.75883136042637, -37.680765901096997 ] ] } },
{ "type": "Feature", "properties": { "gid": 73, "fclass": "residential", "length": 68.620079858638263, "status": "disappeared" }, "geometry": { "type": "LineString", "coordinates": [ [ 144.767679943192292, -37.69774244610177 ], [ 144.76779862243572, -37.697797031942848 ], [ 144.768099163883505, -37.697854830638015 ], [ 144.768171354127929, -37.697802044987924 ], [ 144.768256517264433, -37.697629129516685 ] ] } },
{ "type": "Feature", "properties": { "gid": 76, "fclass": "residential", "length": 44.747451175436439, "status": "disappeared" }, "geometry": { "type": "LineString", "coordinates": [ [ 144.781544203646092, -37.695662956417337 ], [ 144.781209535201612, -37.695575090354247 ], [ 144.781054691944206, -37.695570516233602 ] ] } },
{ "type": "Feature", "properties": { "gid": 111, "fclass": "residential", "length": 32.510106231538551, "status": "disappeared" }, "geometry": { "type": "LineString", "coordinates": [ [ 144.776040538579281, -37.695950321156168 ], [ 144.776138256576047, -37.695787436378069 ], [ 144.776156593247521, -37.695675898198211 ] ] } },
{ "type": "Feature", "properties": { "gid": 130, "fclass": "residential", "length": 385.70687144776389, "status": "disappeared" }, "geometry": { "type": "LineString", "coordinates": [ [ 144.767697524637299, -37.673253659664788 ], [ 144.767406240063394, -37.673144381788198 ], [ 144.767019849958785, -37.672937649093285 ], [ 144.76662290398491, -37.672652220984943 ], [ 144.764318025364645, -37.671154339544152 ], [ 144.76424786291588, -37.671141327589112 ] ] } },
{ "type": "Feature", "properties": { "gid": 177, "fclass": "residential", "length": 142.85580029983979, "status": "disappeared" }, "geometry": { "type": "LineString", "coordinates": [ [ 144.764190760067095, -37.67098100705072 ], [ 144.764472504603447, -37.670681171192783 ], [ 144.765036306761999, -37.669978507041947 ], [ 144.765115659375169, -37.669930028067348 ] ] } },
{ "type": "Feature", "properties": { "gid": 236, "fclass": "residential", "length": 55.706048947938783, "status": "disappeared" }, "geometry": { "type": "LineString", "coordinates": [ [ 144.774714165164937, -37.696314020821461 ], [ 144.774626787175464, -37.696631408738831 ], [ 144.774678814941325, -37.696695875292626 ], [ 144.77479937066073, -37.696726140681442 ] ] } },
{ "type": "Feature", "properties": { "gid": 298, "fclass": "residential", "length": 36.676715132477952, "status": "disappeared" }, "geometry": { "type": "LineString", "coordinates": [ [ 144.775208162612216, -37.694895976027716 ], [ 144.775103989672004, -37.694807094704565 ], [ 144.775093806795837, -37.694598234779306 ] ] } },
{ "type": "Feature", "properties": { "gid": 316, "fclass": "residential", "length": 176.89315310508385, "status": "disappeared" }, "geometry": { "type": "LineString", "coordinates": [ [ 144.77177492816179, -37.696491551076726 ], [ 144.771927131098323, -37.696775063195574 ], [ 144.772298527570797, -37.697222059213821 ], [ 144.772463416237485, -37.697479847203184 ], [ 144.772387481570775, -37.697581262437616 ], [ 144.772030362048355, -37.697773689483128 ] ] } },
{ "type": "Feature", "properties": { "gid": 321, "fclass": "residential", "length": 23.000757398864874, "status": "disappeared" }, "geometry": { "type": "LineString", "coordinates": [ [ 144.779982784476857, -37.697605463942558 ], [ 144.779953374163881, -37.697811389646525 ] ] } },
{ "type": "Feature", "properties": { "gid": 345, "fclass": "residential", "length": 141.34880499375373, "status": "disappeared" }, "geometry": { "type": "LineString", "coordinates": [ [ 144.776035795410991, -37.697552377486723 ], [ 144.776413780548296, -37.697607439232584 ], [ 144.777234333290835, -37.697800643293135 ], [ 144.777337044781802, -37.697776517171327 ], [ 144.777533703859064, -37.697646714747542 ] ] } },
{ "type": "Feature", "properties": { "gid": 350, "fclass": "residential", "length": 50.387102563434837, "status": "disappeared" }, "geometry": { "type": "LineString", "coordinates": [ [ 144.777161923210031, -37.696707671547408 ], [ 144.777013812541838, -37.696861880830738 ], [ 144.776799202671157, -37.696973053599933 ], [ 144.776728950800134, -37.69698150519374 ] ] } },
{ "type": "Feature", "properties": { "gid": 372, "fclass": "residential", "length": 35.095632051932917, "status": "disappeared" }, "geometry": { "type": "LineString", "coordinates": [ [ 144.772082136042627, -37.690152526128649 ], [ 144.772168664290774, -37.690118360660328 ], [ 144.772203227299457, -37.69000113201799 ], [ 144.772284551835043, -37.689901157286208 ] ] } },
{ "type": "Feature", "properties": { "gid": 435, "fclass": "residential", "length": 39.441790064435473, "status": "disappeared" }, "geometry": { "type": "LineString", "coordinates": [ [ 144.782777924436061, -37.697450357825389 ], [ 144.783209828189399, -37.697542686651616 ] ] } },
{ "type": "Feature", "properties": { "gid": 441, "fclass": "residential", "length": 73.231557944389664, "status": "disappeared" }, "geometry": { "type": "LineString", "coordinates": [ [ 144.79042399621531, -37.683045359137594 ], [ 144.79058260514708, -37.682981267526806 ], [ 144.790972630327786, -37.682565695827037 ] ] } },
{ "type": "Feature", "properties": { "gid": 452, "fclass": "residential", "length": 124.22542129052201, "status": "disappeared" }, "geometry": { "type": "LineString", "coordinates": [ [ 144.779605972625887, -37.698382916896577 ], [ 144.780070332315574, -37.698461012560287 ], [ 144.7802214262272, -37.698518506387281 ], [ 144.780394311713252, -37.698513101740382 ], [ 144.780480928791434, -37.698450322244121 ], [ 144.780615235486295, -37.698087242996699 ] ] } },
{ "type": "Feature", "properties": { "gid": 476, "fclass": "motorway", "length": 305.99732889986421, "status": "disappeared" }, "geometry": { "type": "LineString", "coordinates": [ [ 144.789633645522713, -37.687575547814987 ], [ 144.789520956902038, -37.687309291761608 ], [ 144.789307563677824, -37.686999945891174 ], [ 144.789123361932468, -37.686553330632357 ], [ 144.789061208222591, -37.686244250368141 ], [ 144.789062213234359, -37.685883786117088 ], [ 144.789147885275014, -37.685506305823061 ], [ 144.789150164055997, -37.685334659306598 ], [ 144.789036094888473, -37.684919636317531 ] ] } },
{ "type": "Feature", "properties": { "gid": 482, "fclass": "motorway", "length": 332.15604558439105, "status": "disappeared" }, "geometry": { "type": "LineString", "coordinates": [ [ 144.785512577295719, -37.688140408007342 ], [ 144.785761224526624, -37.688076484053276 ], [ 144.785977317243862, -37.688063996536641 ], [ 144.786431439197685, -37.687921765023312 ], [ 144.786950295517443, -37.687808255325962 ], [ 144.787360953816602, -37.687754629007522 ], [ 144.78800911597628, -37.687757208183463 ], [ 144.788635412880467, -37.687852722561708 ], [ 144.789045623510276, -37.68795929669119 ], [ 144.789171707985162, -37.687940923199243 ] ] } },
{ "type": "Feature", "properties": { "gid": 486, "fclass": "motorway", "length": 352.32217633226384, "status": "disappeared" }, "geometry": { "type": "LineString", "coordinates": [ [ 144.788432314455576, -37.684506610084135 ], [ 144.787989343763741, -37.684533004914535 ], [ 144.78740565731735, -37.684660708386915 ], [ 144.786692437542229, -37.684753848308546 ], [ 144.786044293067079, -37.684754122834264 ], [ 144.785633958139982, -37.684699033214137 ], [ 144.785094247826407, -37.684555024010741 ], [ 144.784813713189777, -37.684440086657141 ], [ 144.784543745423235, -37.684408132110114 ] ] } },
{ "type": "Feature", "properties": { "gid": 498, "fclass": "motorway", "length": 346.35286979606468, "status": "disappeared" }, "geometry": { "type": "LineString", "coordinates": [ [ 144.785109401888718, -37.688093912030311 ], [ 144.785215930102339, -37.687988252012062 ], [ 144.785259531083454, -37.687851009873185 ], [ 144.785340844170861, -37.687748165372305 ], [ 144.785372232432167, -37.68683847438119 ], [ 144.785342452892365, -37.686546615240346 ], [ 144.785276713783503, -37.686237526559495 ], [ 144.785126501817331, -37.685876791159998 ], [ 144.784886270874949, -37.685515893902952 ], [ 144.78474087735276, -37.685361147235142 ], [ 144.784685691723325, -37.685140763174964 ] ] } },
{ "type": "Feature", "properties": { "gid": 500, "fclass": "trunk", "length": 188.99045999301097, "status": "disappeared" }, "geometry": { "type": "LineString", "coordinates": [ [ 144.788193573976656, -37.697757580489899 ], [ 144.788280163698943, -37.697701947374036 ], [ 144.788392379198882, -37.697497596351155 ], [ 144.788489735743127, -37.696811169202597 ], [ 144.788618255333262, -37.696571086308836 ], [ 144.788633092359277, -37.69641662765855 ], [ 144.788831828658459, -37.696179529188576 ] ] } },
{ "type": "Feature", "properties": { "gid": 505, "fclass": "trunk", "length": 81.370890609966082, "status": "disappeared" }, "geometry": { "type": "LineString", "coordinates": [ [ 144.788869390400208, -37.693044123338083 ], [ 144.789016583788566, -37.693207450173695 ], [ 144.789361660084097, -37.693436924067186 ], [ 144.789501732500923, -37.693571629426515 ] ] } },
{ "type": "Feature", "properties": { "gid": 507, "fclass": "trunk", "length": 12.951650122994881, "status": "disappeared" }, "geometry": { "type": "LineString", "coordinates": [ [ 144.779473458335303, -37.694423283169371 ], [ 144.779501934706474, -37.694537768900375 ] ] } },
{ "type": "Feature", "properties": { "gid": 512, "fclass": "trunk", "length": 3.5926092055679342, "status": "disappeared" }, "geometry": { "type": "LineString", "coordinates": [ [ 144.756332265430558, -37.687558213116013 ], [ 144.756361146421938, -37.687535385120697 ] ] } },
{ "type": "Feature", "properties": { "gid": 513, "fclass": "trunk", "length": 2.5407166127115488, "status": "disappeared" }, "geometry": { "type": "LineString", "coordinates": [ [ 144.756332265430558, -37.687558213116013 ], [ 144.756303458143009, -37.687558154516907 ] ] } },
{ "type": "Feature", "properties": { "gid": 514, "fclass": "trunk", "length": 3.592609205897253, "status": "disappeared" }, "geometry": { "type": "LineString", "coordinates": [ [ 144.756332265430558, -37.687558213116013 ], [ 144.756303384421727, -37.687581041104146 ] ] } },
{ "type": "Feature", "properties": { "gid": 517, "fclass": "trunk", "length": 25.148264439634175, "status": "disappeared" }, "geometry": { "type": "LineString", "coordinates": [ [ 144.762787291910513, -37.677684081843175 ], [ 144.762989418469175, -37.677524274237044 ] ] } },
{ "type": "Feature", "properties": { "gid": 518, "fclass": "trunk", "length": 26.255604100627046, "status": "disappeared" }, "geometry": { "type": "LineString", "coordinates": [ [ 144.771276611123653, -37.689784803578142 ], [ 144.771305034427655, -37.689912165157978 ], [ 144.771420098654033, -37.689968171111005 ] ] } },
{ "type": "Feature", "properties": { "gid": 520, "fclass": "trunk", "length": 53.432287951095098, "status": "disappeared" }, "geometry": { "type": "LineString", "coordinates": [ [ 144.772949613012685, -37.68907849802482 ], [ 144.772985957656857, -37.688966994169121 ], [ 144.773164557832587, -37.688850038065887 ], [ 144.773312317776998, -37.688810266006648 ], [ 144.773382485316603, -37.688827563799904 ] ] } },
{ "type": "Feature", "properties": { "gid": 521, "fclass": "trunk", "length": 89.664967711268446, "status": "disappeared" }, "geometry": { "type": "LineString", "coordinates": [ [ 144.779497140734691, -37.686298548475882 ], [ 144.779410557605615, -37.686354175485022 ], [ 144.77925332355565, -37.686558436025408 ], [ 144.77907116239399, -37.686666812188456 ], [ 144.778861584401227, -37.686915318685372 ] ] } },
{ "type": "Feature", "properties": { "gid": 523, "fclass": "trunk", "length": 24.834557976539148, "status": "disappeared" }, "geometry": { "type": "LineString", "coordinates": [ [ 144.783826307186416, -37.693538636466947 ], [ 144.783740037908984, -37.693482694514486 ], [ 144.783682782813315, -37.693355284043903 ] ] } },
{ "type": "Feature", "properties": { "gid": 526, "fclass": "trunk", "length": 24.130295054232761, "status": "disappeared" }, "geometry": { "type": "LineString", "coordinates": [ [ 144.782308487873593, -37.690377525713814 ], [ 144.782362824558732, -37.690266051785571 ], [ 144.782481732982006, -37.690240520210807 ] ] } },
{ "type": "Feature", "properties": { "gid": 527, "fclass": "trunk", "length": 19.344910651990428, "status": "disappeared" }, "geometry": { "type": "LineString", "coordinates": [ [ 144.793582329754628, -37.697377913083258 ], [ 144.793669199896613, -37.697217856298856 ] ] } },
{ "type": "Feature", "properties": { "gid": 529, "fclass": "trunk", "length": 20.482490188439584, "status": "disappeared" }, "geometry": { "type": "LineString", "coordinates": [ [ 144.779932172291353, -37.685292331949178 ], [ 144.780133551345671, -37.685384248705446 ] ] } },
{ "type": "Feature", "properties": { "gid": 532, "fclass": "trunk", "length": 96.756991076247999, "status": "disappeared" }, "geometry": { "type": "LineString", "coordinates": [ [ 144.762665705546368, -37.688898358466453 ], [ 144.762773582305357, -37.688947206421318 ], [ 144.762916760748396, -37.689222130505563 ], [ 144.763130495703848, -37.689389912431778 ], [ 144.763297329009902, -37.689586209696721 ] ] } },
{ "type": "Feature", "properties": { "gid": 545, "fclass": "trunk", "length": 96.271752255662349, "status": "disappeared" }, "geometry": { "type": "LineString", "coordinates": [ [ 144.768978459210473, -37.687651928862209 ], [ 144.769030279474634, -37.687780766632606 ], [ 144.769191862787238, -37.687931272210633 ], [ 144.769351807627714, -37.688028848854252 ], [ 144.769494759818969, -37.688385298642736 ] ] } },
{ "type": "Feature", "properties": { "gid": 551, "fclass": "trunk", "length": 50.234326481223917, "status": "disappeared" }, "geometry": { "type": "LineString", "coordinates": [ [ 144.768825541017492, -37.690558246846933 ], [ 144.768729440721728, -37.690189013239575 ], [ 144.768682828425597, -37.690123123961833 ] ] } },
{ "type": "Feature", "properties": { "gid": 557, "fclass": "trunk", "length": 44.544193730907509, "status": "disappeared" }, "geometry": { "type": "LineString", "coordinates": [ [ 144.760647287637539, -37.680380467968476 ], [ 144.760712450748912, -37.680269025025453 ], [ 144.760874837807194, -37.68015491532416 ], [ 144.760936345600953, -37.680060630053127 ] ] } },
{ "type": "Feature", "properties": { "gid": 558, "fclass": "trunk", "length": 31.828167910607025, "status": "disappeared" }, "geometry": { "type": "LineString", "coordinates": [ [ 144.777843592685031, -37.690232008942132 ], [ 144.777670002895917, -37.690483440613264 ] ] } },
{ "type": "Feature", "properties": { "gid": 565, "fclass": "trunk", "length": 127.90032685464355, "status": "disappeared" }, "geometry": { "type": "LineString", "coordinates": [ [ 144.755156129261763, -37.686022403119743 ], [ 144.755072426466342, -37.685739008445175 ], [ 144.755039719197981, -37.685275484760062 ], [ 144.754892698012839, -37.68508636826472 ], [ 144.754814009021061, -37.68492313906237 ] ] } },
{ "type": "Feature", "properties": { "gid": 569, "fclass": "trunk", "length": 18.491872906974105, "status": "disappeared" }, "geometry": { "type": "LineString", "coordinates": [ [ 144.764944446380213, -37.697233604373487 ], [ 144.765001570643818, -37.697393922962398 ] ] } },
{ "type": "Feature", "properties": { "gid": 577, "fclass": "trunk", "length": 17.960613600221354, "status": "disappeared" }, "geometry": { "type": "LineString", "coordinates": [ [ 144.774457803649995, -37.69532941233696 ], [ 144.774429471104469, -37.695169152378284 ] ] } },
{ "type": "Feature", "properties": { "gid": 591, "fclass": "trunk", "length": 39.344335834542939, "status": "disappeared" }, "geometry": { "type": "LineString", "coordinates": [ [ 144.783556742752495, -37.687061214315968 ], [ 144.783399854238269, -37.687148186387013 ], [ 144.783361762230612, -37.687246816506622 ], [ 144.783267950371169, -37.687312446149413 ] ] } },
{ "type": "Feature", "properties": { "gid": 592, "fclass": "trunk", "length": 38.108584924078457, "status": "disappeared" }, "geometry": { "type": "LineString", "coordinates": [ [ 144.783096681869552, -37.686762854735726 ], [ 144.782968432243507, -37.686908525342801 ], [ 144.782807889099388, -37.687014085488478 ] ] } },
{ "type": "Feature", "properties": { "gid": 593, "fclass": "trunk", "length": 2.5407166122458875, "status": "disappeared" }, "geometry": { "type": "LineString", "coordinates": [ [ 144.756303458143009, -37.687558154516907 ], [ 144.756274650855573, -37.687558095910859 ] ] } },
{ "type": "Feature", "properties": { "gid": 594, "fclass": "trunk", "length": 2.5400000000372529, "status": "disappeared" }, "geometry": { "type": "LineString", "coordinates": [ [ 144.756303458143009, -37.687558154516907 ], [ 144.756303384421727, -37.687581041104146 ] ] } },
{ "type": "Feature", "properties": { "gid": 623, "fclass": "trunk", "length": 12.951650122994881, "status": "disappeared" }, "geometry": { "type": "LineString", "coordinates": [ [ 144.756274208474736, -37.687695415431378 ], [ 144.756303384421727, -37.687581041104146 ] ] } },
{ "type": "Feature", "properties": { "gid": 628, "fclass": "trunk", "length": 46.574868785436983, "status": "disappeared" }, "geometry": { "type": "LineString", "coordinates": [ [ 144.755233593912294, -37.697694778732064 ], [ 144.755265066533042, -37.697428785708276 ], [ 144.755321359862819, -37.697282998274268 ] ] } },
{ "type": "Feature", "properties": { "gid": 639, "fclass": "trunk", "length": 25.91004612975372, "status": "disappeared" }, "geometry": { "type": "LineString", "coordinates": [ [ 144.790795316455814, -37.694603795038454 ], [ 144.79050734326475, -37.694557518519574 ] ] } },
{ "type": "Feature", "properties": { "gid": 643, "fclass": "trunk", "length": 63.805587984228254, "status": "disappeared" }, "geometry": { "type": "LineString", "coordinates": [ [ 144.766441011836349, -37.688425157273883 ], [ 144.766470212433092, -37.688297906797644 ], [ 144.766643269677189, -37.688229583856888 ], [ 144.7667302524614, -37.688048089877022 ], [ 144.766845588188346, -37.68801398431799 ] ] } },
{ "type": "Feature", "properties": { "gid": 653, "fclass": "trunk", "length": 59.702295922444847, "status": "disappeared" }, "geometry": { "type": "LineString", "coordinates": [ [ 144.75564148191566, -37.687373712123367 ], [ 144.755760136206987, -37.687428310104131 ], [ 144.756274650855573, -37.687558095910859 ] ] } },
{ "type": "Feature", "properties": { "gid": 661, "fclass": "trunk", "length": 107.38788809804242, "status": "disappeared" }, "geometry": { "type": "LineString", "coordinates": [ [ 144.775786825880743, -37.684346288041489 ], [ 144.775945530421836, -37.684255037973834 ], [ 144.776080927066715, -37.684130844415989 ], [ 144.776241613081567, -37.683978089496534 ], [ 144.776400705222301, -37.683755240682068 ], [ 144.776566752862493, -37.683615369117803 ] ] } },
{ "type": "Feature", "properties": { "gid": 664, "fclass": "trunk", "length": 3.5926092055679342, "status": "disappeared" }, "geometry": { "type": "LineString", "coordinates": [ [ 144.756274650855573, -37.687558095910859 ], [ 144.756303384421727, -37.687581041104146 ] ] } },
{ "type": "Feature", "properties": { "gid": 675, "fclass": "primary", "length": 16.866221684308634, "status": "disappeared" }, "geometry": { "type": "LineString", "coordinates": [ [ 144.758532430367666, -37.684175429082131 ], [ 144.758478597199314, -37.684119534063051 ], [ 144.758475256731629, -37.684037993223527 ] ] } },
{ "type": "Feature", "properties": { "gid": 682, "fclass": "primary", "length": 17.039799533667978, "status": "disappeared" }, "geometry": { "type": "LineString", "coordinates": [ [ 144.789345958062654, -37.697782498811023 ], [ 144.789432773925142, -37.697645331641795 ] ] } },
{ "type": "Feature", "properties": { "gid": 686, "fclass": "primary", "length": 12.955023064557249, "status": "disappeared" }, "geometry": { "type": "LineString", "coordinates": [ [ 144.761313619020626, -37.679168797116873 ], [ 144.761169670776184, -37.679145623377678 ] ] } },
{ "type": "Feature", "properties": { "gid": 687, "fclass": "primary", "length": 2.5407166127115488, "status": "disappeared" }, "geometry": { "type": "LineString", "coordinates": [ [ 144.761313619020626, -37.679168797116873 ], [ 144.761342423117895, -37.679168854511381 ] ] } },
{ "type": "Feature", "properties": { "gid": 706, "fclass": "primary", "length": 28.079463090978056, "status": "disappeared" }, "geometry": { "type": "LineString", "coordinates": [ [ 144.790415967530436, -37.696342517339204 ], [ 144.790354530814994, -37.696419652264154 ], [ 144.79015635417781, -37.696456496114344 ] ] } },
{ "type": "Feature", "properties": { "gid": 707, "fclass": "primary", "length": 9.1598890896362359, "status": "disappeared" }, "geometry": { "type": "LineString", "coordinates": [ [ 144.755802357837723, -37.691081689324925 ], [ 144.755888931424579, -37.691036092349336 ] ] } },
{ "type": "Feature", "properties": { "gid": 760, "fclass": "primary", "length": 48.260000000242144, "status": "disappeared" }, "geometry": { "type": "LineString", "coordinates": [ [ 144.761462097827547, -37.668618254135509 ], [ 144.761460727108584, -37.669053102415951 ] ] } },
{ "type": "Feature", "properties": { "gid": 763, "fclass": "primary", "length": 17.960613600221354, "status": "disappeared" }, "geometry": { "type": "LineString", "coordinates": [ [ 144.760100722675702, -37.689236550218261 ], [ 144.760130038562494, -37.689076401873358 ] ] } },
{ "type": "Feature", "properties": { "gid": 768, "fclass": "primary", "length": 36.403370823548748, "status": "disappeared" }, "geometry": { "type": "LineString", "coordinates": [ [ 144.762191039881174, -37.693268777441851 ], [ 144.762079709110765, -37.6931712879895 ], [ 144.761845830636162, -37.69310788491066 ] ] } },
{ "type": "Feature", "properties": { "gid": 804, "fclass": "primary", "length": 112.87422215883042, "status": "disappeared" }, "geometry": { "type": "LineString", "coordinates": [ [ 144.790996354102305, -37.694833012474497 ], [ 144.790939089716403, -37.694704175128621 ], [ 144.790842069419426, -37.694626763325687 ], [ 144.790518198499996, -37.694538942091839 ], [ 144.790258928597353, -37.694531336393148 ], [ 144.789931588602144, -37.694396303762147 ] ] } },
{ "type": "Feature", "properties": { "gid": 806, "fclass": "primary", "length": 21.851988984943699, "status": "disappeared" }, "geometry": { "type": "LineString", "coordinates": [ [ 144.760317314969171, -37.684522315163733 ], [ 144.760460838417742, -37.684682809572642 ] ] } },
{ "type": "Feature", "properties": { "gid": 823, "fclass": "primary", "length": 22.618315291917213, "status": "disappeared" }, "geometry": { "type": "LineString", "coordinates": [ [ 144.783400454230275, -37.691340746100913 ], [ 144.783259970604746, -37.69135479620374 ], [ 144.783198530643631, -37.69143192760545 ] ] } },
{ "type": "Feature", "properties": { "gid": 825, "fclass": "primary", "length": 69.05627734225564, "status": "disappeared" }, "geometry": { "type": "LineString", "coordinates": [ [ 144.784052210618142, -37.695141110232015 ], [ 144.784261467998249, -37.695007028127492 ], [ 144.784377491396327, -37.694732597108462 ], [ 144.784514477622764, -37.694684209423592 ] ] } },
{ "type": "Feature", "properties": { "gid": 848, "fclass": "primary", "length": 23.420441339953229, "status": "disappeared" }, "geometry": { "type": "LineString", "coordinates": [ [ 144.789780480254706, -37.686568789792773 ], [ 144.789953766650626, -37.686408886670364 ] ] } },
{ "type": "Feature", "properties": { "gid": 855, "fclass": "primary", "length": 36.091662333066914, "status": "disappeared" }, "geometry": { "type": "LineString", "coordinates": [ [ 144.76098516402115, -37.691961836354075 ], [ 144.760880378850544, -37.692073199893834 ], [ 144.760868987672723, -37.692259131549861 ] ] } },
{ "type": "Feature", "properties": { "gid": 858, "fclass": "primary", "length": 20.728762962268711, "status": "disappeared" }, "geometry": { "type": "LineString", "coordinates": [ [ 144.760059865378452, -37.693035661251002 ], [ 144.759920907029539, -37.693134081704073 ], [ 144.759915382694629, -37.693172691916971 ] ] } },
{ "type": "Feature", "properties": { "gid": 864, "fclass": "primary", "length": 79.098062226712301, "status": "disappeared" }, "geometry": { "type": "LineString", "coordinates": [ [ 144.763399605914913, -37.693728903970964 ], [ 144.763400813829179, -37.69334269361336 ], [ 144.76345944363382, -37.693019534973409 ] ] } },
{ "type": "Feature", "properties": { "gid": 870, "fclass": "primary", "length": 19.506182652211596, "status": "disappeared" }, "geometry": { "type": "LineString", "coordinates": [ [ 144.78393273863378, -37.686535498336688 ], [ 144.784024597436513, -37.68652279019971 ], [ 144.78410584138345, -37.686444263511923 ] ] } },
{ "type": "Feature", "properties": { "gid": 880, "fclass": "primary", "length": 23.420441339902812, "status": "disappeared" }, "geometry": { "type": "LineString", "coordinates": [ [ 144.787986048537533, -37.689563786994938 ], [ 144.788159345586365, -37.689403886649743 ] ] } },
{ "type": "Feature", "properties": { "gid": 881, "fclass": "primary", "length": 21.683808466668022, "status": "disappeared" }, "geometry": { "type": "LineString", "coordinates": [ [ 144.762924258574998, -37.689127737626833 ], [ 144.762838009785497, -37.689071780530647 ], [ 144.762809529296931, -37.688967303480986 ] ] } },
{ "type": "Feature", "properties": { "gid": 883, "fclass": "primary", "length": 18.317790654496516, "status": "disappeared" }, "geometry": { "type": "LineString", "coordinates": [ [ 144.754871028370786, -37.685106349838193 ], [ 144.75498580907734, -37.685243905214264 ] ] } },
{ "type": "Feature", "properties": { "gid": 889, "fclass": "primary", "length": 21.293518716347609, "status": "disappeared" }, "geometry": { "type": "LineString", "coordinates": [ [ 144.772998953846923, -37.68223545511384 ], [ 144.773157249903733, -37.682280098113587 ], [ 144.773200316341615, -37.682327383631367 ] ] } },
{ "type": "Feature", "properties": { "gid": 897, "fclass": "primary", "length": 2.5400000000372529, "status": "disappeared" }, "geometry": { "type": "LineString", "coordinates": [ [ 144.770279825162476, -37.676508571392262 ], [ 144.770279894645569, -37.676485684701056 ] ] } },
{ "type": "Feature", "properties": { "gid": 898, "fclass": "primary", "length": 2.5407166127115488, "status": "disappeared" }, "geometry": { "type": "LineString", "coordinates": [ [ 144.770279825162476, -37.676508571392262 ], [ 144.770251022071278, -37.676508516146946 ] ] } },
{ "type": "Feature", "properties": { "gid": 899, "fclass": "primary", "length": 24.102674400605725, "status": "disappeared" }, "geometry": { "type": "LineString", "coordinates": [ [ 144.755702495883497, -37.68632104634807 ], [ 144.755961535758303, -37.686390234584259 ] ] } },
{ "type": "Feature", "properties": { "gid": 904, "fclass": "primary", "length": 94.91841342842514, "status": "disappeared" }, "geometry": { "type": "LineString", "coordinates": [ [ 144.763782921407767, -37.690914597321729 ], [ 144.763702652352322, -37.691249157043131 ], [ 144.763723025841529, -37.691643992785657 ], [ 144.763693850608917, -37.691761229562609 ] ] } },
{ "type": "Feature", "properties": { "gid": 921, "fclass": "primary", "length": 28.055281872207363, "status": "disappeared" }, "geometry": { "type": "LineString", "coordinates": [ [ 144.757144673377383, -37.685751810018509 ], [ 144.75711667498598, -37.685499998964076 ] ] } },
{ "type": "Feature", "properties": { "gid": 923, "fclass": "primary", "length": 3.592609205897253, "status": "disappeared" }, "geometry": { "type": "LineString", "coordinates": [ [ 144.770251022071278, -37.676508516146946 ], [ 144.770279894645569, -37.676485684701056 ] ] } },
{ "type": "Feature", "properties": { "gid": 932, "fclass": "primary", "length": 34.062088227600931, "status": "disappeared" }, "geometry": { "type": "LineString", "coordinates": [ [ 144.754861462360367, -37.68805872058396 ], [ 144.754859022273877, -37.688256113663094 ], [ 144.754802883122068, -37.688356128221912 ] ] } },
{ "type": "Feature", "properties": { "gid": 966, "fclass": "primary", "length": 11.359866355639788, "status": "disappeared" }, "geometry": { "type": "LineString", "coordinates": [ [ 144.765056633749737, -37.69821795009338 ], [ 144.765113972192978, -37.698309609072247 ] ] } },
{ "type": "Feature", "properties": { "gid": 967, "fclass": "primary", "length": 8.0324118983929989, "status": "disappeared" }, "geometry": { "type": "LineString", "coordinates": [ [ 144.77642624063688, -37.682424995179367 ], [ 144.776454843122849, -37.682493708869728 ] ] } },
{ "type": "Feature", "properties": { "gid": 973, "fclass": "tertiary", "length": 24.104563862582928, "status": "disappeared" }, "geometry": { "type": "LineString", "coordinates": [ [ 144.784134778869145, -37.686398542198624 ], [ 144.784040878904108, -37.686495641560462 ], [ 144.78393273863378, -37.686535498336688 ] ] } },
{ "type": "Feature", "properties": { "gid": 977, "fclass": "tertiary", "length": 28.963535770180663, "status": "disappeared" }, "geometry": { "type": "LineString", "coordinates": [ [ 144.788188281754344, -37.689358164408596 ], [ 144.787986048537533, -37.689563786994938 ] ] } },
{ "type": "Feature", "properties": { "gid": 983, "fclass": "tertiary", "length": 33.588088584280854, "status": "disappeared" }, "geometry": { "type": "LineString", "coordinates": [ [ 144.75711586677707, -37.685751751614717 ], [ 144.757116665801846, -37.6855028597898 ], [ 144.757145628419494, -37.685454284155874 ] ] } },
{ "type": "Feature", "properties": { "gid": 991, "fclass": "tertiary", "length": 26.152640834771287, "status": "disappeared" }, "geometry": { "type": "LineString", "coordinates": [ [ 144.789461712475998, -37.697599609236505 ], [ 144.789317083114781, -37.697805334668196 ] ] } },
{ "type": "Feature", "properties": { "gid": 1017, "fclass": "tertiary", "length": 26.707761879124327, "status": "disappeared" }, "geometry": { "type": "LineString", "coordinates": [ [ 144.783169656264107, -37.69145476203628 ], [ 144.783213066203132, -37.691386180532916 ], [ 144.783400519757635, -37.691317859530592 ] ] } },
{ "type": "Feature", "properties": { "gid": 1022, "fclass": "tertiary", "length": 24.881442794691864, "status": "disappeared" }, "geometry": { "type": "LineString", "coordinates": [ [ 144.762924330294879, -37.68910485104896 ], [ 144.762843415744953, -37.6890703608127 ], [ 144.762809672805787, -37.688921530322418 ] ] } },
{ "type": "Feature", "properties": { "gid": 1026, "fclass": "tertiary", "length": 3.592609205897253, "status": "disappeared" }, "geometry": { "type": "LineString", "coordinates": [ [ 144.763752469002242, -37.691440931404706 ], [ 144.763723731710826, -37.691417988031766 ] ] } },
{ "type": "Feature", "properties": { "gid": 1028, "fclass": "tertiary", "length": 2.5407166127115488, "status": "disappeared" }, "geometry": { "type": "LineString", "coordinates": [ [ 144.763752469002242, -37.691440931404706 ], [ 144.763723660230568, -37.691440874590008 ] ] } },
{ "type": "Feature", "properties": { "gid": 1029, "fclass": "tertiary", "length": 3.592609205897253, "status": "disappeared" }, "geometry": { "type": "LineString", "coordinates": [ [ 144.763752469002242, -37.691440931404706 ], [ 144.763723588750253, -37.69146376114805 ] ] } },
{ "type": "Feature", "properties": { "gid": 1036, "fclass": "tertiary", "length": 26.926102475958608, "status": "disappeared" }, "geometry": { "type": "LineString", "coordinates": [ [ 144.760346266094643, -37.684476599565031 ], [ 144.760338765512643, -37.684570992448606 ], [ 144.760460838417742, -37.684682809572642 ] ] } },
{ "type": "Feature", "properties": { "gid": 1038, "fclass": "tertiary", "length": 47.591139929412591, "status": "disappeared" }, "geometry": { "type": "LineString", "coordinates": [ [ 144.761042926540625, -37.691916178189132 ], [ 144.760858826353513, -37.692055991852257 ], [ 144.76084010623822, -37.692281960591011 ] ] } },
{ "type": "Feature", "properties": { "gid": 1046, "fclass": "tertiary", "length": 25.148264439634175, "status": "disappeared" }, "geometry": { "type": "LineString", "coordinates": [ [ 144.760117629276351, -37.692990003550833 ], [ 144.759915455328638, -37.693149805376081 ] ] } },
{ "type": "Feature", "properties": { "gid": 1057, "fclass": "tertiary", "length": 19.34867448478575, "status": "disappeared" }, "geometry": { "type": "LineString", "coordinates": [ [ 144.755773549208897, -37.691081630598475 ], [ 144.755975431083215, -37.691013381867641 ] ] } },
{ "type": "Feature", "properties": { "gid": 1063, "fclass": "tertiary", "length": 34.545582260866084, "status": "disappeared" }, "geometry": { "type": "LineString", "coordinates": [ [ 144.755990416415614, -37.686367406668268 ], [ 144.75589315181432, -37.686380082301973 ], [ 144.755742086782988, -37.686326848768246 ], [ 144.755616001507804, -37.686343756673118 ] ] } },
{ "type": "Feature", "properties": { "gid": 1064, "fclass": "tertiary", "length": 62.350119813494089, "status": "disappeared" }, "geometry": { "type": "LineString", "coordinates": [ [ 144.763723731710826, -37.691417988031766 ], [ 144.763697340081421, -37.691220538188759 ], [ 144.763811872885213, -37.690868880996227 ] ] } },
{ "type": "Feature", "properties": { "gid": 1065, "fclass": "tertiary", "length": 2.5400000000372529, "status": "disappeared" }, "geometry": { "type": "LineString", "coordinates": [ [ 144.763723731710826, -37.691417988031766 ], [ 144.763723660230568, -37.691440874590008 ] ] } },
{ "type": "Feature", "properties": { "gid": 1080, "fclass": "tertiary", "length": 2.5400000000372529, "status": "disappeared" }, "geometry": { "type": "LineString", "coordinates": [ [ 144.763723660230568, -37.691440874590008 ], [ 144.763723588750253, -37.69146376114805 ] ] } },
{ "type": "Feature", "properties": { "gid": 1082, "fclass": "tertiary", "length": 36.403370823548748, "status": "disappeared" }, "geometry": { "type": "LineString", "coordinates": [ [ 144.762191039881174, -37.693268777441851 ], [ 144.762079709110765, -37.6931712879895 ], [ 144.761845830636162, -37.69310788491066 ] ] } },
{ "type": "Feature", "properties": { "gid": 1084, "fclass": "tertiary", "length": 18.761144860816671, "status": "disappeared" }, "geometry": { "type": "LineString", "coordinates": [ [ 144.768542078061841, -37.689047176622786 ], [ 144.768585499879038, -37.688978600357871 ], [ 144.768686467264104, -37.688933021921812 ] ] } },
{ "type": "Feature", "properties": { "gid": 1085, "fclass": "tertiary", "length": 33.208914449910687, "status": "disappeared" }, "geometry": { "type": "LineString", "coordinates": [ [ 144.754919077314383, -37.688058838468727 ], [ 144.75486488253739, -37.688114513995899 ], [ 144.754855439869829, -37.688250384649173 ], [ 144.754802957298068, -37.68833324164229 ] ] } },
{ "type": "Feature", "properties": { "gid": 1109, "fclass": "tertiary", "length": 33.93459974927147, "status": "disappeared" }, "geometry": { "type": "LineString", "coordinates": [ [ 144.763593048391186, -37.696361252639996 ], [ 144.763535936835183, -37.696198072501794 ], [ 144.763565167673107, -37.696063671073077 ] ] } },
{ "type": "Feature", "properties": { "gid": 1122, "fclass": "tertiary", "length": 84.221478262780067, "status": "disappeared" }, "geometry": { "type": "LineString", "coordinates": [ [ 144.790996354102305, -37.694833012474497 ], [ 144.790924732140041, -37.694686985082164 ], [ 144.790777349770281, -37.694589459503369 ], [ 144.790496598945055, -37.694536043490551 ], [ 144.790219306958875, -37.69453412785392 ] ] } },
{ "type": "Feature", "properties": { "gid": 1129, "fclass": "tertiary", "length": 88.202370336878261, "status": "disappeared" }, "geometry": { "type": "LineString", "coordinates": [ [ 144.763341915031617, -37.693751676702995 ], [ 144.763398190059547, -37.693605885270195 ], [ 144.763432264868442, -37.693073837185814 ], [ 144.763488396112308, -37.692973818762674 ] ] } },
{ "type": "Feature", "properties": { "gid": 1141, "fclass": "tertiary", "length": 23.532236962328746, "status": "disappeared" }, "geometry": { "type": "LineString", "coordinates": [ [ 144.755127100332999, -37.686091004036712 ], [ 144.755004884813786, -37.686024954737107 ], [ 144.755012392194686, -37.685930562239541 ] ] } },
{ "type": "Feature", "properties": { "gid": 1151, "fclass": "tertiary", "length": 56.110563743908806, "status": "disappeared" }, "geometry": { "type": "LineString", "coordinates": [ [ 144.761491042176914, -37.668572537987167 ], [ 144.761431854709343, -37.669075931799327 ] ] } },
{ "type": "Feature", "properties": { "gid": 1157, "fclass": "tertiary", "length": 28.740873644872888, "status": "disappeared" }, "geometry": { "type": "LineString", "coordinates": [ [ 144.789780480254706, -37.686568789792773 ], [ 144.790011443922282, -37.686386101060947 ] ] } },
{ "type": "Feature", "properties": { "gid": 1193, "fclass": "tertiary", "length": 24.097235694737243, "status": "disappeared" }, "geometry": { "type": "LineString", "coordinates": [ [ 144.760158991543875, -37.689030686398773 ], [ 144.760071914746248, -37.689236492525374 ] ] } },
{ "type": "Feature", "properties": { "gid": 1212, "fclass": "tertiary", "length": 33.463438487042517, "status": "disappeared" }, "geometry": { "type": "LineString", "coordinates": [ [ 144.79015635417781, -37.696456496114344 ], [ 144.790334703644902, -37.696426769643431 ], [ 144.790444904988675, -37.696296794673714 ] ] } },
{ "type": "Feature", "properties": { "gid": 1215, "fclass": "tertiary", "length": 2.5400000000372529, "status": "disappeared" }, "geometry": { "type": "LineString", "coordinates": [ [ 144.770279825162476, -37.676508571392262 ], [ 144.770279894645569, -37.676485684701056 ] ] } },
{ "type": "Feature", "properties": { "gid": 1216, "fclass": "tertiary", "length": 2.5407166127115488, "status": "disappeared" }, "geometry": { "type": "LineString", "coordinates": [ [ 144.770279825162476, -37.676508571392262 ], [ 144.770251022071278, -37.676508516146946 ] ] } },
{ "type": "Feature", "properties": { "gid": 1235, "fclass": "tertiary", "length": 3.592609205897253, "status": "disappeared" }, "geometry": { "type": "LineString", "coordinates": [ [ 144.770251022071278, -37.676508516146946 ], [ 144.770279894645569, -37.676485684701056 ] ] } },
{ "type": "Feature", "properties": { "gid": 1252, "fclass": "tertiary", "length": 33.117603187805912, "status": "disappeared" }, "geometry": { "type": "LineString", "coordinates": [ [ 144.763693850608917, -37.691761229562609 ], [ 144.763723588750253, -37.69146376114805 ] ] } },
{ "type": "Feature", "properties": { "gid": 1289, "fclass": "unclassified", "length": 346.49078102128072, "status": "disappeared" }, "geometry": { "type": "LineString", "coordinates": [ [ 144.7745247006645, -37.663219360915164 ], [ 144.774503332290777, -37.663142077272155 ], [ 144.774556500208575, -37.662816038515771 ], [ 144.775052249066079, -37.660130615008853 ] ] } },
{ "type": "Feature", "properties": { "gid": 1336, "fclass": "unclassified", "length": 127.86346488556362, "status": "disappeared" }, "geometry": { "type": "LineString", "coordinates": [ [ 144.780643980434206, -37.698110182259072 ], [ 144.780455523647646, -37.698517505164105 ], [ 144.7802214262272, -37.698518506387281 ], [ 144.779724794770516, -37.698391717897408 ], [ 144.779577161198887, -37.698382863894381 ] ] } },
{ "type": "Feature", "properties": { "gid": 1339, "fclass": "unclassified", "length": 257.26929271231757, "status": "disappeared" }, "geometry": { "type": "LineString", "coordinates": [ [ 144.761122322880937, -37.675895600369145 ], [ 144.76116146626768, -37.676041581999009 ], [ 144.761354749018551, -37.676402434865132 ], [ 144.762960256506602, -37.677638650626363 ] ] } },
{ "type": "Feature", "properties": { "gid": 1394, "fclass": "unclassified", "length": 68.507077254938523, "status": "disappeared" }, "geometry": { "type": "LineString", "coordinates": [ [ 144.768701433282416, -37.655769989793669 ], [ 144.76905807501754, -37.655671977967884 ], [ 144.769274383205385, -37.655559390380645 ], [ 144.769364629477565, -37.655473737974361 ] ] } },
{ "type": "Feature", "properties": { "gid": 1400, "fclass": "unclassified", "length": 31.417308118848869, "status": "disappeared" }, "geometry": { "type": "LineString", "coordinates": [ [ 144.768082878635227, -37.697880546586411 ], [ 144.768169417529435, -37.697846384107265 ], [ 144.768256447149696, -37.697652016023433 ] ] } },
{ "type": "Feature", "properties": { "gid": 1425, "fclass": "unclassified", "length": 45.020602188191155, "status": "disappeared" }, "geometry": { "type": "LineString", "coordinates": [ [ 144.780764067887191, -37.696439677453647 ], [ 144.781253518676834, -37.696555005317926 ] ] } },
{ "type": "Feature", "properties": { "gid": 1429, "fclass": "unclassified", "length": 69.116324704664038, "status": "disappeared" }, "geometry": { "type": "LineString", "coordinates": [ [ 144.758802701640462, -37.680720069803058 ], [ 144.758924766062393, -37.680831888654886 ], [ 144.759193667709013, -37.6811914660965 ], [ 144.759204291991921, -37.681247274006004 ] ] } },
{ "type": "Feature", "properties": { "gid": 1465, "fclass": "unclassified", "length": 507.09466946163343, "status": "disappeared" }, "geometry": { "type": "LineString", "coordinates": [ [ 144.772006379479222, -37.696171578625155 ], [ 144.77111147667469, -37.695566236733825 ], [ 144.77087396893856, -37.695507135681311 ], [ 144.770549852779595, -37.695506515383769 ], [ 144.770225488971562, -37.695587427458946 ], [ 144.770146051870483, -37.695655935059236 ], [ 144.770145738934701, -37.695758924420623 ], [ 144.770299761009909, -37.696033859694936 ], [ 144.77108929754894, -37.696945115192193 ], [ 144.771778065624346, -37.697839008247513 ], [ 144.772029672315909, -37.698002554550982 ] ] } },
{ "type": "Feature", "properties": { "gid": 1489, "fclass": "unclassified", "length": 111.65070673745628, "status": "disappeared" }, "geometry": { "type": "LineString", "coordinates": [ [ 144.773451682447927, -37.656099489293787 ], [ 144.773505904835673, -37.656022348253977 ], [ 144.773684987756468, -37.655115789450726 ] ] } },
{ "type": "Feature", "properties": { "gid": 1516, "fclass": "unclassified", "length": 154.6751904148594, "status": "disappeared" }, "geometry": { "type": "LineString", "coordinates": [ [ 144.777562851499482, -37.697532335678417 ], [ 144.777423617256744, -37.697729474344214 ], [ 144.777299141654282, -37.697806485433567 ], [ 144.776953567460595, -37.697751486830612 ], [ 144.776035863171955, -37.697529490974588 ] ] } },
{ "type": "Feature", "properties": { "gid": 1524, "fclass": "unclassified", "length": 74.108601527971587, "status": "disappeared" }, "geometry": { "type": "LineString", "coordinates": [ [ 144.775150270314583, -37.694987414038394 ], [ 144.775269086607267, -37.694996219469502 ], [ 144.775484929120523, -37.695075297046841 ], [ 144.77578294000017, -37.695377672961143 ] ] } },
{ "type": "Feature", "properties": { "gid": 1544, "fclass": "unclassified", "length": 514.15928880131253, "status": "disappeared" }, "geometry": { "type": "LineString", "coordinates": [ [ 144.768935235488073, -37.673507809255213 ], [ 144.768687216597158, -37.673377161547222 ], [ 144.768449806663199, -37.673309472674234 ], [ 144.767629203702427, -37.673226348993715 ], [ 144.767434971531486, -37.673167324435894 ], [ 144.766960591764359, -37.672890329665186 ], [ 144.764132944090136, -37.671049553828112 ] ] } },
{ "type": "Feature", "properties": { "gid": 1561, "fclass": "unclassified", "length": 41.359473782303006, "status": "disappeared" }, "geometry": { "type": "LineString", "coordinates": [ [ 144.781054691944206, -37.695570516233602 ], [ 144.78151545935512, -37.695640017349511 ] ] } },
{ "type": "Feature", "properties": { "gid": 1563, "fclass": "unclassified", "length": 379.21183359162472, "status": "disappeared" }, "geometry": { "type": "LineString", "coordinates": [ [ 144.772806987133833, -37.659828845731056 ], [ 144.772558619506555, -37.659826943823866 ], [ 144.768909881643822, -37.659410853540287 ], [ 144.768546329157061, -37.659408720969019 ] ] } },
{ "type": "Feature", "properties": { "gid": 1582, "fclass": "unclassified", "length": 152.04419406486252, "status": "disappeared" }, "geometry": { "type": "LineString", "coordinates": [ [ 144.764133015427319, -37.671026667093756 ], [ 144.764241313308787, -37.670932471963873 ], [ 144.765056222643409, -37.669941354926841 ], [ 144.765115730414124, -37.66990714132281 ] ] } },
{ "type": "Feature", "properties": { "gid": 1634, "fclass": "unclassified", "length": 243.33165131730615, "status": "disappeared" }, "geometry": { "type": "LineString", "coordinates": [ [ 144.792297054063567, -37.661809627481851 ], [ 144.792394069093405, -37.661874165220823 ], [ 144.792739506349847, -37.661923398323076 ], [ 144.793452054580541, -37.661994720681925 ], [ 144.793662699309863, -37.661972196879205 ], [ 144.793823166906378, -37.661208621680075 ], [ 144.793847125779706, -37.661002680441776 ], [ 144.793796956713436, -37.660919628891925 ] ] } },
{ "type": "Feature", "properties": { "gid": 1663, "fclass": "unclassified", "length": 128.00521668440743, "status": "disappeared" }, "geometry": { "type": "LineString", "coordinates": [ [ 144.776361175420334, -37.694692153912932 ], [ 144.77542184308237, -37.69449013847985 ], [ 144.774949893058221, -37.694552191198675 ] ] } }
]
}
