{
"type": "FeatureCollection",
"crs": { "type": "name", "properties": { "name": "urn:ogc:def:crs:OGC:1.3:CRS84" } },
"features": [
{ "type": "Feature", "properties": { "gid": 21833, "osm_id": "59253094", "code": 5122.0, "fclass": "residential", "name": "Coopers Hill Drive", "pixel_count": 47, "Var_line": 47.934944152832031, "Edge_contrast": 17.230215072631836, "ROI": 5599.333333333333, "Road_detected": -1, "ROI_norm": -0.45528697401336343, "Pred": 0 }, "geometry": { "type": "LineString", "coordinates": [ [ 144.886861635320059, -37.676795568637885 ], [ 144.886920635339038, -37.676876568633368 ], [ 144.887557135548263, -37.677798168584296 ] ] } },
{ "type": "Feature", "properties": { "gid": 21839, "osm_id": "59283056", "code": 5122.0, "fclass": "residential", "name": "Bateman Street", "pixel_count": 190, "Var_line": 0.0, "Edge_contrast": 1.6189126968383789, "ROI": 760.0, "Road_detected": -1, "ROI_norm": -0.86091281497938577, "Pred": 0 }, "geometry": { "type": "LineString", "coordinates": [ [ 144.883550134335394, -37.672965468886964 ], [ 144.88371293435884, -37.672921668876157 ], [ 144.883881034378874, -37.672838068865254 ], [ 144.883913234383243, -37.672826768863111 ], [ 144.883952534389124, -37.672818368860497 ], [ 144.883993534395898, -37.672815468857728 ], [ 144.884045434405635, -37.672822568854166 ], [ 144.884106234418283, -37.672842268849891 ], [ 144.884292234456495, -37.672898968836911 ], [ 144.88437723447305, -37.672916168831016 ], [ 144.884636534521945, -37.672954068813155 ] ] } },
{ "type": "Feature", "properties": { "gid": 61629, "osm_id": "24821222", "code": 5122.0, "fclass": "residential", "name": "Bay Court", "pixel_count": 50, "Var_line": 34.20111083984375, "Edge_contrast": 42.414867401123047, "ROI": 7782.9999999999991, "Road_detected": -1, "ROI_norm": -0.27225522830676391, "Pred": 0 }, "geometry": { "type": "LineString", "coordinates": [ [ 144.885886035626783, -37.681208868676819 ], [ 144.8861658357078, -37.681512068655941 ] ] } },
{ "type": "Feature", "properties": { "gid": 68023, "osm_id": "755960236", "code": 5113.0, "fclass": "primary", "name": "Mickleham Road", "pixel_count": 105, "Var_line": 51.782768249511719, "Edge_contrast": 9.7853879928588867, "ROI": 7255.3333333333321, "Road_detected": -1, "ROI_norm": -0.3164834764297294, "Pred": 0 }, "geometry": { "type": "LineString", "coordinates": [ [ 144.882054332167087, -37.655219369099065 ], [ 144.882160832205642, -37.655406969090627 ], [ 144.882172732210222, -37.655430769089683 ], [ 144.882221132229063, -37.655527969085796 ], [ 144.882270832248281, -37.655626669081812 ] ] } },
{ "type": "Feature", "properties": { "gid": 68122, "osm_id": "317488747", "code": 5122.0, "fclass": "residential", "name": null, "pixel_count": 50, "Var_line": 15.31812858581543, "Edge_contrast": 7.5110087394714355, "ROI": 1902.6666666666665, "Road_detected": -1, "ROI_norm": -0.76513616648568661, "Pred": 0 }, "geometry": { "type": "LineString", "coordinates": [ [ 144.880653832343626, -37.659108469170121 ], [ 144.880490532427672, -37.660151669174745 ] ] } },
{ "type": "Feature", "properties": { "gid": 72017, "osm_id": "134467641", "code": 5122.0, "fclass": "residential", "name": "Trinity Boulevard", "pixel_count": 110, "Var_line": 0.0, "Edge_contrast": 7.1232213973999023, "ROI": 1128.0, "Road_detected": -1, "ROI_norm": -0.83006759329413371, "Pred": 0 }, "geometry": { "type": "LineString", "coordinates": [ [ 144.883278734394906, -37.673953868899268 ], [ 144.883332334391838, -37.673839268896373 ], [ 144.883455734375701, -37.673491068890115 ], [ 144.883552234341664, -37.673019768886483 ], [ 144.883550134335394, -37.672965468886964 ] ] } },
{ "type": "Feature", "properties": { "gid": 164017, "osm_id": "145256058", "code": 5115.0, "fclass": "tertiary", "name": "Departure Drive", "pixel_count": 75, "Var_line": 59.854846954345703, "Edge_contrast": 27.666116714477539, "ROI": 3068.9999999999995, "Road_detected": -1, "ROI_norm": -0.66737581261186707, "Pred": 0 }, "geometry": { "type": "LineString", "coordinates": [ [ 144.852101828908729, -37.673040571023535 ], [ 144.851950728876545, -37.67298437103414 ], [ 144.851766228837477, -37.672917371047085 ] ] } },
{ "type": "Feature", "properties": { "gid": 163983, "osm_id": "25466874", "code": 5113.0, "fclass": "primary", "name": "Centre Road", "pixel_count": 144, "Var_line": 99.521163940429688, "Edge_contrast": 42.349269866943359, "ROI": 7578.1666666666661, "Road_detected": -1, "ROI_norm": -0.28942405867414372, "Pred": 0 }, "geometry": { "type": "LineString", "coordinates": [ [ 144.853989728885352, -37.669786770915522 ], [ 144.853708128841106, -37.669827570934459 ], [ 144.853643228831942, -37.669846670938739 ], [ 144.853590728825765, -37.669873770942118 ], [ 144.853558428822737, -37.669897570944165 ], [ 144.853534028820434, -37.669915470945725 ], [ 144.853490828817655, -37.669959270948375 ], [ 144.853454328816781, -37.670009570950626 ], [ 144.853416528819167, -37.6700927709526 ] ] } },
{ "type": "Feature", "properties": { "gid": 164009, "osm_id": "70647047", "code": 5121.0, "fclass": "unclassified", "name": null, "pixel_count": 296, "Var_line": 120.90137481689453, "Edge_contrast": 6.350865364074707, "ROI": 17372.333333333332, "Road_detected": -1, "ROI_norm": 0.53150866430313637, "Pred": 0 }, "geometry": { "type": "LineString", "coordinates": [ [ 144.84993912842998, -37.672063471176422 ], [ 144.849851228409022, -37.672009871182723 ], [ 144.849800628397446, -37.671983571186303 ], [ 144.849755328387573, -37.671964571189505 ], [ 144.849487328329872, -37.671858771208349 ], [ 144.849447928321183, -37.671841371211151 ], [ 144.849409828311877, -37.671815871213894 ], [ 144.849374628302826, -37.671788071216447 ], [ 144.849337428292586, -37.671752571219194 ], [ 144.849305928283087, -37.67171487122156 ], [ 144.849272028272139, -37.671667671224142 ], [ 144.849254428264118, -37.671621071225651 ], [ 144.849241328252674, -37.671535871227043 ], [ 144.849239528247438, -37.671489871227472 ], [ 144.849241028243313, -37.671448871227625 ], [ 144.849247128239256, -37.671401571227499 ], [ 144.849252528237628, -37.671377671227205 ], [ 144.849267128237472, -37.671352871226453 ], [ 144.849295128238566, -37.671317871224815 ], [ 144.849554528253805, -37.671042471208914 ], [ 144.849702428261537, -37.670876671199892 ] ] } },
{ "type": "Feature", "properties": { "gid": 164015, "osm_id": "136576718", "code": 5122.0, "fclass": "residential", "name": "Trinity Boulevard", "pixel_count": 1231, "Var_line": 11.342962265014648, "Edge_contrast": 1.356856107711792, "ROI": 10223.333333333332, "Road_detected": -1, "ROI_norm": -0.067710058055196892, "Pred": 0 }, "geometry": { "type": "LineString", "coordinates": [ [ 144.877356432995356, -37.670458469323762 ], [ 144.87693693294753, -37.670688069350874 ], [ 144.876817132930682, -37.670723569358785 ], [ 144.876698332911076, -37.670732169366815 ], [ 144.876597532895033, -37.670745069373567 ], [ 144.876511932884739, -37.670786669379098 ], [ 144.876447332878541, -37.670832769383232 ], [ 144.876386132875496, -37.670902769387006 ], [ 144.876365432880959, -37.670986469387834 ], [ 144.876357532887937, -37.6710644693879 ], [ 144.876390032900645, -37.671130469385268 ], [ 144.876621732979316, -37.671488969367282 ], [ 144.876754833023426, -37.671685769357026 ], [ 144.876862833056805, -37.671822369348838 ], [ 144.876975533085442, -37.671907369340644 ], [ 144.877233033145927, -37.672055969322237 ], [ 144.877270533158793, -37.6721153693193 ], [ 144.877265133164741, -37.67217906931927 ], [ 144.877082833175251, -37.672569669329235 ], [ 144.877055933185687, -37.672709869330198 ], [ 144.877077433203567, -37.672841469327899 ], [ 144.877157933230734, -37.672964569321685 ], [ 144.877275933260734, -37.6730537693131 ], [ 144.877410033287561, -37.673087769303763 ], [ 144.877914233376487, -37.673104669269378 ], [ 144.878000133393641, -37.673125969263459 ], [ 144.878069833413008, -37.673193869258228 ], [ 144.878290533492873, -37.673581869240834 ], [ 144.878676033632473, -37.674259569210449 ], [ 144.87878863366285, -37.674361469202118 ], [ 144.878917433692465, -37.674429469192923 ], [ 144.879067633722514, -37.674467669182491 ], [ 144.87947533379986, -37.674531369154366 ], [ 144.879614833828981, -37.67457806914458 ], [ 144.87975963386134, -37.674645969134311 ], [ 144.879872333892223, -37.674752169125988 ], [ 144.879963433920267, -37.674866769119078 ], [ 144.880035933954758, -37.675070569112876 ], [ 144.880057833964912, -37.675129769111024 ], [ 144.88007883397222, -37.675163969109384 ], [ 144.880116333981931, -37.675193769106642 ], [ 144.880161933991616, -37.675210669103464 ], [ 144.880232234004069, -37.675213369098635 ], [ 144.880271934010608, -37.675210669095961 ], [ 144.88089693411132, -37.675142769053863 ], [ 144.880986534123565, -37.675112569047968 ], [ 144.881118034140229, -37.675056369039389 ], [ 144.881249434152522, -37.674959769031005 ], [ 144.881477434169653, -37.674752769016905 ], [ 144.881771334195236, -37.674518568998288 ], [ 144.882001834220858, -37.674386568983444 ], [ 144.882274034253498, -37.674252768965765 ], [ 144.88250873428504, -37.674168968950319 ], [ 144.882639334302752, -37.674123868941713 ], [ 144.882892434340562, -37.674068568924852 ], [ 144.883198234386498, -37.674004868904447 ], [ 144.883278734394906, -37.673953868899268 ] ] } },
{ "type": "Feature", "properties": { "gid": 164021, "osm_id": "716662057", "code": 5121.0, "fclass": "unclassified", "name": null, "pixel_count": 173, "Var_line": 58.207393646240234, "Edge_contrast": 1.7674661874771118, "ROI": 6281.1666666666661, "Road_detected": -1, "ROI_norm": -0.39813670140721941, "Pred": 0 }, "geometry": { "type": "LineString", "coordinates": [ [ 144.852467829436961, -37.677367270971793 ], [ 144.852401529417278, -37.677290870976769 ], [ 144.852362629404496, -37.677234570979756 ], [ 144.852331829391517, -37.677163470982279 ], [ 144.852290229378355, -37.677107270985474 ], [ 144.852243229365712, -37.67706587098894 ], [ 144.852170829349546, -37.677031870994014 ], [ 144.85205412932504, -37.676991571002176 ], [ 144.851911329297366, -37.676963671012004 ] ] } },
{ "type": "Feature", "properties": { "gid": 164121, "osm_id": "439083785", "code": 5115.0, "fclass": "tertiary", "name": "Departure Drive", "pixel_count": 50, "Var_line": 94.014671325683594, "Edge_contrast": 14.807223320007324, "ROI": 5953.333333333333, "Road_detected": -1, "ROI_norm": -0.42561521184874601, "Pred": 0 }, "geometry": { "type": "LineString", "coordinates": [ [ 144.851565728794242, -37.672837471061186 ], [ 144.851057628685624, -37.672643571096899 ] ] } },
{ "type": "Feature", "properties": { "gid": 164130, "osm_id": "860559313", "code": 5111.0, "fclass": "motorway", "name": "Tullamarine Freeway", "pixel_count": 200, "Var_line": 125.97980499267578, "Edge_contrast": 19.423233032226562, "ROI": 20528.999999999996, "Road_detected": -1, "ROI_norm": 0.79609584669383959, "Pred": 0 }, "geometry": { "type": "LineString", "coordinates": [ [ 144.85512042836649, -37.663139770880157 ], [ 144.85534322845902, -37.663642670861861 ], [ 144.855401928484184, -37.663782870857027 ], [ 144.855511128536392, -37.664092970847669 ], [ 144.855609828593515, -37.664465470838664 ], [ 144.855684928649111, -37.664862570831104 ], [ 144.855702328690256, -37.665217170827709 ], [ 144.855705028719683, -37.665486770825858 ] ] } },
{ "type": "Feature", "properties": { "gid": 183296, "osm_id": "134467639", "code": 5122.0, "fclass": "residential", "name": "Bateman Street", "pixel_count": 200, "Var_line": 8.596257209777832, "Edge_contrast": 3.3221480846405029, "ROI": 720.00000000000011, "Road_detected": -1, "ROI_norm": -0.86426555646691317, "Pred": 0 }, "geometry": { "type": "LineString", "coordinates": [ [ 144.883550134335394, -37.672965468886964 ], [ 144.883375234302349, -37.672939168899028 ], [ 144.883214334270491, -37.672900868910197 ], [ 144.883048034237135, -37.672858468921774 ], [ 144.882865634201949, -37.672824468934401 ], [ 144.882688634171842, -37.672828768946388 ], [ 144.8824901341398, -37.672849968959774 ], [ 144.88194833406493, -37.673024068995545 ] ] } },
{ "type": "Feature", "properties": { "gid": 183349, "osm_id": "292140446", "code": 5121.0, "fclass": "unclassified", "name": "Melrose Drive", "pixel_count": 165, "Var_line": 65.507095336914062, "Edge_contrast": 17.969137191772461, "ROI": 19734.166666666664, "Road_detected": -1, "ROI_norm": 0.72947407938543074, "Pred": 0 }, "geometry": { "type": "LineString", "coordinates": [ [ 144.868977533402102, -37.687697069786147 ], [ 144.86810253316807, -37.68692806985041 ], [ 144.867404232974451, -37.686250969902055 ], [ 144.866216232644007, -37.685088669990002 ], [ 144.86613563262199, -37.685013769995955 ], [ 144.866096832607894, -37.684945069999017 ], [ 144.866092432586839, -37.684756370000493 ] ] } },
{ "type": "Feature", "properties": { "gid": 190438, "osm_id": "16450110", "code": 5121.0, "fclass": "unclassified", "name": "Cargo Road", "pixel_count": 50, "Var_line": 42.095184326171875, "Edge_contrast": 34.550670623779297, "ROI": 16886.166666666668, "Road_detected": -1, "ROI_norm": 0.49075888547348073, "Pred": 0 }, "geometry": { "type": "LineString", "coordinates": [ [ 144.857750931722023, -37.690125770533768 ], [ 144.856981931142286, -37.685971270611788 ] ] } },
{ "type": "Feature", "properties": { "gid": 190439, "osm_id": "16450221", "code": 5113.0, "fclass": "primary", "name": "Centre Road", "pixel_count": 50, "Var_line": 49.627216339111328, "Edge_contrast": 37.035480499267578, "ROI": 6651.1666666666661, "Road_detected": -1, "ROI_norm": -0.36712384264759101, "Pred": 0 }, "geometry": { "type": "LineString", "coordinates": [ [ 144.856130329221457, -37.669472270772175 ], [ 144.855253929080448, -37.669569570831086 ] ] } },
{ "type": "Feature", "properties": { "gid": 190585, "osm_id": "25466927", "code": 5121.0, "fclass": "unclassified", "name": null, "pixel_count": 168, "Var_line": 59.904624938964844, "Edge_contrast": 12.722141265869141, "ROI": 8849.5, "Road_detected": -1, "ROI_norm": -0.18286275839556485, "Pred": 0 }, "geometry": { "type": "LineString", "coordinates": [ [ 144.850265929003427, -37.67687497112432 ], [ 144.850249329000206, -37.676871871125478 ], [ 144.850211028992874, -37.676864871128117 ], [ 144.850183828987241, -37.676856271130021 ], [ 144.850153028980145, -37.67683997113221 ], [ 144.850132528975109, -37.676825771133686 ], [ 144.850094928964921, -37.676791971136446 ], [ 144.850052728952392, -37.676742871139638 ], [ 144.850027928942922, -37.676694871141649 ], [ 144.849991128919697, -37.676537671145127 ], [ 144.849922428870428, -37.676189771151897 ], [ 144.849807628788085, -37.675608071163317 ] ] } },
{ "type": "Feature", "properties": { "gid": 192666, "osm_id": "569714123", "code": 5113.0, "fclass": "primary", "name": "Mickleham Road", "pixel_count": 75, "Var_line": 110.39083862304688, "Edge_contrast": 21.489770889282227, "ROI": 10075.5, "Road_detected": -1, "ROI_norm": -0.080101231802850115, "Pred": 0 }, "geometry": { "type": "LineString", "coordinates": [ [ 144.884064134950989, -37.677857768821589 ], [ 144.884165134907079, -37.677287768818253 ], [ 144.88425013486895, -37.676797268815534 ] ] } },
{ "type": "Feature", "properties": { "gid": 192783, "osm_id": "24866123", "code": 5122.0, "fclass": "residential", "name": "Braemar Close", "pixel_count": 57, "Var_line": 63.055248260498047, "Edge_contrast": 27.881647109985352, "ROI": 8213.3333333333321, "Road_detected": -1, "ROI_norm": -0.23618531780344837, "Pred": 0 }, "geometry": { "type": "LineString", "coordinates": [ [ 144.887477636258495, -37.684519568547934 ], [ 144.886791336110207, -37.684244168596351 ], [ 144.886687836090175, -37.684224568603533 ] ] } },
{ "type": "Feature", "properties": { "gid": 196089, "osm_id": "776125425", "code": 5115.0, "fclass": "tertiary", "name": "Arrival Drive", "pixel_count": 53, "Var_line": 49.16082763671875, "Edge_contrast": 29.663537979125977, "ROI": 2925.8333333333335, "Road_detected": -1, "ROI_norm": -0.67937583318597539, "Pred": 0 }, "geometry": { "type": "LineString", "coordinates": [ [ 144.853021628669268, -37.669332670984161 ], [ 144.853084528681052, -37.669340870979831 ], [ 144.853143228692744, -37.669355770975741 ], [ 144.853173528699472, -37.669369470973585 ] ] } },
{ "type": "Feature", "properties": { "gid": 196128, "osm_id": "59281815", "code": 5122.0, "fclass": "residential", "name": "Maddingley Road", "pixel_count": 209, "Var_line": 3.0365047454833984, "Edge_contrast": 5.1081938743591309, "ROI": 3259.166666666667, "Road_detected": -1, "ROI_norm": -0.65143632078991387, "Pred": 0 }, "geometry": { "type": "LineString", "coordinates": [ [ 144.879067633722514, -37.674467669182491 ], [ 144.879164133708144, -37.674178969177724 ], [ 144.879276833706996, -37.673987869171214 ], [ 144.87944313371338, -37.673779869161223 ], [ 144.880102933765244, -37.67320236911992 ], [ 144.880247833767442, -37.672990069111421 ], [ 144.880574933747766, -37.672282069093583 ], [ 144.880853933730918, -37.671678069078354 ], [ 144.880891533734655, -37.67165256907596 ] ] } },
{ "type": "Feature", "properties": { "gid": 196129, "osm_id": "59281819", "code": 5122.0, "fclass": "residential", "name": "Wolfson Court", "pixel_count": 75, "Var_line": 0.0, "Edge_contrast": 0.0, "ROI": 859.33333333333348, "Road_detected": -1, "ROI_norm": -0.85258684028535936, "Pred": 0 }, "geometry": { "type": "LineString", "coordinates": [ [ 144.878049333322281, -37.672383869264692 ], [ 144.878212633355162, -37.672427269253291 ], [ 144.878367233386115, -37.672466869242534 ] ] } },
{ "type": "Feature", "properties": { "gid": 196133, "osm_id": "82480251", "code": 5113.0, "fclass": "primary", "name": "Mickleham Road", "pixel_count": 100, "Var_line": 54.644046783447266, "Edge_contrast": 17.837244033813477, "ROI": 7551.1666666666661, "Road_detected": -1, "ROI_norm": -0.29168715917822469, "Pred": 0 }, "geometry": { "type": "LineString", "coordinates": [ [ 144.885612434214949, -37.668536368774213 ], [ 144.8856063342391, -37.668770868773166 ], [ 144.885587434328841, -37.66963436876911 ], [ 144.885585134343074, -37.669769968768428 ] ] } },
{ "type": "Feature", "properties": { "gid": 196163, "osm_id": "325722389", "code": 5115.0, "fclass": "tertiary", "name": "Departure Drive", "pixel_count": 166, "Var_line": 81.278358459472656, "Edge_contrast": 3.9022481441497803, "ROI": 13900.5, "Road_detected": -1, "ROI_norm": 0.24050467294195682, "Pred": 0 }, "geometry": { "type": "LineString", "coordinates": [ [ 144.85388112888586, -37.669965570921789 ], [ 144.854058228942279, -37.670206570908327 ], [ 144.854202128991091, -37.670429070897164 ], [ 144.854250629005463, -37.670484770893523 ], [ 144.854298429017859, -37.67052357089004 ], [ 144.854362529033637, -37.670567170885427 ], [ 144.854434429049462, -37.670598970880334 ], [ 144.854497529062911, -37.670622270875882 ], [ 144.854575829077845, -37.6706353708705 ] ] } },
{ "type": "Feature", "properties": { "gid": 196205, "osm_id": "527444390", "code": 5121.0, "fclass": "unclassified", "name": null, "pixel_count": 100, "Var_line": 67.321929931640625, "Edge_contrast": 29.516605377197266, "ROI": 4851.833333333333, "Road_detected": -1, "ROI_norm": -0.51794133056153158, "Pred": 0 }, "geometry": { "type": "LineString", "coordinates": [ [ 144.852050129028072, -37.674234271019607 ], [ 144.852107129068713, -37.674520971013983 ], [ 144.852170929114038, -37.674840371007654 ], [ 144.852217429144787, -37.6750507710032 ] ] } },
{ "type": "Feature", "properties": { "gid": 196237, "osm_id": "580734032", "code": 5121.0, "fclass": "unclassified", "name": "Terminal 4 Pick Up Ramp", "pixel_count": 121, "Var_line": 63.203754425048828, "Edge_contrast": 19.644247055053711, "ROI": 13485.333333333332, "Road_detected": -1, "ROI_norm": 0.20570601025266197, "Pred": 0 }, "geometry": { "type": "LineString", "coordinates": [ [ 144.852307229202779, -37.675446770994625 ], [ 144.851901229122689, -37.675354371022735 ], [ 144.850642028895351, -37.675264271108766 ], [ 144.850509928870167, -37.675242271117895 ], [ 144.850389828846659, -37.675216571126235 ] ] } },
{ "type": "Feature", "properties": { "gid": 196289, "osm_id": "5136524", "code": 5113.0, "fclass": "primary", "name": "Centre Road", "pixel_count": 262, "Var_line": 72.754302978515625, "Edge_contrast": 24.014976501464844, "ROI": 11092.5, "Road_detected": -1, "ROI_norm": 0.0051422205175336915, "Pred": 0 }, "geometry": { "type": "LineString", "coordinates": [ [ 144.852101828908729, -37.673040571023535 ], [ 144.852073328910564, -37.673103471025065 ], [ 144.852041328912065, -37.67316907102682 ], [ 144.852021028913015, -37.673210671027952 ], [ 144.851956628917065, -37.673351771031449 ], [ 144.851905728922389, -37.673483471034096 ], [ 144.851890928934381, -37.673618271034258 ], [ 144.851897628950979, -37.673761571032912 ], [ 144.851967329002576, -37.674130271025874 ], [ 144.851989129018705, -37.674245271023686 ], [ 144.852079329079373, -37.67466497101497 ], [ 144.852099329092852, -37.674757971013022 ] ] } },
{ "type": "Feature", "properties": { "gid": 196291, "osm_id": "16448449", "code": 5113.0, "fclass": "primary", "name": "Airport Drive", "pixel_count": 173, "Var_line": 70.068367004394531, "Edge_contrast": 29.632139205932617, "ROI": 6040.6666666666661, "Road_detected": -1, "ROI_norm": -0.41829505960097785, "Pred": 0 }, "geometry": { "type": "LineString", "coordinates": [ [ 144.863021931768742, -37.6820859702257 ], [ 144.862885631720758, -37.681858770236374 ], [ 144.862679131664265, -37.681665570251596 ], [ 144.862577031636732, -37.681573670259084 ], [ 144.862327731564704, -37.681304770277684 ], [ 144.862033931482614, -37.681013370299482 ], [ 144.861389831297799, -37.680330470347471 ] ] } },
{ "type": "Feature", "properties": { "gid": 196294, "osm_id": "25466939", "code": 5121.0, "fclass": "unclassified", "name": "Francis Briggs Road", "pixel_count": 141, "Var_line": 21.900911331176758, "Edge_contrast": 22.017173767089844, "ROI": 4761.1666666666661, "Road_detected": -1, "ROI_norm": -0.52554087793326032, "Pred": 0 }, "geometry": { "type": "LineString", "coordinates": [ [ 144.853316829531906, -37.676885270917147 ], [ 144.85309352949335, -37.676885370932297 ], [ 144.852937429466351, -37.676885670942873 ], [ 144.852848929451312, -37.676887870948882 ], [ 144.852798229442925, -37.676891370952255 ], [ 144.852749329435227, -37.676898370955584 ], [ 144.852710129429369, -37.676906770958198 ], [ 144.852676129424481, -37.676916070960431 ], [ 144.852584329410178, -37.676930870966586 ] ] } },
{ "type": "Feature", "properties": { "gid": 196301, "osm_id": "59252336", "code": 5122.0, "fclass": "residential", "name": "Douglas Court", "pixel_count": 156, "Var_line": 26.030746459960938, "Edge_contrast": 3.657738208770752, "ROI": 16759.5, "Road_detected": -1, "ROI_norm": 0.48014187076297721, "Pred": 0 }, "geometry": { "type": "LineString", "coordinates": [ [ 144.879160134369357, -37.68032826913975 ], [ 144.879394334285024, -37.679168969131013 ], [ 144.879405134277306, -37.679079769130858 ], [ 144.879379634270236, -37.679055069132744 ], [ 144.879356834263945, -37.679033069134441 ], [ 144.879265634244518, -37.678999169140845 ], [ 144.878538134109391, -37.678911969190843 ], [ 144.877919133994453, -37.678837769233375 ] ] } },
{ "type": "Feature", "properties": { "gid": 196302, "osm_id": "59252337", "code": 5122.0, "fclass": "residential", "name": "Jamesina Court", "pixel_count": 162, "Var_line": 3.6145989894866943, "Edge_contrast": 0.99419629573822021, "ROI": 2869.333333333333, "Road_detected": -1, "ROI_norm": -0.68411158053710797, "Pred": 0 }, "geometry": { "type": "LineString", "coordinates": [ [ 144.878538134109391, -37.678911969190843 ], [ 144.878428734150162, -37.679466169194839 ], [ 144.878380534148221, -37.67952556919775 ], [ 144.878300034136117, -37.679542569203115 ], [ 144.878192734116652, -37.679534069210476 ], [ 144.878080134093523, -37.679500069218356 ], [ 144.877994234075913, -37.679474669224362 ], [ 144.877886934056477, -37.679466169231681 ] ] } },
{ "type": "Feature", "properties": { "gid": 204386, "osm_id": "27613515", "code": 5122.0, "fclass": "residential", "name": "Londrew Court", "pixel_count": 71, "Var_line": 45.645488739013672, "Edge_contrast": 30.428873062133789, "ROI": 8146.8333333333321, "Road_detected": -1, "ROI_norm": -0.24175925052646266, "Pred": 0 }, "geometry": { "type": "LineString", "coordinates": [ [ 144.880982736174161, -37.694162768929843 ], [ 144.880282736044336, -37.694081268977925 ], [ 144.880154036024265, -37.694101668986548 ] ] } },
{ "type": "Feature", "properties": { "gid": 210859, "osm_id": "749113565", "code": 5121.0, "fclass": "unclassified", "name": "Link Road", "pixel_count": 30, "Var_line": 0.0, "Edge_contrast": 22.628381729125977, "ROI": 3056.0, "Road_detected": -1, "ROI_norm": -0.6684654535953134, "Pred": 0 }, "geometry": { "type": "LineString", "coordinates": [ [ 144.846883530204565, -37.69349377125063 ], [ 144.846933730213522, -37.693496371247214 ] ] } },
{ "type": "Feature", "properties": { "gid": 211468, "osm_id": "538932277", "code": 5122.0, "fclass": "residential", "name": "Peas Hill Court", "pixel_count": 75, "Var_line": 2.100210428237915, "Edge_contrast": 2.0468666553497314, "ROI": 4121.3333333333339, "Road_detected": -1, "ROI_norm": -0.57917077197750044, "Pred": 0 }, "geometry": { "type": "LineString", "coordinates": [ [ 144.876840432885217, -37.670263569360067 ], [ 144.877067832850827, -37.669578669348851 ], [ 144.877169632845437, -37.66936566934325 ] ] } },
{ "type": "Feature", "properties": { "gid": 211469, "osm_id": "578658529", "code": 5113.0, "fclass": "primary", "name": "Mickleham Road", "pixel_count": 50, "Var_line": 86.904838562011719, "Edge_contrast": 42.536411285400391, "ROI": 3796.0, "Road_detected": -1, "ROI_norm": -0.60643973607605672, "Pred": 0 }, "geometry": { "type": "LineString", "coordinates": [ [ 144.884329235006504, -37.677947768803016 ], [ 144.884314235018024, -37.678078868803212 ] ] } },
{ "type": "Feature", "properties": { "gid": 211509, "osm_id": "27592686", "code": 5121.0, "fclass": "unclassified", "name": "Sperry Drive", "pixel_count": 197, "Var_line": 22.146812438964844, "Edge_contrast": 10.546622276306152, "ROI": 12753.0, "Road_detected": -1, "ROI_norm": 0.14432290151851473, "Pred": 0 }, "geometry": { "type": "LineString", "coordinates": [ [ 144.874163435064332, -37.69480836938942 ], [ 144.874290735111003, -37.695037669379396 ], [ 144.874342235130115, -37.69513266937529 ], [ 144.874460135186638, -37.69546786936521 ], [ 144.87457403524121, -37.695791469355449 ], [ 144.873671935109257, -37.696015669415381 ], [ 144.873502935083906, -37.696051469426642 ], [ 144.873149235019639, -37.69602236945088 ] ] } },
{ "type": "Feature", "properties": { "gid": 211533, "osm_id": "44097172", "code": 5122.0, "fclass": "residential", "name": "Haddon Hall Drive", "pixel_count": 75, "Var_line": 0.0, "Edge_contrast": 0.0, "ROI": 238.0, "Road_detected": -1, "ROI_norm": -0.90466609139161824, "Pred": 0 }, "geometry": { "type": "LineString", "coordinates": [ [ 144.88212533395108, -37.671682268991873 ], [ 144.88215753393834, -37.671512468990727 ], [ 144.882166633929074, -37.671411268990738 ] ] } },
{ "type": "Feature", "properties": { "gid": 211572, "osm_id": "59281818", "code": 5122.0, "fclass": "residential", "name": "Wolfson Court", "pixel_count": 50, "Var_line": 6.3434929847717285, "Edge_contrast": 10.684814453125, "ROI": 1452.0, "Road_detected": -1, "ROI_norm": -0.80291038724516184, "Pred": 0 }, "geometry": { "type": "LineString", "coordinates": [ [ 144.877914233376487, -37.673104669269378 ], [ 144.878212633355162, -37.672427269253291 ] ] } },
{ "type": "Feature", "properties": { "gid": 211599, "osm_id": "59281809", "code": 5122.0, "fclass": "residential", "name": "Peterborough Court", "pixel_count": 123, "Var_line": 17.182933807373047, "Edge_contrast": 4.6675176620483398, "ROI": 1640.0000000000002, "Road_detected": -1, "ROI_norm": -0.78715250225378308, "Pred": 0 }, "geometry": { "type": "LineString", "coordinates": [ [ 144.878290533492873, -37.673581869240834 ], [ 144.878434633514416, -37.673550569231224 ], [ 144.878552633526567, -37.673474069223722 ], [ 144.878659933535062, -37.673380669216961 ], [ 144.87922853355974, -37.672697069182561 ] ] } },
{ "type": "Feature", "properties": { "gid": 211600, "osm_id": "59281811", "code": 5122.0, "fclass": "residential", "name": "Peterborough Court", "pixel_count": 75, "Var_line": 0.0, "Edge_contrast": 0.0, "ROI": 570.66666666666674, "Road_detected": -1, "ROI_norm": -0.87678245802034882, "Pred": 0 }, "geometry": { "type": "LineString", "coordinates": [ [ 144.879030033520451, -37.672650369196361 ], [ 144.87922853355974, -37.672697069182561 ], [ 144.879372433588372, -37.672731769172572 ] ] } },
{ "type": "Feature", "properties": { "gid": 211602, "osm_id": "59281813", "code": 5122.0, "fclass": "residential", "name": "Trumpington Terrace", "pixel_count": 296, "Var_line": 5.2014713287353516, "Edge_contrast": 1.9179713726043701, "ROI": 3737.5, "Road_detected": -1, "ROI_norm": -0.61134312050156547, "Pred": 0 }, "geometry": { "type": "LineString", "coordinates": [ [ 144.881880533848914, -37.671125969011968 ], [ 144.881599633782059, -37.670956169032152 ], [ 144.88143873374608, -37.67087976904353 ], [ 144.881261633709499, -37.670824569055931 ], [ 144.879858233425381, -37.670437769153772 ], [ 144.878636533176149, -37.670083169239049 ], [ 144.878466033143866, -37.670057169250747 ], [ 144.878323233118749, -37.670052969260539 ], [ 144.87818783309703, -37.670068769269683 ], [ 144.878059033078017, -37.670098869278227 ], [ 144.877925633060585, -37.670150769286963 ], [ 144.877356432995356, -37.670458469323762 ] ] } },
{ "type": "Feature", "properties": { "gid": 211603, "osm_id": "59281816", "code": 5122.0, "fclass": "residential", "name": "Threadneedle Street", "pixel_count": 185, "Var_line": 7.8152751922607422, "Edge_contrast": 3.9736013412475586, "ROI": 1608.166666666667, "Road_detected": -1, "ROI_norm": -0.78982072568760686, "Pred": 0 }, "geometry": { "type": "LineString", "coordinates": [ [ 144.876754833023426, -37.671685769357026 ], [ 144.877793733150128, -37.671194869289451 ], [ 144.878386333223204, -37.670922269250838 ], [ 144.878536533247342, -37.670905269240748 ], [ 144.878676033273706, -37.670926469231148 ], [ 144.880794933704294, -37.671525169083274 ], [ 144.880843233717229, -37.671567669079757 ], [ 144.880891533734655, -37.67165256907596 ] ] } },
{ "type": "Feature", "properties": { "gid": 211604, "osm_id": "59281817", "code": 5122.0, "fclass": "residential", "name": "Sidgewick Street", "pixel_count": 150, "Var_line": 3.9462578296661377, "Edge_contrast": 1.5176372528076172, "ROI": 980.66666666666674, "Road_detected": -1, "ROI_norm": -0.84241685777319308, "Pred": 0 }, "geometry": { "type": "LineString", "coordinates": [ [ 144.877793733150128, -37.671194869289451 ], [ 144.87789813318409, -37.671342569281428 ], [ 144.878026933218678, -37.671457269271961 ], [ 144.878182533257416, -37.671567669260732 ], [ 144.878370233298085, -37.671644069247449 ], [ 144.880574933747766, -37.672282069093583 ] ] } },
{ "type": "Feature", "properties": { "gid": 211606, "osm_id": "59281821", "code": 5122.0, "fclass": "residential", "name": "Kings College Court", "pixel_count": 125, "Var_line": 7.1313352584838867, "Edge_contrast": 3.7494938373565674, "ROI": 2111.6666666666665, "Road_detected": -1, "ROI_norm": -0.74761809221335607, "Pred": 0 }, "geometry": { "type": "LineString", "coordinates": [ [ 144.881771334195236, -37.674518568998288 ], [ 144.881626434156487, -37.674391269008936 ], [ 144.88147083410766, -37.674187469020779 ], [ 144.881057833947636, -37.673363669054019 ], [ 144.881047133932071, -37.673236369055516 ] ] } },
{ "type": "Feature", "properties": { "gid": 211619, "osm_id": "59283055", "code": 5122.0, "fclass": "residential", "name": "Marjon Court", "pixel_count": 258, "Var_line": 0.0, "Edge_contrast": 1.6904857158660889, "ROI": 8304.1666666666661, "Road_detected": -1, "ROI_norm": -0.22857180067552155, "Pred": 0 }, "geometry": { "type": "LineString", "coordinates": [ [ 144.883278734394906, -37.673953868899268 ], [ 144.883442834427058, -37.673988768887895 ], [ 144.883551334446423, -37.673994168880498 ], [ 144.8837304344774, -37.673994668868289 ], [ 144.883985234523635, -37.674015368850846 ], [ 144.884116634547752, -37.674028168841829 ], [ 144.884257434574266, -37.674048268832117 ], [ 144.88438703459704, -37.674052468823284 ], [ 144.884451434605921, -37.674031268819029 ], [ 144.884488934606878, -37.673980268816791 ], [ 144.884628434549654, -37.673224468811988 ], [ 144.884547934528399, -37.673156568817902 ] ] } },
{ "type": "Feature", "properties": { "gid": 211738, "osm_id": "784215913", "code": 5113.0, "fclass": "primary", "name": "Mickleham Road", "pixel_count": 40, "Var_line": 55.485939025878906, "Edge_contrast": 36.346378326416016, "ROI": 5332.3333333333339, "Road_detected": -1, "ROI_norm": -0.47766652344260868, "Pred": 0 }, "geometry": { "type": "LineString", "coordinates": [ [ 144.880882731759982, -37.653316069190602 ], [ 144.881343931913733, -37.654004969154975 ], [ 144.881415631937585, -37.654111569149393 ], [ 144.881735132048647, -37.65463106912442 ], [ 144.881826032081847, -37.654793669117247 ], [ 144.882054332167087, -37.655219369099065 ] ] } },
{ "type": "Feature", "properties": { "gid": 234390, "osm_id": "25467017", "code": 5121.0, "fclass": "unclassified", "name": "Apac Drive", "pixel_count": 88, "Var_line": 20.895750045776367, "Edge_contrast": 4.2523183822631836, "ROI": 3622.0, "Road_detected": -1, "ROI_norm": -0.62102416154680085, "Pred": 0 }, "geometry": { "type": "LineString", "coordinates": [ [ 144.852115629508603, -37.678600670988033 ], [ 144.852020229491103, -37.678591070994578 ], [ 144.8518054294519, -37.678572071009278 ], [ 144.851714829435366, -37.678563571015452 ] ] } },
{ "type": "Feature", "properties": { "gid": 234394, "osm_id": "655952906", "code": 5122.0, "fclass": "residential", "name": "Strathconnon Square", "pixel_count": 50, "Var_line": 29.686017990112305, "Edge_contrast": 10.808557510375977, "ROI": 3640.166666666667, "Road_detected": -1, "ROI_norm": -0.61950145812121549, "Pred": 0 }, "geometry": { "type": "LineString", "coordinates": [ [ 144.87075123367589, -37.687391069667541 ], [ 144.87078803366947, -37.687272969665734 ] ] } },
{ "type": "Feature", "properties": { "gid": 255560, "osm_id": "44097184", "code": 5122.0, "fclass": "residential", "name": "Haddon Hall Drive", "pixel_count": 250, "Var_line": 1.2483178377151489, "Edge_contrast": 1.5313514471054077, "ROI": 1967.0000000000002, "Road_detected": -1, "ROI_norm": -0.75974384059324673, "Pred": 0 }, "geometry": { "type": "LineString", "coordinates": [ [ 144.88212533395108, -37.671682268991873 ], [ 144.881996633941611, -37.67180116899987 ], [ 144.88188933393684, -37.671928569006376 ], [ 144.8818142339357, -37.672038969010792 ], [ 144.881760533943321, -37.672196069013467 ], [ 144.881723033957911, -37.67239136901479 ], [ 144.881755233988144, -37.672620669011145 ], [ 144.881835634022622, -37.672811769004497 ], [ 144.88194833406493, -37.673024068995545 ], [ 144.88250873428504, -37.674168968950319 ] ] } },
{ "type": "Feature", "properties": { "gid": 255633, "osm_id": "136576719", "code": 5122.0, "fclass": "residential", "name": "Tattenham Court", "pixel_count": 370, "Var_line": 22.777158737182617, "Edge_contrast": 8.7312345504760742, "ROI": 8844.6666666666679, "Road_detected": -1, "ROI_norm": -0.1832678813253075, "Pred": 0 }, "geometry": { "type": "LineString", "coordinates": [ [ 144.877356432995356, -37.670458469323762 ], [ 144.877279532973347, -37.670377369329493 ], [ 144.877241332963791, -37.670350369332255 ], [ 144.876927232902233, -37.670282369354041 ], [ 144.876840432885217, -37.670263569360067 ], [ 144.876237332766948, -37.670133369401867 ], [ 144.87620713275993, -37.670116269404026 ], [ 144.876181332752793, -37.670091469405918 ], [ 144.876167732747405, -37.670063169407037 ], [ 144.876140732704783, -37.669710669411053 ], [ 144.876129332699151, -37.66967646941211 ], [ 144.876090932688356, -37.669637969414929 ], [ 144.876024432671812, -37.669590869419736 ], [ 144.875456132541984, -37.669296769460203 ], [ 144.875341932515369, -37.669232869468352 ], [ 144.875282132499393, -37.66918036947272 ], [ 144.875240432486123, -37.669123869475918 ], [ 144.875213732476055, -37.66907306947806 ], [ 144.875202632467932, -37.669015369479176 ], [ 144.875206232460812, -37.668943669479368 ], [ 144.875213832452175, -37.668851169479424 ], [ 144.875221232447473, -37.668795469479264 ] ] } },
{ "type": "Feature", "properties": { "gid": 261794, "osm_id": "545770085", "code": 5115.0, "fclass": "tertiary", "name": "Melrose Drive", "pixel_count": 72, "Var_line": 80.637794494628906, "Edge_contrast": 19.319154739379883, "ROI": 4365.1666666666661, "Road_detected": -1, "ROI_norm": -0.55873301865978153, "Pred": 0 }, "geometry": { "type": "LineString", "coordinates": [ [ 144.880149936612924, -37.699573368952827 ], [ 144.880072536591598, -37.699500068958542 ], [ 144.879994736568023, -37.699405868964448 ], [ 144.879927936545897, -37.699307768969582 ], [ 144.879848936518073, -37.699176068975746 ], [ 144.879648436445052, -37.698820368991612 ], [ 144.879592536425747, -37.698730968995889 ], [ 144.879532936405525, -37.698638669000594 ], [ 144.879444736375632, -37.698502869007434 ], [ 144.879388336356556, -37.698416069011806 ] ] } },
{ "type": "Feature", "properties": { "gid": 261829, "osm_id": "17377422", "code": 5113.0, "fclass": "primary", "name": "Mickleham Road", "pixel_count": 200, "Var_line": 117.79286956787109, "Edge_contrast": 14.413187980651855, "ROI": 25173.833333333336, "Road_detected": -1, "ROI_norm": 1.1854189821767604, "Pred": 0 }, "geometry": { "type": "LineString", "coordinates": [ [ 144.88471403471658, -37.674637668797402 ], [ 144.884819734668042, -37.674017268794039 ], [ 144.885013334575177, -37.672843668788197 ], [ 144.885228734473287, -37.671551768781555 ], [ 144.885293534430815, -37.671053668780246 ], [ 144.885310134402715, -37.670765468780921 ], [ 144.885332234323727, -37.669996668784229 ], [ 144.885337034311505, -37.669875368784624 ] ] } },
{ "type": "Feature", "properties": { "gid": 261845, "osm_id": "27592685", "code": 5121.0, "fclass": "unclassified", "name": "Sperry Drive", "pixel_count": 132, "Var_line": 7.111849308013916, "Edge_contrast": 9.880162239074707, "ROI": 5992.1666666666661, "Road_detected": -1, "ROI_norm": -0.42236025865460486, "Pred": 0 }, "geometry": { "type": "LineString", "coordinates": [ [ 144.873441034960422, -37.695003669437376 ], [ 144.873492534994199, -37.695234569432436 ], [ 144.873664235101359, -37.695954469416307 ], [ 144.873671935109257, -37.696015669415381 ], [ 144.87368133511896, -37.696090269414285 ], [ 144.87376723516158, -37.696348369406877 ] ] } },
{ "type": "Feature", "properties": { "gid": 261890, "osm_id": "44097157", "code": 5122.0, "fclass": "residential", "name": null, "pixel_count": 220, "Var_line": 0.0, "Edge_contrast": 0.0, "ROI": 625.33333333333337, "Road_detected": -1, "ROI_norm": -0.87220037798739458, "Pred": 0 }, "geometry": { "type": "LineString", "coordinates": [ [ 144.882474933982706, -37.671415268969739 ], [ 144.882431133979139, -37.671451768972496 ], [ 144.882374233971689, -37.671474168976211 ], [ 144.882328133964364, -37.671480068979356 ], [ 144.882265233952694, -37.671472868983642 ], [ 144.882209133940449, -37.67144906898762 ], [ 144.882166633929074, -37.671411268990738 ], [ 144.882139933917557, -37.671347268992967 ], [ 144.882145733913148, -37.671297068992835 ], [ 144.882172833912904, -37.671251568991295 ], [ 144.882219933917156, -37.671215068988317 ], [ 144.882278033924962, -37.671194568984497 ], [ 144.882341433935522, -37.671191068980207 ], [ 144.882402533947584, -37.671204868975956 ], [ 144.882460733961466, -37.6712402689718 ], [ 144.882493433971746, -37.6712834689693 ], [ 144.882505433979134, -37.671332868968157 ], [ 144.882495433982768, -37.671382568968546 ], [ 144.882474933982706, -37.671415268969739 ] ] } },
{ "type": "Feature", "properties": { "gid": 261891, "osm_id": "44097170", "code": 5122.0, "fclass": "residential", "name": "Haddon Hall Drive", "pixel_count": 71, "Var_line": 0.0, "Edge_contrast": 0.0, "ROI": 52.666666666666671, "Road_detected": -1, "ROI_norm": -0.92020046028382851, "Pred": 0 }, "geometry": { "type": "LineString", "coordinates": [ [ 144.882328133964364, -37.671480068979356 ], [ 144.882232633954544, -37.671542168985432 ], [ 144.88212533395108, -37.671682268991873 ] ] } },
{ "type": "Feature", "properties": { "gid": 261892, "osm_id": "44097171", "code": 5122.0, "fclass": "residential", "name": "Trumpington Terrace", "pixel_count": 74, "Var_line": 0.0, "Edge_contrast": 0.0, "ROI": 0.0, "Road_detected": -1, "ROI_norm": -0.92461490324240625, "Pred": 0 }, "geometry": { "type": "LineString", "coordinates": [ [ 144.882139933917557, -37.671347268992967 ], [ 144.881974933874716, -37.671214269004992 ], [ 144.881880533848914, -37.671125969011968 ] ] } },
{ "type": "Feature", "properties": { "gid": 261893, "osm_id": "44097174", "code": 5122.0, "fclass": "residential", "name": "Trumpington Terrace", "pixel_count": 75, "Var_line": 0.0, "Edge_contrast": 0.0, "ROI": 0.0, "Road_detected": -1, "ROI_norm": -0.92461490324240625, "Pred": 0 }, "geometry": { "type": "LineString", "coordinates": [ [ 144.881880533848914, -37.671125969011968 ], [ 144.882050233884627, -37.671185469000037 ], [ 144.882219933917156, -37.671215068988317 ] ] } },
{ "type": "Feature", "properties": { "gid": 261915, "osm_id": "45763323", "code": 5121.0, "fclass": "unclassified", "name": "Hewitt Way", "pixel_count": 50, "Var_line": 42.398117065429688, "Edge_contrast": 41.373970031738281, "ROI": 6110.666666666667, "Road_detected": -1, "ROI_norm": -0.41242776199780484, "Pred": 0 }, "geometry": { "type": "LineString", "coordinates": [ [ 144.875273834572198, -37.688453669353507 ], [ 144.877030334751709, -37.687299969241231 ] ] } },
{ "type": "Feature", "properties": { "gid": 261934, "osm_id": "59281820", "code": 5122.0, "fclass": "residential", "name": "Haddon Hall Drive", "pixel_count": 367, "Var_line": 11.84326171875, "Edge_contrast": 10.925448417663574, "ROI": 3971.333333333333, "Road_detected": -1, "ROI_norm": -0.5917435525557283, "Pred": 0 }, "geometry": { "type": "LineString", "coordinates": [ [ 144.882460733961466, -37.6712402689718 ], [ 144.882602733986488, -37.6712449689621 ], [ 144.883530834138639, -37.671168468899459 ], [ 144.883723934165573, -37.671109068886679 ], [ 144.883917034188471, -37.67101136887414 ], [ 144.884056534199289, -37.670888268865426 ], [ 144.884153134200005, -37.670739668859788 ], [ 144.88420673419418, -37.670599568857014 ], [ 144.884249634148546, -37.670106968857155 ], [ 144.884324734145991, -37.669962568852945 ], [ 144.884480334157786, -37.66982246884325 ], [ 144.884678834184768, -37.669754568830164 ], [ 144.884765234198994, -37.669747668824343 ], [ 144.885173334270689, -37.669758968796486 ], [ 144.885342234299742, -37.669757568785016 ] ] } },
{ "type": "Feature", "properties": { "gid": 261943, "osm_id": "134467642", "code": 5122.0, "fclass": "residential", "name": "Threadneedle Street", "pixel_count": 145, "Var_line": 0.0, "Edge_contrast": 0.0, "ROI": 540.0, "Road_detected": -1, "ROI_norm": -0.87935289316078646, "Pred": 0 }, "geometry": { "type": "LineString", "coordinates": [ [ 144.880891533734655, -37.67165256907596 ], [ 144.880929033738425, -37.671627069073573 ], [ 144.881004133750935, -37.671622869068457 ], [ 144.881100733771291, -37.671656769061691 ], [ 144.881465533859028, -37.671886069035445 ], [ 144.881621133895067, -37.671971069024323 ], [ 144.8818142339357, -37.672038969010792 ] ] } },
{ "type": "Feature", "properties": { "gid": 29, "osm_id": null, "code": null, "fclass": "residential", "name": null, "pixel_count": 73, "Var_line": 67.214698791503906, "Edge_contrast": 39.317352294921875, "ROI": 3950.8333333333326, "Road_detected": -1, "ROI_norm": -0.59346183256808616, "Pred": 0 }, "geometry": { "type": "LineString", "coordinates": [ [ 144.854984144680373, -37.664602600789145 ], [ 144.854916323858447, -37.664302128247414 ], [ 144.854840897915409, -37.664213350150682 ] ] } },
{ "type": "Feature", "properties": { "gid": 241, "osm_id": null, "code": null, "fclass": "residential", "name": null, "pixel_count": 75, "Var_line": 78.503097534179688, "Edge_contrast": 28.467256546020508, "ROI": 4648.8333333333321, "Road_detected": -1, "ROI_norm": -0.53495649361073316, "Pred": 0 }, "geometry": { "type": "LineString", "coordinates": [ [ 144.884034069880784, -37.688573819825933 ], [ 144.884091385136941, -37.688769842403978 ], [ 144.884264111714259, -37.68884868232346 ] ] } },
{ "type": "Feature", "properties": { "gid": 357, "osm_id": null, "code": null, "fclass": "residential", "name": null, "pixel_count": 116, "Var_line": 23.259359359741211, "Edge_contrast": 8.1943445205688477, "ROI": 7324.9999999999991, "Road_detected": -1, "ROI_norm": -0.3106441183389525, "Pred": 0 }, "geometry": { "type": "LineString", "coordinates": [ [ 144.868393377449706, -37.687459097480819 ], [ 144.868317325030887, -37.687707906593666 ], [ 144.86799021319851, -37.688411311983131 ], [ 144.867918051654442, -37.688492766227832 ], [ 144.867815351709339, -37.688534135051427 ] ] } },
{ "type": "Feature", "properties": { "gid": 394, "osm_id": null, "code": null, "fclass": "residential", "name": null, "pixel_count": 100, "Var_line": 70.160865783691406, "Edge_contrast": 1.9502497911453247, "ROI": 4657.0, "Road_detected": -1, "ROI_norm": -0.53427197555702954, "Pred": 0 }, "geometry": { "type": "LineString", "coordinates": [ [ 144.849521275336826, -37.674620299385111 ], [ 144.849647007385897, -37.674760638945912 ], [ 144.849761706066374, -37.67501825937515 ], [ 144.849894526375465, -37.67521582453859 ] ] } },
{ "type": "Feature", "properties": { "gid": 825, "osm_id": null, "code": null, "fclass": "trunk", "name": null, "pixel_count": 71, "Var_line": 0.0, "Edge_contrast": 0.0, "ROI": 1905.6666666666667, "Road_detected": -1, "ROI_norm": -0.76488471087412213, "Pred": 0 }, "geometry": { "type": "LineString", "coordinates": [ [ 144.86999659799099, -37.693274059523091 ], [ 144.870007121356878, -37.693437138204168 ], [ 144.870082633539397, -37.693503019182536 ] ] } },
{ "type": "Feature", "properties": { "gid": 936, "osm_id": null, "code": null, "fclass": "trunk", "name": null, "pixel_count": 50, "Var_line": 0.0, "Edge_contrast": 0.0, "ROI": 1438.5, "Road_detected": -1, "ROI_norm": -0.80404193749720232, "Pred": 0 }, "geometry": { "type": "LineString", "coordinates": [ [ 144.851810032440454, -37.697212330016953 ], [ 144.851781759540813, -37.696937655756521 ] ] } },
{ "type": "Feature", "properties": { "gid": 1017, "osm_id": null, "code": null, "fclass": "trunk", "name": null, "pixel_count": 34, "Var_line": 32.577079772949219, "Edge_contrast": 1.8290642499923706, "ROI": 204.0, "Road_detected": -1, "ROI_norm": -0.90751592165601658, "Pred": 0 }, "geometry": { "type": "LineString", "coordinates": [ [ 144.865284836345126, -37.685968007063025 ], [ 144.865256070358498, -37.685945088010818 ] ] } },
{ "type": "Feature", "properties": { "gid": 1018, "osm_id": null, "code": null, "fclass": "trunk", "name": null, "pixel_count": 30, "Var_line": 32.577079772949219, "Edge_contrast": 1.8290642499923706, "ROI": 0.0, "Road_detected": -1, "ROI_norm": -0.92461490324240625, "Pred": 0 }, "geometry": { "type": "LineString", "coordinates": [ [ 144.865284836345126, -37.685968007063025 ], [ 144.86525602959756, -37.685967974664095 ] ] } },
{ "type": "Feature", "properties": { "gid": 1327, "osm_id": null, "code": null, "fclass": "trunk", "name": null, "pixel_count": 50, "Var_line": 0.0, "Edge_contrast": 9.1818866729736328, "ROI": 6392.5, "Road_detected": -1, "ROI_norm": -0.38880490426693481, "Pred": 0 }, "geometry": { "type": "LineString", "coordinates": [ [ 144.870855438788453, -37.679588745924839 ], [ 144.871172013546186, -37.679749294088474 ] ] } },
{ "type": "Feature", "properties": { "gid": 1489, "osm_id": null, "code": null, "fclass": "primary", "name": null, "pixel_count": 42, "Var_line": 0.0, "Edge_contrast": 21.794963836669922, "ROI": 2228.0, "Road_detected": -1, "ROI_norm": -0.73786720238713044, "Pred": 0 }, "geometry": { "type": "LineString", "coordinates": [ [ 144.872123744875751, -37.696091403274899 ], [ 144.872152439441521, -37.696160093723726 ] ] } },
{ "type": "Feature", "properties": { "gid": 1510, "osm_id": null, "code": null, "fclass": "primary", "name": null, "pixel_count": 34, "Var_line": 0.0, "Edge_contrast": 8.904017448425293, "ROI": 2286.1666666666665, "Road_detected": -1, "ROI_norm": -0.73299175747401779, "Pred": 0 }, "geometry": { "type": "LineString", "coordinates": [ [ 144.869938270657826, -37.693685955595875 ], [ 144.869909421612164, -37.693708810903672 ] ] } },
{ "type": "Feature", "properties": { "gid": 1521, "osm_id": null, "code": null, "fclass": "primary", "name": null, "pixel_count": 50, "Var_line": 2.0538358688354492, "Edge_contrast": 10.25248908996582, "ROI": 1374.1666666666663, "Road_detected": -1, "ROI_norm": -0.80943426338964231, "Pred": 0 }, "geometry": { "type": "LineString", "coordinates": [ [ 144.8493189736852, -37.6894277650714 ], [ 144.849117454217264, -37.689358851404947 ] ] } },
{ "type": "Feature", "properties": { "gid": 1660, "osm_id": null, "code": null, "fclass": "tertiary", "name": null, "pixel_count": 81, "Var_line": 4.0661802291870117, "Edge_contrast": 9.2101268768310547, "ROI": 1780.0, "Road_detected": -1, "ROI_norm": -0.77541790704743729, "Pred": 0 }, "geometry": { "type": "LineString", "coordinates": [ [ 144.84937668093383, -37.689382064291713 ], [ 144.849193001163627, -37.689396137378665 ], [ 144.849128268639447, -37.689353143356207 ], [ 144.849146353521149, -37.689313114448389 ] ] } },
{ "type": "Feature", "properties": { "gid": 1749, "osm_id": null, "code": null, "fclass": "tertiary", "name": null, "pixel_count": 30, "Var_line": 12.519040107727051, "Edge_contrast": 35.242992401123047, "ROI": 2288.666666666667, "Road_detected": -1, "ROI_norm": -0.73278221113104713, "Pred": 0 }, "geometry": { "type": "LineString", "coordinates": [ [ 144.874480872819561, -37.681949934209982 ], [ 144.874452067598043, -37.68194990402236 ] ] } },
{ "type": "Feature", "properties": { "gid": 1765, "osm_id": null, "code": null, "fclass": "tertiary", "name": null, "pixel_count": 34, "Var_line": 0.0, "Edge_contrast": 8.904017448425293, "ROI": 2286.1666666666665, "Road_detected": -1, "ROI_norm": -0.73299175747401779, "Pred": 0 }, "geometry": { "type": "LineString", "coordinates": [ [ 144.869938270657826, -37.693685955595875 ], [ 144.869909421612164, -37.693708810903672 ] ] } },
{ "type": "Feature", "properties": { "gid": 1800, "osm_id": null, "code": null, "fclass": "tertiary", "name": null, "pixel_count": 69, "Var_line": 76.982643127441406, "Edge_contrast": 41.929508209228516, "ROI": 4068.333333333333, "Road_detected": -1, "ROI_norm": -0.58361315444847439, "Pred": 0 }, "geometry": { "type": "LineString", "coordinates": [ [ 144.870191745619792, -37.697073449611864 ], [ 144.87009981482808, -37.697129136062749 ], [ 144.869989754091733, -37.697256323393617 ] ] } },
{ "type": "Feature", "properties": { "gid": 2084, "osm_id": null, "code": null, "fclass": "unclassified", "name": null, "pixel_count": 67, "Var_line": 70.077560424804688, "Edge_contrast": 26.690635681152344, "ROI": 6598.3333333333339, "Road_detected": -1, "ROI_norm": -0.37155225536236669, "Pred": 0 }, "geometry": { "type": "LineString", "coordinates": [ [ 144.884033789226777, -37.688756912912048 ], [ 144.883819805671493, -37.688577903470986 ], [ 144.883803713357793, -37.688504936599877 ] ] } },
{ "type": "Feature", "properties": { "gid": 2173, "osm_id": null, "code": null, "fclass": "unclassified", "name": null, "pixel_count": 288, "Var_line": 34.691070556640625, "Edge_contrast": 20.090133666992188, "ROI": 5218.5, "Road_detected": -1, "ROI_norm": -0.48720786692586371, "Pred": 0 }, "geometry": { "type": "LineString", "coordinates": [ [ 144.884618695418311, -37.664131307891388 ], [ 144.884348777778627, -37.664086704198589 ], [ 144.884089587562642, -37.664089314472037 ], [ 144.883743731767055, -37.664267782974477 ], [ 144.883635702220801, -37.664290564932841 ], [ 144.882793423541528, -37.66423967849974 ], [ 144.882577601371054, -37.664132184825732 ], [ 144.882545309684673, -37.664063492515233 ], [ 144.882605372088449, -37.663634422345758 ], [ 144.882788171299609, -37.662982325097502 ], [ 144.88291448124852, -37.662776466635847 ], [ 144.883065913482795, -37.662619267208875 ] ] } },
{ "type": "Feature", "properties": { "gid": 2228, "osm_id": null, "code": null, "fclass": "unclassified", "name": null, "pixel_count": 113, "Var_line": 88.037406921386719, "Edge_contrast": 32.597476959228516, "ROI": 7855.5, "Road_detected": -1, "ROI_norm": -0.26617838436062047, "Pred": 0 }, "geometry": { "type": "LineString", "coordinates": [ [ 144.886817589504716, -37.676560953148964 ], [ 144.886655539506989, -37.676582256260552 ], [ 144.886331252289494, -37.676749308473511 ], [ 144.886298784154093, -37.676792190353758 ], [ 144.886298616496788, -37.676903763203867 ] ] } },
{ "type": "Feature", "properties": { "gid": 2341, "osm_id": null, "code": null, "fclass": "unclassified", "name": null, "pixel_count": 119, "Var_line": 41.432102203369141, "Edge_contrast": 5.8040528297424316, "ROI": 7265.8333333333339, "Road_detected": -1, "ROI_norm": -0.31560338178925335, "Pred": 0 }, "geometry": { "type": "LineString", "coordinates": [ [ 144.879929349155162, -37.69740401648663 ], [ 144.879529595027435, -37.697403615196734 ], [ 144.879426889335321, -37.697444993834168 ], [ 144.879319888408759, -37.697921213312391 ], [ 144.879236859517761, -37.698044145073709 ] ] } },
{ "type": "Feature", "properties": { "gid": 83, "osm_id": null, "code": null, "fclass": "residential", "name": null, "pixel_count": 71, "Var_line": 0.0, "Edge_contrast": 3.5335769653320312, "ROI": 904.0, "Road_detected": -1, "ROI_norm": -0.84884294562428719, "Pred": 0 }, "geometry": { "type": "LineString", "coordinates": [ [ 144.884174984488311, -37.671797973583189 ], [ 144.884085098558302, -37.671720643621121 ], [ 144.883858380283414, -37.67166034609064 ] ] } },
{ "type": "Feature", "properties": { "gid": 239, "osm_id": null, "code": null, "fclass": "residential", "name": null, "pixel_count": 107, "Var_line": 0.86135679483413696, "Edge_contrast": 18.920000076293945, "ROI": 2364.833333333333, "Road_detected": -1, "ROI_norm": -0.72639803254854729, "Pred": 0 }, "geometry": { "type": "LineString", "coordinates": [ [ 144.862297890733913, -37.681043965671492 ], [ 144.862420259417945, -37.681072714710922 ], [ 144.862470532759517, -37.681147154354242 ], [ 144.862713228998473, -37.681337678792225 ], [ 144.862729299447921, -37.681410648692363 ] ] } },
{ "type": "Feature", "properties": { "gid": 304, "osm_id": null, "code": null, "fclass": "residential", "name": null, "pixel_count": 67, "Var_line": 55.231494903564453, "Edge_contrast": 11.21372127532959, "ROI": 3512.1666666666661, "Road_detected": -1, "ROI_norm": -0.63023023088130314, "Pred": 0 }, "geometry": { "type": "LineString", "coordinates": [ [ 144.885591695670541, -37.687247890331243 ], [ 144.885548387429168, -37.687312217753238 ], [ 144.885361099009543, -37.687339216604194 ] ] } },
{ "type": "Feature", "properties": { "gid": 342, "osm_id": null, "code": null, "fclass": "residential", "name": null, "pixel_count": 50, "Var_line": 61.663959503173828, "Edge_contrast": 10.634856224060059, "ROI": 6170.5, "Road_detected": -1, "ROI_norm": -0.40741261952271185, "Pred": 0 }, "geometry": { "type": "LineString", "coordinates": [ [ 144.882104949495101, -37.687931109979608 ], [ 144.88207646305554, -37.687725101843405 ] ] } },
{ "type": "Feature", "properties": { "gid": 361, "osm_id": null, "code": null, "fclass": "residential", "name": null, "pixel_count": 75, "Var_line": 86.15478515625, "Edge_contrast": 14.50446891784668, "ROI": 6416.5, "Road_detected": -1, "ROI_norm": -0.38679325937441833, "Pred": 0 }, "geometry": { "type": "LineString", "coordinates": [ [ 144.884580963173363, -37.688871874685027 ], [ 144.884554152253941, -37.688743111341374 ], [ 144.884437308427096, -37.688619982835284 ] ] } },
{ "type": "Feature", "properties": { "gid": 403, "osm_id": null, "code": null, "fclass": "residential", "name": null, "pixel_count": 97, "Var_line": 88.567306518554688, "Edge_contrast": 11.397677421569824, "ROI": 5917.0, "Road_detected": -1, "ROI_norm": -0.42866061869991667, "Pred": 0 }, "geometry": { "type": "LineString", "coordinates": [ [ 144.884609736126635, -37.688894789070837 ], [ 144.884856473177308, -37.688849253143445 ], [ 144.884997078887125, -37.688739246114352 ], [ 144.885042236718817, -37.688643451529529 ] ] } },
{ "type": "Feature", "properties": { "gid": 415, "osm_id": null, "code": null, "fclass": "residential", "name": null, "pixel_count": 96, "Var_line": 24.559686660766602, "Edge_contrast": 22.539438247680664, "ROI": 5025.5, "Road_detected": -1, "ROI_norm": -0.50338484460318345, "Pred": 0 }, "geometry": { "type": "LineString", "coordinates": [ [ 144.884313917850903, -37.675116693977976 ], [ 144.884292447122732, -37.675030847787085 ], [ 144.884116188978737, -37.674927686837947 ], [ 144.883738287353765, -37.674841495155306 ] ] } },
{ "type": "Feature", "properties": { "gid": 425, "osm_id": null, "code": null, "fclass": "residential", "name": null, "pixel_count": 74, "Var_line": 13.467366218566895, "Edge_contrast": 8.1325445175170898, "ROI": 2465.8333333333326, "Road_detected": -1, "ROI_norm": -0.71793236029254059, "Pred": 0 }, "geometry": { "type": "LineString", "coordinates": [ [ 144.851299154611922, -37.678627707167422 ], [ 144.851439483979789, -37.678673654831968 ], [ 144.851558479933203, -37.678582255292042 ] ] } },
{ "type": "Feature", "properties": { "gid": 472, "osm_id": null, "code": null, "fclass": "residential", "name": null, "pixel_count": 122, "Var_line": 23.01618766784668, "Edge_contrast": 10.144521713256836, "ROI": 2503.5, "Road_detected": -1, "ROI_norm": -0.71477519539178558, "Pred": 0 }, "geometry": { "type": "LineString", "coordinates": [ [ 144.8614988535073, -37.676946314300977 ], [ 144.861433867930373, -37.67704350794444 ], [ 144.86114737216576, -37.677186218519651 ], [ 144.86105172974203, -37.677311984873853 ], [ 144.860864423146779, -37.677357540991892 ] ] } },
{ "type": "Feature", "properties": { "gid": 523, "osm_id": null, "code": null, "fclass": "residential", "name": null, "pixel_count": 86, "Var_line": 61.905017852783203, "Edge_contrast": 35.868766784667969, "ROI": 2319.333333333333, "Road_detected": -1, "ROI_norm": -0.73021177599060971, "Pred": 0 }, "geometry": { "type": "LineString", "coordinates": [ [ 144.857611225022367, -37.676506906995662 ], [ 144.857686900529075, -37.676471236334912 ], [ 144.857769685325309, -37.676484208483565 ], [ 144.857812545967874, -37.676667353632915 ] ] } },
{ "type": "Feature", "properties": { "gid": 530, "osm_id": null, "code": null, "fclass": "residential", "name": null, "pixel_count": 71, "Var_line": 134.13444519042969, "Edge_contrast": 43.062088012695312, "ROI": 4409.6666666666661, "Road_detected": -1, "ROI_norm": -0.55500309375490731, "Pred": 0 }, "geometry": { "type": "LineString", "coordinates": [ [ 144.883890241898627, -37.688436360483649 ], [ 144.883803937449642, -37.688359034285128 ], [ 144.883746519942122, -37.688230241043314 ] ] } },
{ "type": "Feature", "properties": { "gid": 653, "osm_id": null, "code": null, "fclass": "trunk", "name": null, "pixel_count": 65, "Var_line": 71.716270446777344, "Edge_contrast": 25.163167953491211, "ROI": 5133.333333333333, "Road_detected": -1, "ROI_norm": -0.49434641234305754, "Pred": 0 }, "geometry": { "type": "LineString", "coordinates": [ [ 144.885606314686612, -37.696631427014744 ], [ 144.885514460726142, -37.69664421298976 ], [ 144.885433276478722, -37.696745694670106 ] ] } },
{ "type": "Feature", "properties": { "gid": 917, "osm_id": null, "code": null, "fclass": "primary", "name": null, "pixel_count": 104, "Var_line": 0.0, "Edge_contrast": 17.679403305053711, "ROI": 2904.1666666666665, "Road_detected": -1, "ROI_norm": -0.6811919014917196, "Pred": 0 }, "geometry": { "type": "LineString", "coordinates": [ [ 144.884473864709094, -37.664680453337922 ], [ 144.884444921903338, -37.664774833774842 ], [ 144.884462685231512, -37.664929337314817 ], [ 144.884527399473313, -37.664983756055392 ], [ 144.884617369451291, -37.665001007927245 ] ] } },
{ "type": "Feature", "properties": { "gid": 1038, "osm_id": null, "code": null, "fclass": "primary", "name": null, "pixel_count": 50, "Var_line": 50.673782348632812, "Edge_contrast": 4.4112744331359863, "ROI": 2127.5, "Road_detected": -1, "ROI_norm": -0.74629096537454298, "Pred": 0 }, "geometry": { "type": "LineString", "coordinates": [ [ 144.86109098540561, -37.679463386403157 ], [ 144.860860930034193, -37.679257138570222 ] ] } },
{ "type": "Feature", "properties": { "gid": 1229, "osm_id": null, "code": null, "fclass": "tertiary", "name": null, "pixel_count": 63, "Var_line": 11.37545108795166, "Edge_contrast": 8.1358604431152344, "ROI": 2226.0, "Road_detected": -1, "ROI_norm": -0.73803483946150683, "Pred": 0 }, "geometry": { "type": "LineString", "coordinates": [ [ 144.884635562019298, -37.671958625809737 ], [ 144.884550663223763, -37.672151651485514 ], [ 144.884491240487961, -37.672164468022977 ] ] } },
{ "type": "Feature", "properties": { "gid": 1501, "osm_id": null, "code": null, "fclass": "unclassified", "name": null, "pixel_count": 102, "Var_line": 0.0, "Edge_contrast": 3.1295549869537354, "ROI": 2615.5, "Road_detected": -1, "ROI_norm": -0.70538751922670884, "Pred": 0 }, "geometry": { "type": "LineString", "coordinates": [ [ 144.851558479933203, -37.678582255292042 ], [ 144.851515417199778, -37.678509250344042 ], [ 144.851432673389866, -37.678474817589198 ], [ 144.851335395625426, -37.678507596621877 ], [ 144.851270440639865, -37.678581897981665 ] ] } },
{ "type": "Feature", "properties": { "gid": 1589, "osm_id": null, "code": null, "fclass": "unclassified", "name": null, "pixel_count": 100, "Var_line": 24.895620346069336, "Edge_contrast": 23.015321731567383, "ROI": 3832.1666666666665, "Road_detected": -1, "ROI_norm": -0.60340829898108406, "Pred": 0 }, "geometry": { "type": "LineString", "coordinates": [ [ 144.884314092804573, -37.675002260211649 ], [ 144.884087399573986, -37.674919076434428 ], [ 144.883612274132986, -37.674842803194807 ], [ 144.883248609220288, -37.674863905622736 ] ] } },
{ "type": "Feature", "properties": { "gid": 1601, "osm_id": null, "code": null, "fclass": "unclassified", "name": null, "pixel_count": 125, "Var_line": 89.961067199707031, "Edge_contrast": 20.464864730834961, "ROI": 11961.666666666666, "Road_detected": -1, "ROI_norm": 0.07799449909026443, "Pred": 0 }, "geometry": { "type": "LineString", "coordinates": [ [ 144.850419896139698, -37.671714799551779 ], [ 144.85036207287763, -37.671826300601445 ], [ 144.850423038254235, -37.671946532590091 ], [ 144.850703530207511, -37.672109951185966 ], [ 144.850908616643807, -37.672173145422079 ] ] } },
{ "type": "Feature", "properties": { "gid": 1627, "osm_id": null, "code": null, "fclass": "unclassified", "name": null, "pixel_count": 269, "Var_line": 8.738123893737793, "Edge_contrast": 5.0032005310058594, "ROI": 23487.166666666668, "Road_detected": -1, "ROI_norm": 1.0440450494526887, "Pred": 0 }, "geometry": { "type": "LineString", "coordinates": [ [ 144.883445114702596, -37.659484130644181 ], [ 144.883196970767074, -37.659336554308062 ], [ 144.883002646664522, -37.65930203422328 ], [ 144.880713535321149, -37.659161023846508 ], [ 144.880645075839652, -37.659203868612906 ], [ 144.880596319148879, -37.659306811159517 ], [ 144.880541133408713, -37.660062024457133 ], [ 144.880578834533679, -37.660122140214945 ], [ 144.88074794654591, -37.660166652142337 ], [ 144.883253037092601, -37.660326468153627 ], [ 144.883328675511763, -37.660296502797856 ], [ 144.88335214801981, -37.660247890973494 ], [ 144.883445079456294, -37.65950701752989 ] ] } },
{ "type": "Feature", "properties": { "gid": 1648, "osm_id": null, "code": null, "fclass": "unclassified", "name": null, "pixel_count": 150, "Var_line": 4.919156551361084, "Edge_contrast": 23.163532257080078, "ROI": 12963.83333333333, "Road_detected": -1, "ROI_norm": 0.16199464310902345, "Pred": 0 }, "geometry": { "type": "LineString", "coordinates": [ [ 144.857117725257467, -37.678543242265128 ], [ 144.856718070908983, -37.67854276485965 ], [ 144.855897279156409, -37.678478841596039 ], [ 144.853974232934576, -37.678676771813819 ], [ 144.853520570464298, -37.678676217885929 ], [ 144.85282580833919, -37.678606705941348 ] ] } },
{ "type": "Feature", "properties": { "gid": 1663, "osm_id": null, "code": null, "fclass": "unclassified", "name": null, "pixel_count": 100, "Var_line": 87.6226806640625, "Edge_contrast": 1.6133297681808472, "ROI": 8847.5, "Road_detected": -1, "ROI_norm": -0.18303039546994121, "Pred": 0 }, "geometry": { "type": "LineString", "coordinates": [ [ 144.885589619041639, -37.688621088884595 ], [ 144.88516829895579, -37.688624977015095 ], [ 144.884923100039259, -37.688843595497083 ], [ 144.884609596495807, -37.688986335605016 ] ] } },
{ "type": "Feature", "properties": { "gid": 1674, "osm_id": null, "code": null, "fclass": "unclassified", "name": null, "pixel_count": 125, "Var_line": 9.7568750381469727, "Edge_contrast": 9.1433801651000977, "ROI": 3986.3333333333326, "Road_detected": -1, "ROI_norm": -0.59048627449790558, "Pred": 0 }, "geometry": { "type": "LineString", "coordinates": [ [ 144.85922053902928, -37.678477071909995 ], [ 144.858820687513713, -37.678582452578333 ], [ 144.858431735398199, -37.678634919148664 ], [ 144.857956467497132, -37.678635786906632 ], [ 144.857492089972453, -37.678589461782721 ] ] } },
{ "type": "Feature", "properties": { "gid": 1745, "osm_id": null, "code": null, "fclass": "unclassified", "name": null, "pixel_count": 86, "Var_line": 15.081786155700684, "Edge_contrast": 8.5517110824584961, "ROI": 3328.1666666666665, "Road_detected": -1, "ROI_norm": -0.64565284172392923, "Pred": 0 }, "geometry": { "type": "LineString", "coordinates": [ [ 144.851558435033041, -37.678605142004031 ], [ 144.851468287944016, -37.678673690553524 ], [ 144.851360301178431, -37.67865925236741 ], [ 144.851270395652591, -37.678604784693505 ] ] } },
{ "type": "Feature", "properties": { "gid": 77, "osm_id": null, "code": null, "fclass": "residential", "name": null, "pixel_count": 100, "Var_line": 27.809669494628906, "Edge_contrast": 42.244983673095703, "ROI": 10753.833333333332, "Road_detected": -1, "ROI_norm": -0.023244324076864848, "Pred": 0 }, "geometry": { "type": "LineString", "coordinates": [ [ 144.85192074439172, -37.670091699399457 ], [ 144.852080861595567, -37.67013624051534 ], [ 144.852224691982258, -37.670225104572758 ], [ 144.852352129690928, -37.670412647734807 ] ] } },
{ "type": "Feature", "properties": { "gid": 119, "osm_id": null, "code": null, "fclass": "residential", "name": null, "pixel_count": 50, "Var_line": 6.4536089897155762, "Edge_contrast": 2.3654382228851318, "ROI": 5470.6666666666661, "Road_detected": -1, "ROI_norm": -0.46607162579824324, "Pred": 0 }, "geometry": { "type": "LineString", "coordinates": [ [ 144.851952788595241, -37.697876217993759 ], [ 144.851439759117369, -37.695037642974 ] ] } },
{ "type": "Feature", "properties": { "gid": 179, "osm_id": null, "code": null, "fclass": "residential", "name": null, "pixel_count": 75, "Var_line": 37.352386474609375, "Edge_contrast": 33.268272399902344, "ROI": 3329.6666666666665, "Road_detected": -1, "ROI_norm": -0.64552711391814688, "Pred": 0 }, "geometry": { "type": "LineString", "coordinates": [ [ 144.875763015121379, -37.690533780822804 ], [ 144.875607986031383, -37.690645192396289 ], [ 144.87541716248063, -37.690624968281732 ] ] } },
{ "type": "Feature", "properties": { "gid": 207, "osm_id": null, "code": null, "fclass": "residential", "name": null, "pixel_count": 84, "Var_line": 66.082359313964844, "Edge_contrast": 39.650485992431641, "ROI": 4967.5, "Road_detected": -1, "ROI_norm": -0.50824631976009826, "Pred": 0 }, "geometry": { "type": "LineString", "coordinates": [ [ 144.883660237871766, -37.688138610585113 ], [ 144.883631575503728, -37.688044175212475 ], [ 144.883649712210968, -37.68795836779551 ], [ 144.883746977130784, -37.687932714713639 ] ] } },
{ "type": "Feature", "properties": { "gid": 217, "osm_id": null, "code": null, "fclass": "residential", "name": null, "pixel_count": 115, "Var_line": 50.747909545898438, "Edge_contrast": 31.077716827392578, "ROI": 6531.8333333333339, "Road_detected": -1, "ROI_norm": -0.37712618808538101, "Pred": 0 }, "geometry": { "type": "LineString", "coordinates": [ [ 144.863073924121665, -37.681983211548804 ], [ 144.863095388277031, -37.682060478809447 ], [ 144.863069966220024, -37.682180605100015 ], [ 144.862994181342856, -37.68227492621444 ], [ 144.861833376750553, -37.683034576644779 ] ] } },
{ "type": "Feature", "properties": { "gid": 238, "osm_id": null, "code": null, "fclass": "residential", "name": null, "pixel_count": 75, "Var_line": 98.307701110839844, "Edge_contrast": 31.338396072387695, "ROI": 7966.333333333333, "Road_detected": -1, "ROI_norm": -0.25688849648892997, "Pred": 0 }, "geometry": { "type": "LineString", "coordinates": [ [ 144.881060179508466, -37.692827821545464 ], [ 144.881002385272353, -37.692939336494078 ], [ 144.881088557177407, -37.693102489313944 ] ] } },
{ "type": "Feature", "properties": { "gid": 305, "osm_id": null, "code": null, "fclass": "residential", "name": null, "pixel_count": 67, "Var_line": 84.557029724121094, "Edge_contrast": 9.4905147552490234, "ROI": 5690.5, "Road_detected": -1, "ROI_norm": -0.44764551737304059, "Pred": 0 }, "geometry": { "type": "LineString", "coordinates": [ [ 144.851574732008061, -37.670297252644197 ], [ 144.851591083932618, -37.670220029825913 ], [ 144.851776785732028, -37.670068634480778 ] ] } },
{ "type": "Feature", "properties": { "gid": 411, "osm_id": null, "code": null, "fclass": "residential", "name": null, "pixel_count": 175, "Var_line": 41.203292846679688, "Edge_contrast": 1.1195485591888428, "ROI": 7500.5, "Road_detected": -1, "ROI_norm": -0.29593396506242609, "Pred": 0 }, "geometry": { "type": "LineString", "coordinates": [ [ 144.885677598641365, -37.68759127254237 ], [ 144.885706133733834, -37.687771532358099 ], [ 144.885597872219734, -37.687925914084154 ], [ 144.885666030627277, -37.688097629216848 ], [ 144.885561430101944, -37.688211962707626 ], [ 144.885647541591339, -37.68841802498833 ], [ 144.885589757485917, -37.68852954233666 ] ] } },
{ "type": "Feature", "properties": { "gid": 448, "osm_id": null, "code": null, "fclass": "residential", "name": null, "pixel_count": 75, "Var_line": 6.6042242050170898, "Edge_contrast": 15.834963798522949, "ROI": 281.0, "Road_detected": -1, "ROI_norm": -0.90106189429252626, "Pred": 0 }, "geometry": { "type": "LineString", "coordinates": [ [ 144.856687097014287, -37.677787464413591 ], [ 144.856686365506192, -37.67817367779903 ], [ 144.856628275502175, -37.678428223578095 ] ] } },
{ "type": "Feature", "properties": { "gid": 464, "osm_id": null, "code": null, "fclass": "residential", "name": null, "pixel_count": 115, "Var_line": 51.289981842041016, "Edge_contrast": 33.518596649169922, "ROI": 5529.5, "Road_detected": -1, "ROI_norm": -0.46114030186033828, "Pred": 0 }, "geometry": { "type": "LineString", "coordinates": [ [ 144.87541716248063, -37.690624968281732 ], [ 144.875474991435425, -37.690496290966664 ], [ 144.875593967533746, -37.690410589614388 ], [ 144.875701975694739, -37.690425005888265 ], [ 144.875763052706162, -37.690510894205673 ] ] } },
{ "type": "Feature", "properties": { "gid": 471, "osm_id": null, "code": null, "fclass": "residential", "name": null, "pixel_count": 50, "Var_line": 7.2429623603820801, "Edge_contrast": 41.097621917724609, "ROI": 4369.3333333333339, "Road_detected": -1, "ROI_norm": -0.5583837747548307, "Pred": 0 }, "geometry": { "type": "LineString", "coordinates": [ [ 144.851211483288012, -37.693915914816721 ], [ 144.851382543395658, -37.694831592377881 ] ] } },
{ "type": "Feature", "properties": { "gid": 575, "osm_id": null, "code": null, "fclass": "trunk", "name": null, "pixel_count": 66, "Var_line": 119.74555206298828, "Edge_contrast": 0.46163532137870789, "ROI": 3825.8333333333335, "Road_detected": -1, "ROI_norm": -0.60393914971660911, "Pred": 0 }, "geometry": { "type": "LineString", "coordinates": [ [ 144.876128503388827, -37.678449977347448 ], [ 144.876209387956152, -37.67852730378322 ], [ 144.876214652963029, -37.67861027372706 ] ] } },
{ "type": "Feature", "properties": { "gid": 660, "osm_id": null, "code": null, "fclass": "trunk", "name": null, "pixel_count": 69, "Var_line": 50.136268615722656, "Edge_contrast": 35.500682830810547, "ROI": 2868.9999999999995, "Road_detected": -1, "ROI_norm": -0.68413952004950396, "Pred": 0 }, "geometry": { "type": "LineString", "coordinates": [ [ 144.856989364854712, -37.670258066889915 ], [ 144.857079529336005, -37.670172348879525 ], [ 144.857191186157905, -37.670143873523735 ] ] } },
{ "type": "Feature", "properties": { "gid": 662, "osm_id": null, "code": null, "fclass": "trunk", "name": null, "pixel_count": 65, "Var_line": 151.27944946289062, "Edge_contrast": 26.585065841674805, "ROI": 5404.9999999999991, "Road_detected": -1, "ROI_norm": -0.47157570974026736, "Pred": 0 }, "geometry": { "type": "LineString", "coordinates": [ [ 144.879999097763488, -37.689759952563584 ], [ 144.880009778326126, -37.68983720574294 ], [ 144.880085232141028, -37.689943132097866 ] ] } },
{ "type": "Feature", "properties": { "gid": 719, "osm_id": null, "code": null, "fclass": "trunk", "name": null, "pixel_count": 50, "Var_line": 65.833305358886719, "Edge_contrast": 31.648893356323242, "ROI": 1908.6666666666667, "Road_detected": -1, "ROI_norm": -0.76463325526255754, "Pred": 0 }, "geometry": { "type": "LineString", "coordinates": [ [ 144.867176802417134, -37.674847161040468 ], [ 144.867205283608797, -37.675030286969125 ] ] } },
{ "type": "Feature", "properties": { "gid": 725, "osm_id": null, "code": null, "fclass": "trunk", "name": null, "pixel_count": 50, "Var_line": 23.893264770507812, "Edge_contrast": 4.0095562934875488, "ROI": 4774.166666666667, "Road_detected": -1, "ROI_norm": -0.52445123694981388, "Pred": 0 }, "geometry": { "type": "LineString", "coordinates": [ [ 144.874970221208287, -37.682156426551906 ], [ 144.874538748921111, -37.681789787723361 ] ] } },
{ "type": "Feature", "properties": { "gid": 731, "osm_id": null, "code": null, "fclass": "trunk", "name": null, "pixel_count": 95, "Var_line": 15.709492683410645, "Edge_contrast": 5.8900527954101562, "ROI": 1455.1666666666667, "Road_detected": -1, "ROI_norm": -0.80264496187739931, "Pred": 0 }, "geometry": { "type": "LineString", "coordinates": [ [ 144.878842335821588, -37.674539114393639 ], [ 144.878723539668641, -37.674530411617738 ], [ 144.878595818529504, -37.674474495665947 ], [ 144.878382012376505, -37.674218232738262 ] ] } },
{ "type": "Feature", "properties": { "gid": 743, "osm_id": null, "code": null, "fclass": "primary", "name": null, "pixel_count": 66, "Var_line": 116.56291198730469, "Edge_contrast": 37.192329406738281, "ROI": 5104.1666666666661, "Road_detected": -1, "ROI_norm": -0.49679111967771294, "Pred": 0 }, "geometry": { "type": "LineString", "coordinates": [ [ 144.874397876568452, -37.679890040642668 ], [ 144.874153150672669, -37.679822553950139 ], [ 144.874110022594408, -37.679775304709764 ] ] } },
{ "type": "Feature", "properties": { "gid": 755, "osm_id": null, "code": null, "fclass": "primary", "name": null, "pixel_count": 72, "Var_line": 3.9458189010620117, "Edge_contrast": 22.039752960205078, "ROI": 2716.1666666666661, "Road_detected": -1, "ROI_norm": -0.69694978648309824, "Pred": 0 }, "geometry": { "type": "LineString", "coordinates": [ [ 144.855171303693623, -37.687192088325126 ], [ 144.855189521757637, -37.687080537723297 ], [ 144.855258119395813, -37.686986213016802 ] ] } },
{ "type": "Feature", "properties": { "gid": 759, "osm_id": null, "code": null, "fclass": "primary", "name": null, "pixel_count": 69, "Var_line": 101.72287750244141, "Edge_contrast": 16.349277496337891, "ROI": 3789.6666666666665, "Road_detected": -1, "ROI_norm": -0.60697058681158189, "Pred": 0 }, "geometry": { "type": "LineString", "coordinates": [ [ 144.887185001433522, -37.681275970901368 ], [ 144.887325438442303, -37.681267520560681 ], [ 144.887386534029588, -37.681344820736513 ] ] } },
{ "type": "Feature", "properties": { "gid": 773, "osm_id": null, "code": null, "fclass": "primary", "name": null, "pixel_count": 73, "Var_line": 106.54453277587891, "Edge_contrast": 10.545561790466309, "ROI": 6502.6666666666661, "Road_detected": -1, "ROI_norm": -0.37957089542003647, "Pred": 0 }, "geometry": { "type": "LineString", "coordinates": [ [ 144.885828335964305, -37.683151396937284 ], [ 144.88603355060232, -37.683168757393702 ], [ 144.886116220551372, -37.683266104562335 ] ] } },
{ "type": "Feature", "properties": { "gid": 784, "osm_id": null, "code": null, "fclass": "primary", "name": null, "pixel_count": 50, "Var_line": 0.0, "Edge_contrast": 13.020463943481445, "ROI": 720.00000000000011, "Road_detected": -1, "ROI_norm": -0.86426555646691317, "Pred": 0 }, "geometry": { "type": "LineString", "coordinates": [ [ 144.879074547224974, -37.673417895967212 ], [ 144.878757615485171, -37.673486235969307 ] ] } },
{ "type": "Feature", "properties": { "gid": 793, "osm_id": null, "code": null, "fclass": "primary", "name": null, "pixel_count": 88, "Var_line": 81.183876037597656, "Edge_contrast": 3.8947634696960449, "ROI": 5659.166666666667, "Road_detected": -1, "ROI_norm": -0.45027183153827027, "Pred": 0 }, "geometry": { "type": "LineString", "coordinates": [ [ 144.878525984381923, -37.692184452937383 ], [ 144.878702600788984, -37.692084502833829 ], [ 144.878830491494995, -37.692053163120761 ], [ 144.878900686126457, -37.692070399077686 ] ] } },
{ "type": "Feature", "properties": { "gid": 795, "osm_id": null, "code": null, "fclass": "primary", "name": null, "pixel_count": 50, "Var_line": 84.976531982421875, "Edge_contrast": 29.422348022460938, "ROI": 2061.1666666666665, "Road_detected": -1, "ROI_norm": -0.75185092834135936, "Pred": 0 }, "geometry": { "type": "LineString", "coordinates": [ [ 144.880185865559298, -37.680971646916824 ], [ 144.879984304207056, -37.680925671658912 ] ] } },
{ "type": "Feature", "properties": { "gid": 799, "osm_id": null, "code": null, "fclass": "primary", "name": null, "pixel_count": 30, "Var_line": 54.259143829345703, "Edge_contrast": 14.368803977966309, "ROI": 4749.666666666667, "Road_detected": -1, "ROI_norm": -0.52650479111092441, "Pred": 0 }, "geometry": { "type": "LineString", "coordinates": [ [ 144.870222794661771, -37.695768946678932 ], [ 144.870222755398231, -37.695791833248514 ] ] } },
{ "type": "Feature", "properties": { "gid": 809, "osm_id": null, "code": null, "fclass": "primary", "name": null, "pixel_count": 94, "Var_line": 73.113540649414062, "Edge_contrast": 10.710649490356445, "ROI": 7563.6666666666661, "Road_detected": -1, "ROI_norm": -0.2906394274633724, "Pred": 0 }, "geometry": { "type": "LineString", "coordinates": [ [ 144.882434742179839, -37.67962355744757 ], [ 144.882602575771188, -37.679360524439794 ], [ 144.882705241873822, -37.679327725314899 ], [ 144.88286726786211, -37.679326453446556 ] ] } },
{ "type": "Feature", "properties": { "gid": 837, "osm_id": null, "code": null, "fclass": "primary", "name": null, "pixel_count": 50, "Var_line": 96.217193603515625, "Edge_contrast": 2.0302140712738037, "ROI": 3669.1666666666665, "Road_detected": -1, "ROI_norm": -0.61707072054275813, "Pred": 0 }, "geometry": { "type": "LineString", "coordinates": [ [ 144.884020807496142, -37.697224954222932 ], [ 144.883963466268938, -37.697041805933374 ] ] } },
{ "type": "Feature", "properties": { "gid": 842, "osm_id": null, "code": null, "fclass": "primary", "name": null, "pixel_count": 71, "Var_line": 73.167442321777344, "Edge_contrast": 1.2989407777786255, "ROI": 6010.0, "Road_detected": -1, "ROI_norm": -0.42086549474141549, "Pred": 0 }, "geometry": { "type": "LineString", "coordinates": [ [ 144.884329670689112, -37.683653466886057 ], [ 144.88446995079741, -37.683750870790576 ], [ 144.88458874899672, -37.683768150341145 ] ] } },
{ "type": "Feature", "properties": { "gid": 844, "osm_id": null, "code": null, "fclass": "primary", "name": null, "pixel_count": 71, "Var_line": 111.92791748046875, "Edge_contrast": 44.685222625732422, "ROI": 4868.6666666666652, "Road_detected": -1, "ROI_norm": -0.51653038518553052, "Pred": 0 }, "geometry": { "type": "LineString", "coordinates": [ [ 144.880822348115885, -37.679210002519611 ], [ 144.880638804954401, -37.679156894144135 ], [ 144.880563291124588, -37.6790953107216 ] ] } },
{ "type": "Feature", "properties": { "gid": 860, "osm_id": null, "code": null, "fclass": "primary", "name": null, "pixel_count": 50, "Var_line": 135.45344543457031, "Edge_contrast": 26.167469024658203, "ROI": 3992.1666666666665, "Road_detected": -1, "ROI_norm": -0.58999733303097446, "Pred": 0 }, "geometry": { "type": "LineString", "coordinates": [ [ 144.869373181876909, -37.687254189724506 ], [ 144.869431112343875, -37.687071159381276 ] ] } },
{ "type": "Feature", "properties": { "gid": 864, "osm_id": null, "code": null, "fclass": "primary", "name": null, "pixel_count": 111, "Var_line": 15.323062896728516, "Edge_contrast": 5.32763671875, "ROI": 2365.1666666666665, "Road_detected": -1, "ROI_norm": -0.72637009303615119, "Pred": 0 }, "geometry": { "type": "LineString", "coordinates": [ [ 144.872873128322908, -37.695909107906338 ], [ 144.873035264415563, -37.695863506617151 ], [ 144.873165041261728, -37.695786401765005 ], [ 144.873292940520258, -37.695755068007628 ], [ 144.87336313732493, -37.695772307184818 ] ] } },
{ "type": "Feature", "properties": { "gid": 879, "osm_id": null, "code": null, "fclass": "primary", "name": null, "pixel_count": 35, "Var_line": 35.701454162597656, "Edge_contrast": 29.183507919311523, "ROI": 3775.6666666666661, "Road_detected": -1, "ROI_norm": -0.60814404633221653, "Pred": 0 }, "geometry": { "type": "LineString", "coordinates": [ [ 144.870222676871037, -37.695837606386995 ], [ 144.870222755398231, -37.695791833248514 ] ] } },
{ "type": "Feature", "properties": { "gid": 883, "osm_id": null, "code": null, "fclass": "primary", "name": null, "pixel_count": 34, "Var_line": 49.946693420410156, "Edge_contrast": 19.823659896850586, "ROI": 3975.5, "Road_detected": -1, "ROI_norm": -0.59139430865077747, "Pred": 0 }, "geometry": { "type": "LineString", "coordinates": [ [ 144.870222755398231, -37.695791833248514 ], [ 144.870251605143665, -37.695768977883418 ] ] } },
{ "type": "Feature", "properties": { "gid": 895, "osm_id": null, "code": null, "fclass": "primary", "name": null, "pixel_count": 67, "Var_line": 122.55105590820312, "Edge_contrast": 31.987709045410156, "ROI": 6747.666666666667, "Road_detected": -1, "ROI_norm": -0.35903535380893115, "Pred": 0 }, "geometry": { "type": "LineString", "coordinates": [ [ 144.884795164762494, -37.680632867649848 ], [ 144.88489243293381, -37.680598631052334 ], [ 144.8850258112235, -37.680495768821942 ] ] } },
{ "type": "Feature", "properties": { "gid": 899, "osm_id": null, "code": null, "fclass": "primary", "name": null, "pixel_count": 65, "Var_line": 14.862639427185059, "Edge_contrast": 17.943851470947266, "ROI": 3766.9999999999995, "Road_detected": -1, "ROI_norm": -0.60887047365451408, "Pred": 0 }, "geometry": { "type": "LineString", "coordinates": [ [ 144.854971759120247, -37.686093285464082 ], [ 144.855041844119938, -37.686162030397185 ], [ 144.855144424585291, -37.686185041184991 ] ] } },
{ "type": "Feature", "properties": { "gid": 904, "osm_id": null, "code": null, "fclass": "tertiary", "name": null, "pixel_count": 72, "Var_line": 49.918128967285156, "Edge_contrast": 21.802688598632812, "ROI": 5106.0, "Road_detected": -1, "ROI_norm": -0.49663745235953455, "Pred": 0 }, "geometry": { "type": "LineString", "coordinates": [ [ 144.854453016747925, -37.686207089821878 ], [ 144.854487637537233, -37.685992569052431 ], [ 144.854540009284904, -37.685909668359272 ] ] } },
{ "type": "Feature", "properties": { "gid": 915, "osm_id": null, "code": null, "fclass": "tertiary", "name": null, "pixel_count": 30, "Var_line": 62.671966552734375, "Edge_contrast": 32.684532165527344, "ROI": 4278.9999999999991, "Road_detected": -1, "ROI_norm": -0.56595538261416345, "Pred": 0 }, "geometry": { "type": "LineString", "coordinates": [ [ 144.870222637607412, -37.69586049295593 ], [ 144.870222598343759, -37.695883379524709 ] ] } },
{ "type": "Feature", "properties": { "gid": 918, "osm_id": null, "code": null, "fclass": "tertiary", "name": null, "pixel_count": 50, "Var_line": 38.893806457519531, "Edge_contrast": 21.826986312866211, "ROI": 5105.6666666666661, "Road_detected": -1, "ROI_norm": -0.49666539187193065, "Pred": 0 }, "geometry": { "type": "LineString", "coordinates": [ [ 144.855142452663472, -37.687214940133117 ], [ 144.855287014081028, -37.686940474537842 ] ] } },
{ "type": "Feature", "properties": { "gid": 929, "osm_id": null, "code": null, "fclass": "tertiary", "name": null, "pixel_count": 83, "Var_line": 106.23246002197266, "Edge_contrast": 2.5025143623352051, "ROI": 7102.1666666666661, "Road_detected": -1, "ROI_norm": -0.32932168237571968, "Pred": 0 }, "geometry": { "type": "LineString", "coordinates": [ [ 144.885828335964305, -37.683151396937284 ], [ 144.88603355060232, -37.683168757393702 ], [ 144.886082102053479, -37.68320742491035 ], [ 144.886087380366263, -37.683288963855787 ] ] } },
{ "type": "Feature", "properties": { "gid": 932, "osm_id": null, "code": null, "fclass": "tertiary", "name": null, "pixel_count": 45, "Var_line": 84.905838012695312, "Edge_contrast": 6.9020795822143555, "ROI": 3770.1666666666665, "Road_detected": -1, "ROI_norm": -0.60860504828675155, "Pred": 0 }, "geometry": { "type": "LineString", "coordinates": [ [ 144.87154716990517, -37.679337735447824 ], [ 144.871547325322666, -37.679246188596075 ] ] } },
{ "type": "Feature", "properties": { "gid": 954, "osm_id": null, "code": null, "fclass": "tertiary", "name": null, "pixel_count": 64, "Var_line": 82.108566284179688, "Edge_contrast": 35.854469299316406, "ROI": 3093.5, "Road_detected": -1, "ROI_norm": -0.66532225845075654, "Pred": 0 }, "geometry": { "type": "LineString", "coordinates": [ [ 144.880185865559298, -37.680971646916824 ], [ 144.880088717195463, -37.680928637071084 ], [ 144.879984304207056, -37.680925671658912 ] ] } },
{ "type": "Feature", "properties": { "gid": 956, "osm_id": null, "code": null, "fclass": "tertiary", "name": null, "pixel_count": 64, "Var_line": 19.389820098876953, "Edge_contrast": 15.329521179199219, "ROI": 4520.5, "Road_detected": -1, "ROI_norm": -0.54571320588321681, "Pred": 0 }, "geometry": { "type": "LineString", "coordinates": [ [ 144.855000653637546, -37.686047547038733 ], [ 144.855016717648709, -37.686120517843555 ], [ 144.855144468405143, -37.686162154537151 ] ] } },
{ "type": "Feature", "properties": { "gid": 959, "osm_id": null, "code": null, "fclass": "tertiary", "name": null, "pixel_count": 30, "Var_line": 54.259143829345703, "Edge_contrast": 14.368803977966309, "ROI": 4749.666666666667, "Road_detected": -1, "ROI_norm": -0.52650479111092441, "Pred": 0 }, "geometry": { "type": "LineString", "coordinates": [ [ 144.870222794661771, -37.695768946678932 ], [ 144.870222755398231, -37.695791833248514 ] ] } },
{ "type": "Feature", "properties": { "gid": 968, "osm_id": null, "code": null, "fclass": "tertiary", "name": null, "pixel_count": 75, "Var_line": 124.33316802978516, "Edge_contrast": 21.235052108764648, "ROI": 6999.5, "Road_detected": -1, "ROI_norm": -0.33792705219370661, "Pred": 0 }, "geometry": { "type": "LineString", "coordinates": [ [ 144.880829632474587, -37.692873365705815 ], [ 144.880645825964791, -37.692966159678278 ], [ 144.880512548514361, -37.69298748304471 ] ] } },
{ "type": "Feature", "properties": { "gid": 979, "osm_id": null, "code": null, "fclass": "tertiary", "name": null, "pixel_count": 50, "Var_line": 74.30145263671875, "Edge_contrast": 11.132381439208984, "ROI": 8712.8333333333321, "Road_detected": -1, "ROI_norm": -0.19431795847795005, "Pred": 0 }, "geometry": { "type": "LineString", "coordinates": [ [ 144.869459998492772, -37.687025417485721 ], [ 144.869344335113027, -37.68727704495204 ] ] } },
{ "type": "Feature", "properties": { "gid": 984, "osm_id": null, "code": null, "fclass": "tertiary", "name": null, "pixel_count": 50, "Var_line": 102.43843841552734, "Edge_contrast": 10.567113876342773, "ROI": 3852.166666666667, "Road_detected": -1, "ROI_norm": -0.60173192823732025, "Pred": 0 }, "geometry": { "type": "LineString", "coordinates": [ [ 144.884020807496142, -37.697224954222932 ], [ 144.883934690412588, -37.697018891463387 ] ] } },
{ "type": "Feature", "properties": { "gid": 987, "osm_id": null, "code": null, "fclass": "tertiary", "name": null, "pixel_count": 70, "Var_line": 103.64217376708984, "Edge_contrast": 41.846900939941406, "ROI": 4661.833333333333, "Road_detected": -1, "ROI_norm": -0.53386685262728673, "Pred": 0 }, "geometry": { "type": "LineString", "coordinates": [ [ 144.880822348115885, -37.679210002519611 ], [ 144.880595632573545, -37.679135394784147 ], [ 144.880592167498492, -37.679049566004267 ] ] } },
{ "type": "Feature", "properties": { "gid": 995, "osm_id": null, "code": null, "fclass": "tertiary", "name": null, "pixel_count": 86, "Var_line": 117.28957366943359, "Edge_contrast": 30.758975982666016, "ROI": 4993.666666666667, "Road_detected": -1, "ROI_norm": -0.50605306803700734, "Pred": 0 }, "geometry": { "type": "LineString", "coordinates": [ [ 144.879442518887942, -37.677469227903153 ], [ 144.879215640952651, -37.677500468639089 ], [ 144.879113108364919, -37.677450300396281 ], [ 144.879097022956671, -37.677377332586573 ] ] } },
{ "type": "Feature", "properties": { "gid": 1006, "osm_id": null, "code": null, "fclass": "tertiary", "name": null, "pixel_count": 98, "Var_line": 19.192523956298828, "Edge_contrast": 6.6595525741577148, "ROI": 2757.3333333333339, "Road_detected": -1, "ROI_norm": -0.6934992567021846, "Pred": 0 }, "geometry": { "type": "LineString", "coordinates": [ [ 144.872873128322908, -37.695909107906338 ], [ 144.873035264415563, -37.695863506617151 ], [ 144.873165041261728, -37.695786401765005 ], [ 144.873363175638389, -37.695749420614064 ] ] } },
{ "type": "Feature", "properties": { "gid": 1009, "osm_id": null, "code": null, "fclass": "tertiary", "name": null, "pixel_count": 86, "Var_line": 81.423881530761719, "Edge_contrast": 4.6540460586547852, "ROI": 6654.8333333333321, "Road_detected": -1, "ROI_norm": -0.36681650801123439, "Pred": 0 }, "geometry": { "type": "LineString", "coordinates": [ [ 144.884358546525448, -37.683607721339349 ], [ 144.884374631774534, -37.683684979523434 ], [ 144.884455556579894, -37.683745135229074 ], [ 144.88461758981731, -37.683745291412649 ] ] } },
{ "type": "Feature", "properties": { "gid": 1012, "osm_id": null, "code": null, "fclass": "tertiary", "name": null, "pixel_count": 50, "Var_line": 0.0, "Edge_contrast": 13.020463943481445, "ROI": 489.33333333333337, "Road_detected": -1, "ROI_norm": -0.8835996990449877, "Pred": 0 }, "geometry": { "type": "LineString", "coordinates": [ [ 144.879103422332292, -37.673372151511344 ], [ 144.878728740125268, -37.673531980339874 ] ] } },
{ "type": "Feature", "properties": { "gid": 1027, "osm_id": null, "code": null, "fclass": "tertiary", "name": null, "pixel_count": 35, "Var_line": 35.701454162597656, "Edge_contrast": 29.183507919311523, "ROI": 3775.6666666666661, "Road_detected": -1, "ROI_norm": -0.60814404633221653, "Pred": 0 }, "geometry": { "type": "LineString", "coordinates": [ [ 144.870222676871037, -37.695837606386995 ], [ 144.870222755398231, -37.695791833248514 ] ] } },
{ "type": "Feature", "properties": { "gid": 1031, "osm_id": null, "code": null, "fclass": "tertiary", "name": null, "pixel_count": 34, "Var_line": 49.946693420410156, "Edge_contrast": 19.823659896850586, "ROI": 3975.5, "Road_detected": -1, "ROI_norm": -0.59139430865077747, "Pred": 0 }, "geometry": { "type": "LineString", "coordinates": [ [ 144.870222755398231, -37.695791833248514 ], [ 144.870251605143665, -37.695768977883418 ] ] } },
{ "type": "Feature", "properties": { "gid": 1034, "osm_id": null, "code": null, "fclass": "tertiary", "name": null, "pixel_count": 87, "Var_line": 0.0, "Edge_contrast": 9.995722770690918, "ROI": 1778.6666666666665, "Road_detected": -1, "ROI_norm": -0.77552966509702159, "Pred": 0 }, "geometry": { "type": "LineString", "coordinates": [ [ 144.85562872512574, -37.689023575179242 ], [ 144.85553696547737, -37.688989134546958 ], [ 144.855448932619538, -37.688888899144708 ], [ 144.855456314957678, -37.688794500507214 ] ] } },
{ "type": "Feature", "properties": { "gid": 1046, "osm_id": null, "code": null, "fclass": "tertiary", "name": null, "pixel_count": 99, "Var_line": 122.53377532958984, "Edge_contrast": 32.819816589355469, "ROI": 4804.6666666666661, "Road_detected": -1, "ROI_norm": -0.52189477156557429, "Pred": 0 }, "geometry": { "type": "LineString", "coordinates": [ [ 144.87442671898944, -37.67986718413448 ], [ 144.874329475533301, -37.679884247211206 ], [ 144.874180119128823, -37.679844038608394 ], [ 144.874122607858425, -37.679785330889111 ], [ 144.87413890312925, -37.679729561560009 ] ] } },
{ "type": "Feature", "properties": { "gid": 1047, "osm_id": null, "code": null, "fclass": "tertiary", "name": null, "pixel_count": 67, "Var_line": 107.28652191162109, "Edge_contrast": 39.003711700439453, "ROI": 6310.833333333333, "Road_detected": -1, "ROI_norm": -0.3956500848039699, "Pred": 0 }, "geometry": { "type": "LineString", "coordinates": [ [ 144.884795164762494, -37.680632867649848 ], [ 144.88489243293381, -37.680598631052334 ], [ 144.885083490088391, -37.680450050690922 ] ] } },
{ "type": "Feature", "properties": { "gid": 1072, "osm_id": null, "code": null, "fclass": "unclassified", "name": null, "pixel_count": 119, "Var_line": 43.904518127441406, "Edge_contrast": 11.930027961730957, "ROI": 7962.833333333333, "Road_detected": -1, "ROI_norm": -0.2571818613690886, "Pred": 0 }, "geometry": { "type": "LineString", "coordinates": [ [ 144.851834431921702, -37.670045818969669 ], [ 144.852017932760702, -37.670098971662071 ], [ 144.852298435269773, -37.6702552345157 ], [ 144.852352302729884, -37.670323961451317 ], [ 144.852352040380339, -37.670458421299287 ] ] } },
{ "type": "Feature", "properties": { "gid": 1084, "osm_id": null, "code": null, "fclass": "unclassified", "name": null, "pixel_count": 50, "Var_line": 49.976432800292969, "Edge_contrast": 20.494560241699219, "ROI": 7364.0, "Road_detected": -1, "ROI_norm": -0.30737519538861324, "Pred": 0 }, "geometry": { "type": "LineString", "coordinates": [ [ 144.885618496012171, -37.688575343120249 ], [ 144.885706336864388, -37.687637073321198 ] ] } },
{ "type": "Feature", "properties": { "gid": 1099, "osm_id": null, "code": null, "fclass": "unclassified", "name": null, "pixel_count": 175, "Var_line": 3.5280241966247559, "Edge_contrast": 17.999191284179688, "ROI": 7136.0, "Road_detected": -1, "ROI_norm": -0.3264858218675194, "Pred": 0 }, "geometry": { "type": "LineString", "coordinates": [ [ 144.852624180764252, -37.678606458030131 ], [ 144.852679704319939, -37.678752429469114 ], [ 144.852681170364662, -37.67892408201044 ], [ 144.852591453088991, -37.679696399818333 ], [ 144.852511979017493, -37.679830761685885 ], [ 144.852366089731618, -37.679864912097202 ], [ 144.850980102519401, -37.679748762027039 ] ] } },
{ "type": "Feature", "properties": { "gid": 1244, "osm_id": null, "code": null, "fclass": "unclassified", "name": null, "pixel_count": 75, "Var_line": 14.022126197814941, "Edge_contrast": 13.132740020751953, "ROI": 11694.166666666666, "Road_detected": -1, "ROI_norm": 0.055573040392424992, "Pred": 0 }, "geometry": { "type": "LineString", "coordinates": [ [ 144.851211573316419, -37.693870141658117 ], [ 144.851894065495088, -37.697518542264149 ], [ 144.851981107250538, -37.698128005572805 ] ] } },
{ "type": "Feature", "properties": { "gid": 1257, "osm_id": null, "code": null, "fclass": "unclassified", "name": null, "pixel_count": 75, "Var_line": 0.0, "Edge_contrast": 0.0, "ROI": 2324.0000000000005, "Road_detected": -1, "ROI_norm": -0.72982062281706472, "Pred": 0 }, "geometry": { "type": "LineString", "coordinates": [ [ 144.877409149506292, -37.670257822227789 ], [ 144.877607386169927, -37.670114982283408 ], [ 144.877870331234874, -37.670029425088075 ] ] } },
{ "type": "Feature", "properties": { "gid": 1260, "osm_id": null, "code": null, "fclass": "unclassified", "name": null, "pixel_count": 50, "Var_line": 43.913455963134766, "Edge_contrast": 22.322893142700195, "ROI": 6007.5, "Road_detected": -1, "ROI_norm": -0.42107504108438604, "Pred": 0 }, "geometry": { "type": "LineString", "coordinates": [ [ 144.845489745903109, -37.688324326774719 ], [ 144.845602827895789, -37.689377259909449 ] ] } },
{ "type": "Feature", "properties": { "gid": 1290, "osm_id": null, "code": null, "fclass": "unclassified", "name": null, "pixel_count": 75, "Var_line": 82.077056884765625, "Edge_contrast": 23.645002365112305, "ROI": 16596.0, "Road_detected": -1, "ROI_norm": 0.46643753993270898, "Pred": 0 }, "geometry": { "type": "LineString", "coordinates": [ [ 144.883667557878965, -37.683378185129229 ], [ 144.883524364880174, -37.684004569747721 ], [ 144.883493313552975, -37.684293484252265 ] ] } },
{ "type": "Feature", "properties": { "gid": 1303, "osm_id": null, "code": null, "fclass": "unclassified", "name": null, "pixel_count": 163, "Var_line": 42.951301574707031, "Edge_contrast": 21.247936248779297, "ROI": 10308.166666666664, "Road_detected": -1, "ROI_norm": -0.060599452150399316, "Pred": 0 }, "geometry": { "type": "LineString", "coordinates": [ [ 144.884641196255728, -37.68715543206217 ], [ 144.884824774696995, -37.687199951651003 ], [ 144.885424240573855, -37.687256312792691 ], [ 144.885476358434289, -37.687319301002518 ], [ 144.885452590847478, -37.687558158000229 ], [ 144.885544334242013, -37.687611171134648 ], [ 144.885677564057318, -37.687614159187817 ] ] } },
{ "type": "Feature", "properties": { "gid": 1357, "osm_id": null, "code": null, "fclass": "unclassified", "name": null, "pixel_count": 97, "Var_line": 20.403280258178711, "Edge_contrast": 14.559421539306641, "ROI": 9489.3333333333339, "Road_detected": -1, "ROI_norm": -0.12923286435132439, "Pred": 0 }, "geometry": { "type": "LineString", "coordinates": [ [ 144.856821938006362, -37.697859249130893 ], [ 144.853460992269078, -37.6982843092594 ], [ 144.852099864665604, -37.69817392542619 ], [ 144.851981107250538, -37.698128005572805 ] ] } },
{ "type": "Feature", "properties": { "gid": 1374, "osm_id": null, "code": null, "fclass": "unclassified", "name": null, "pixel_count": 67, "Var_line": 25.670236587524414, "Edge_contrast": 26.705455780029297, "ROI": 4955.0, "Road_detected": -1, "ROI_norm": -0.50929405147495044, "Pred": 0 }, "geometry": { "type": "LineString", "coordinates": [ [ 144.8618046129248, -37.683011656738323 ], [ 144.861901894554791, -37.682977438841682 ], [ 144.8631023566588, -37.682189224646748 ] ] } }
]
}
