{
"type": "FeatureCollection",
"crs": { "type": "name", "properties": { "name": "urn:ogc:def:crs:OGC:1.3:CRS84" } },
"features": [
{ "type": "Feature", "properties": { "gid": 13, "fclass": "residential", "length": 284.1715175028861, "status": "disappeared" }, "geometry": { "type": "LineString", "coordinates": [ [ 144.875082041615542, -37.684216348005627 ], [ 144.874704572923406, -37.683846905537052 ], [ 144.873927765863812, -37.683273922571757 ], [ 144.872838244394075, -37.682383049546303 ] ] } },
{ "type": "Feature", "properties": { "gid": 21, "fclass": "residential", "length": 214.88418970477753, "status": "disappeared" }, "geometry": { "type": "LineString", "coordinates": [ [ 144.864023015962744, -37.682808214986416 ], [ 144.864132482619397, -37.683005737209733 ], [ 144.865309695891511, -37.684139959300666 ], [ 144.865404902183997, -37.684260221562816 ], [ 144.865431719630976, -37.68436610274113 ] ] } },
{ "type": "Feature", "properties": { "gid": 25, "fclass": "residential", "length": 92.548301984177101, "status": "disappeared" }, "geometry": { "type": "LineString", "coordinates": [ [ 144.853133793961604, -37.668330905825016 ], [ 144.852193980720187, -37.668438462197301 ], [ 144.852096814036798, -37.668421177098359 ] ] } },
{ "type": "Feature", "properties": { "gid": 39, "fclass": "residential", "length": 33.487625278224343, "status": "disappeared" }, "geometry": { "type": "LineString", "coordinates": [ [ 144.874805100908276, -37.694904131316477 ], [ 144.874664490249074, -37.695001252424731 ], [ 144.874487923402768, -37.695064005776445 ] ] } },
{ "type": "Feature", "properties": { "gid": 54, "fclass": "residential", "length": 1190.7357574329067, "status": "disappeared" }, "geometry": { "type": "LineString", "coordinates": [ [ 144.86636746228325, -37.676471222703071 ], [ 144.866119037797262, -37.676469514857935 ], [ 144.864563955475063, -37.676307559080541 ], [ 144.863613696555802, -37.676172020956542 ], [ 144.85977153984814, -37.674524026549989 ], [ 144.859037849055738, -37.674109772453619 ], [ 144.858390668883231, -37.673644120787607 ], [ 144.85822891461433, -37.673506608581945 ], [ 144.858052985356295, -37.673248923595629 ], [ 144.857964558170806, -37.672407728320195 ], [ 144.857966938205863, -37.672098759076761 ], [ 144.858050257610728, -37.671824215989602 ], [ 144.858237884492127, -37.671601291681888 ], [ 144.858506470822022, -37.671401349562636 ], [ 144.858600331316467, -37.671264139448375 ], [ 144.858589787501501, -37.671126806028546 ], [ 144.858267093337957, -37.670422654495106 ], [ 144.8582565127343, -37.670305346940204 ] ] } },
{ "type": "Feature", "properties": { "gid": 61, "fclass": "residential", "length": 55.895765472669154, "status": "disappeared" }, "geometry": { "type": "LineString", "coordinates": [ [ 144.883330915867788, -37.658843185595501 ], [ 144.882697394400623, -37.658842566684299 ] ] } },
{ "type": "Feature", "properties": { "gid": 63, "fclass": "residential", "length": 41.520164659975578, "status": "disappeared" }, "geometry": { "type": "LineString", "coordinates": [ [ 144.882853590163535, -37.688160711163171 ], [ 144.882945401076057, -37.688169383411754 ], [ 144.883137901604954, -37.688266839717691 ], [ 144.883202732022369, -37.688258320440596 ], [ 144.883256825785054, -37.688206878152506 ] ] } },
{ "type": "Feature", "properties": { "gid": 74, "fclass": "residential", "length": 30.478324764826084, "status": "disappeared" }, "geometry": { "type": "LineString", "coordinates": [ [ 144.884092737295447, -37.687887276399763 ], [ 144.883984669740471, -37.687912919301304 ], [ 144.883861996342375, -37.688070146330219 ] ] } },
{ "type": "Feature", "properties": { "gid": 78, "fclass": "residential", "length": 75.979095502300453, "status": "disappeared" }, "geometry": { "type": "LineString", "coordinates": [ [ 144.886020563185497, -37.689399646329186 ], [ 144.885843962715143, -37.68949960732283 ], [ 144.885692685607978, -37.689522349735853 ], [ 144.885505285692432, -37.689619439088602 ], [ 144.885242467776322, -37.689581996791496 ] ] } },
{ "type": "Feature", "properties": { "gid": 110, "fclass": "residential", "length": 428.31879247403151, "status": "disappeared" }, "geometry": { "type": "LineString", "coordinates": [ [ 144.857292879703778, -37.677307565427149 ], [ 144.857174151887222, -37.677261650358197 ], [ 144.85643975400717, -37.677213568412057 ], [ 144.852483641453972, -37.676821116591867 ] ] } },
{ "type": "Feature", "properties": { "gid": 113, "fclass": "residential", "length": 53.896434379745074, "status": "disappeared" }, "geometry": { "type": "LineString", "coordinates": [ [ 144.848431826170213, -37.672101376172975 ], [ 144.849036793835268, -37.672033479760529 ] ] } },
{ "type": "Feature", "properties": { "gid": 130, "fclass": "residential", "length": 122.19222333607766, "status": "disappeared" }, "geometry": { "type": "LineString", "coordinates": [ [ 144.85115648553213, -37.677940926852571 ], [ 144.852538928640485, -37.678011297094123 ] ] } },
{ "type": "Feature", "properties": { "gid": 146, "fclass": "residential", "length": 314.43836219077889, "status": "disappeared" }, "geometry": { "type": "LineString", "coordinates": [ [ 144.872940072843846, -37.673205564023135 ], [ 144.87253210429057, -37.676020206256602 ] ] } },
{ "type": "Feature", "properties": { "gid": 151, "fclass": "residential", "length": 203.9044802912162, "status": "disappeared" }, "geometry": { "type": "LineString", "coordinates": [ [ 144.85245327619856, -37.67762211645821 ], [ 144.850584825792367, -37.677528253155032 ], [ 144.850149263089463, -37.677481935471448 ] ] } },
{ "type": "Feature", "properties": { "gid": 179, "fclass": "residential", "length": 27.81410978234501, "status": "disappeared" }, "geometry": { "type": "LineString", "coordinates": [ [ 144.851747536663879, -37.670297466675144 ], [ 144.851866261461566, -37.670337665547216 ], [ 144.852006475091002, -37.670435107950397 ] ] } },
{ "type": "Feature", "properties": { "gid": 183, "fclass": "residential", "length": 67.016768893505343, "status": "disappeared" }, "geometry": { "type": "LineString", "coordinates": [ [ 144.884952273274592, -37.672027590895027 ], [ 144.884790267305334, -37.672026004739841 ], [ 144.884203575713286, -37.671935322116418 ] ] } },
{ "type": "Feature", "properties": { "gid": 225, "fclass": "residential", "length": 48.067242062883821, "status": "disappeared" }, "geometry": { "type": "LineString", "coordinates": [ [ 144.875267270962667, -37.694172241501448 ], [ 144.874975301468965, -37.694335004362102 ], [ 144.874892250528831, -37.694469376571959 ] ] } },
{ "type": "Feature", "properties": { "gid": 234, "fclass": "residential", "length": 1455.6985391676917, "status": "disappeared" }, "geometry": { "type": "LineString", "coordinates": [ [ 144.865402872777679, -37.68438895704444 ], [ 144.864829619731353, -37.684797411516065 ], [ 144.864523030256862, -37.685088870698102 ], [ 144.864275728703092, -37.685449056367197 ], [ 144.864114814024816, -37.68582650452889 ], [ 144.864016511620207, -37.686427168804435 ], [ 144.863868245663582, -37.688778607327571 ], [ 144.863746438184421, -37.689430739010902 ], [ 144.863473261051439, -37.690151357991375 ], [ 144.863233015943734, -37.690580208863054 ], [ 144.863065131545824, -37.690820326999358 ], [ 144.862485973484269, -37.691471933271679 ], [ 144.862173980130535, -37.691744784139537 ], [ 144.861438463860082, -37.692228846558194 ], [ 144.860703201564178, -37.692569863161516 ], [ 144.860400506372002, -37.692676791967607 ], [ 144.859319670852784, -37.692937293616708 ], [ 144.85628322026048, -37.693281280388518 ] ] } },
{ "type": "Feature", "properties": { "gid": 250, "fclass": "residential", "length": 1123.6785710842896, "status": "disappeared" }, "geometry": { "type": "LineString", "coordinates": [ [ 144.854840985715867, -37.664167576478569 ], [ 144.854839564444831, -37.663970175323719 ], [ 144.854630624958446, -37.663111663306502 ], [ 144.854422796687572, -37.662613620745624 ], [ 144.854173475286643, -37.662167022749848 ], [ 144.853830564910936, -37.661720309959264 ], [ 144.853595250153575, -37.661479709925679 ], [ 144.853151422701927, -37.661101532397566 ], [ 144.852741590321955, -37.660829246977272 ], [ 144.851900093160594, -37.660409092482261 ], [ 144.851079853969622, -37.660166332111508 ], [ 144.850540100980282, -37.660069820658244 ], [ 144.849978660999057, -37.660019053453723 ], [ 144.847516762681096, -37.659900078818737 ], [ 144.846782643659338, -37.659800441890283 ], [ 144.846092050384726, -37.65953921744935 ], [ 144.845376679848016, -37.659074835448472 ] ] } },
{ "type": "Feature", "properties": { "gid": 313, "fclass": "residential", "length": 303.56319471687846, "status": "disappeared" }, "geometry": { "type": "LineString", "coordinates": [ [ 144.87292558308809, -37.681833860714001 ], [ 144.872828437744602, -37.681790844994026 ], [ 144.872374814381033, -37.681756032438741 ], [ 144.871856607611818, -37.681586689528778 ], [ 144.871556228966199, -37.681424730242483 ], [ 144.870511659201213, -37.680598252536782 ], [ 144.870133995181703, -37.680366115385581 ] ] } },
{ "type": "Feature", "properties": { "gid": 316, "fclass": "residential", "length": 409.764486529593, "status": "disappeared" }, "geometry": { "type": "LineString", "coordinates": [ [ 144.852567732353066, -37.678011332551264 ], [ 144.852745885730542, -37.678047312284257 ], [ 144.852871676739198, -37.678163331143651 ], [ 144.855063624197271, -37.680431792792533 ], [ 144.855388886109466, -37.680741157028308 ], [ 144.855529183642773, -37.680807125722517 ] ] } },
{ "type": "Feature", "properties": { "gid": 317, "fclass": "residential", "length": 24.588735086641787, "status": "disappeared" }, "geometry": { "type": "LineString", "coordinates": [ [ 144.852035231168429, -37.670458030317775 ], [ 144.852143139281679, -37.670506798112342 ], [ 144.852207723299898, -37.67061845115353 ] ] } },
{ "type": "Feature", "properties": { "gid": 346, "fclass": "residential", "length": 37.028444521501441, "status": "disappeared" }, "geometry": { "type": "LineString", "coordinates": [ [ 144.855431443249728, -37.686734668669814 ], [ 144.855404190607715, -37.686863373438861 ], [ 144.855488445293986, -37.687055151170043 ] ] } },
{ "type": "Feature", "properties": { "gid": 376, "fclass": "residential", "length": 169.75079806250289, "status": "disappeared" }, "geometry": { "type": "LineString", "coordinates": [ [ 144.871667628517002, -37.693230087902421 ], [ 144.871611562462448, -37.693375930118734 ], [ 144.871376965101376, -37.694740293599892 ] ] } },
{ "type": "Feature", "properties": { "gid": 382, "fclass": "residential", "length": 277.72699926994329, "status": "disappeared" }, "geometry": { "type": "LineString", "coordinates": [ [ 144.851168865377133, -37.671647072125033 ], [ 144.851190314444295, -37.671724341818262 ], [ 144.851063700557233, -37.672033156579687 ], [ 144.851081532552996, -37.672119004342065 ], [ 144.851523701186665, -37.672452842651829 ], [ 144.851674755356726, -37.672531703259494 ], [ 144.851761149027197, -37.67253753192491 ], [ 144.851955828679451, -37.672400451801195 ], [ 144.852143810338134, -37.672005886329366 ], [ 144.852153213231247, -37.671799916513585 ], [ 144.852281622358646, -37.671491102793652 ], [ 144.852407856517942, -37.671373963423314 ] ] } },
{ "type": "Feature", "properties": { "gid": 383, "fclass": "residential", "length": 239.54386293897164, "status": "disappeared" }, "geometry": { "type": "LineString", "coordinates": [ [ 144.856270823755636, -37.66947905415195 ], [ 144.856469601446037, -37.670019994173387 ], [ 144.856571911035616, -37.67017460290117 ], [ 144.85680560028888, -37.670342242529451 ], [ 144.85706467235525, -37.670414073362849 ], [ 144.857215868578749, -37.670418544994611 ], [ 144.857777780388034, -37.670261866583658 ], [ 144.858227754830409, -37.670282426065327 ] ] } },
{ "type": "Feature", "properties": { "gid": 402, "fclass": "residential", "length": 699.02133273759171, "status": "disappeared" }, "geometry": { "type": "LineString", "coordinates": [ [ 144.865724898907445, -37.681482704356888 ], [ 144.865843633463584, -37.681531471713427 ], [ 144.866115055969203, -37.681772086123033 ], [ 144.866927352364172, -37.682596913605799 ], [ 144.868117233673615, -37.683713957275124 ], [ 144.870786339250486, -37.686317368045898 ] ] } },
{ "type": "Feature", "properties": { "gid": 410, "fclass": "residential", "length": 284.41817684653881, "status": "disappeared" }, "geometry": { "type": "LineString", "coordinates": [ [ 144.883086243708959, -37.686741964253706 ], [ 144.883334702304552, -37.686743636901099 ], [ 144.886283344711245, -37.687065455432915 ] ] } },
{ "type": "Feature", "properties": { "gid": 488, "fclass": "motorway", "length": 35.825796511747619, "status": "disappeared" }, "geometry": { "type": "LineString", "coordinates": [ [ 144.881900831840596, -37.689510089146317 ], [ 144.88176599505465, -37.689381218662199 ], [ 144.881699604580461, -37.689235250631299 ] ] } },
{ "type": "Feature", "properties": { "gid": 499, "fclass": "trunk", "length": 3.5926092055679342, "status": "disappeared" }, "geometry": { "type": "LineString", "coordinates": [ [ 144.850159913882806, -37.67210355060854 ], [ 144.850131157748137, -37.672080627805009 ] ] } },
{ "type": "Feature", "properties": { "gid": 500, "fclass": "trunk", "length": 2.5400000000372529, "status": "disappeared" }, "geometry": { "type": "LineString", "coordinates": [ [ 144.850159913882806, -37.67210355060854 ], [ 144.850159959202102, -37.672080663841314 ] ] } },
{ "type": "Feature", "properties": { "gid": 533, "fclass": "trunk", "length": 25.604084392675983, "status": "disappeared" }, "geometry": { "type": "LineString", "coordinates": [ [ 144.88489554071387, -37.671455366002029 ], [ 144.88499834074733, -37.671326726402164 ], [ 144.884982257488417, -37.671249467943078 ] ] } },
{ "type": "Feature", "properties": { "gid": 547, "fclass": "trunk", "length": 48.466242272079583, "status": "disappeared" }, "geometry": { "type": "LineString", "coordinates": [ [ 144.852290105321941, -37.672678367210324 ], [ 144.852380663098586, -37.672395254470224 ], [ 144.852463718628854, -37.672266618441391 ] ] } },
{ "type": "Feature", "properties": { "gid": 548, "fclass": "trunk", "length": 3.5926092052387086, "status": "disappeared" }, "geometry": { "type": "LineString", "coordinates": [ [ 144.852290105321941, -37.672678367210324 ], [ 144.852261258955366, -37.672701218449227 ] ] } },
{ "type": "Feature", "properties": { "gid": 549, "fclass": "trunk", "length": 2.5399999995715916, "status": "disappeared" }, "geometry": { "type": "LineString", "coordinates": [ [ 144.852290105321941, -37.672678367210324 ], [ 144.852290060646595, -37.672701253973244 ] ] } },
{ "type": "Feature", "properties": { "gid": 550, "fclass": "trunk", "length": 15.450334653675144, "status": "disappeared" }, "geometry": { "type": "LineString", "coordinates": [ [ 144.87977867018617, -37.68344300542924 ], [ 144.879749646142272, -37.683580296590343 ] ] } },
{ "type": "Feature", "properties": { "gid": 558, "fclass": "trunk", "length": 26.152640834364252, "status": "disappeared" }, "geometry": { "type": "LineString", "coordinates": [ [ 144.868912226400568, -37.687276572883803 ], [ 144.869055906128239, -37.687482710193279 ] ] } },
{ "type": "Feature", "properties": { "gid": 560, "fclass": "trunk", "length": 3.5926092055679342, "status": "disappeared" }, "geometry": { "type": "LineString", "coordinates": [ [ 144.852463718628854, -37.672266618441391 ], [ 144.852492564768568, -37.672243767150007 ] ] } },
{ "type": "Feature", "properties": { "gid": 561, "fclass": "trunk", "length": 2.5407166122458875, "status": "disappeared" }, "geometry": { "type": "LineString", "coordinates": [ [ 144.852463718628854, -37.672266618441391 ], [ 144.852492520154698, -37.672266653916729 ] ] } },
{ "type": "Feature", "properties": { "gid": 585, "fclass": "trunk", "length": 23.000757398864874, "status": "disappeared" }, "geometry": { "type": "LineString", "coordinates": [ [ 144.871457873085518, -37.697990278568092 ], [ 144.87148703435372, -37.697784330511467 ] ] } },
{ "type": "Feature", "properties": { "gid": 596, "fclass": "trunk", "length": 25.526755393143432, "status": "disappeared" }, "geometry": { "type": "LineString", "coordinates": [ [ 144.85252181233605, -37.672014934940165 ], [ 144.852492564768568, -37.672243767150007 ] ] } },
{ "type": "Feature", "properties": { "gid": 597, "fclass": "trunk", "length": 3.5926092055679342, "status": "disappeared" }, "geometry": { "type": "LineString", "coordinates": [ [ 144.851864352666439, -37.669473684900233 ], [ 144.851835597014798, -37.669450762483415 ] ] } },
{ "type": "Feature", "properties": { "gid": 598, "fclass": "trunk", "length": 2.5407166122458875, "status": "disappeared" }, "geometry": { "type": "LineString", "coordinates": [ [ 144.851864352666439, -37.669473684900233 ], [ 144.851835552203852, -37.669473649273776 ] ] } },
{ "type": "Feature", "properties": { "gid": 599, "fclass": "trunk", "length": 2.5407166122458875, "status": "disappeared" }, "geometry": { "type": "LineString", "coordinates": [ [ 144.851864352666439, -37.669473684900233 ], [ 144.851893153128998, -37.669473720519733 ] ] } },
{ "type": "Feature", "properties": { "gid": 602, "fclass": "trunk", "length": 37.328148311043776, "status": "disappeared" }, "geometry": { "type": "LineString", "coordinates": [ [ 144.849490196750338, -37.675764600217185 ], [ 144.849419904391709, -37.675807424602915 ], [ 144.849086819832252, -37.675832753030221 ] ] } },
{ "type": "Feature", "properties": { "gid": 608, "fclass": "trunk", "length": 3.5926092055679342, "status": "disappeared" }, "geometry": { "type": "LineString", "coordinates": [ [ 144.850160004521371, -37.672057777073832 ], [ 144.850131157748137, -37.672080627805009 ] ] } },
{ "type": "Feature", "properties": { "gid": 609, "fclass": "trunk", "length": 2.5400000000372529, "status": "disappeared" }, "geometry": { "type": "LineString", "coordinates": [ [ 144.850160004521371, -37.672057777073832 ], [ 144.850159959202102, -37.672080663841314 ] ] } },
{ "type": "Feature", "properties": { "gid": 610, "fclass": "trunk", "length": 269.07440202156863, "status": "disappeared" }, "geometry": { "type": "LineString", "coordinates": [ [ 144.846097558025804, -37.672762117255111 ], [ 144.847318397118642, -37.672582015655664 ], [ 144.847750479333911, -37.672553957165448 ], [ 144.848182785076801, -37.672414324145215 ], [ 144.848330591001229, -37.672315811988391 ], [ 144.848372165194291, -37.672230039041885 ], [ 144.848288507144929, -37.671757892325502 ] ] } },
{ "type": "Feature", "properties": { "gid": 613, "fclass": "trunk", "length": 28.398319732192718, "status": "disappeared" }, "geometry": { "type": "LineString", "coordinates": [ [ 144.884633029698165, -37.692510902497361 ], [ 144.884691031923722, -37.692259205328988 ] ] } },
{ "type": "Feature", "properties": { "gid": 622, "fclass": "trunk", "length": 66.423734401608286, "status": "disappeared" }, "geometry": { "type": "LineString", "coordinates": [ [ 144.871923174470908, -37.678422667763272 ], [ 144.871818542322814, -37.678551293870385 ], [ 144.871751555018676, -37.678774368075153 ], [ 144.871796270445742, -37.678946066630552 ], [ 144.871835832438677, -37.678971856570286 ] ] } },
{ "type": "Feature", "properties": { "gid": 626, "fclass": "trunk", "length": 2.5400000000372529, "status": "disappeared" }, "geometry": { "type": "LineString", "coordinates": [ [ 144.851921953591642, -37.669473756132334 ], [ 144.85192199837644, -37.669450869341922 ] ] } },
{ "type": "Feature", "properties": { "gid": 627, "fclass": "trunk", "length": 2.5407166127115488, "status": "disappeared" }, "geometry": { "type": "LineString", "coordinates": [ [ 144.851921953591642, -37.669473756132334 ], [ 144.851893153128998, -37.669473720519733 ] ] } },
{ "type": "Feature", "properties": { "gid": 635, "fclass": "trunk", "length": 2.5407166122458875, "status": "disappeared" }, "geometry": { "type": "LineString", "coordinates": [ [ 144.852261258955366, -37.672701218449227 ], [ 144.852290060646595, -37.672701253973244 ] ] } },
{ "type": "Feature", "properties": { "gid": 639, "fclass": "trunk", "length": 2.5407166122458875, "status": "disappeared" }, "geometry": { "type": "LineString", "coordinates": [ [ 144.850159959202102, -37.672080663841314 ], [ 144.850131157748137, -37.672080627805009 ] ] } },
{ "type": "Feature", "properties": { "gid": 661, "fclass": "trunk", "length": 2.5400000000372529, "status": "disappeared" }, "geometry": { "type": "LineString", "coordinates": [ [ 144.852492564768568, -37.672243767150007 ], [ 144.852492520154698, -37.672266653916729 ] ] } },
{ "type": "Feature", "properties": { "gid": 678, "fclass": "trunk", "length": 117.87497860438502, "status": "disappeared" }, "geometry": { "type": "LineString", "coordinates": [ [ 144.852492520154698, -37.672266653916729 ], [ 144.852589641708704, -37.67230968628202 ], [ 144.852757020056771, -37.672325626861415 ], [ 144.852863033852543, -37.672424456560002 ], [ 144.85298712397389, -37.672484686842502 ], [ 144.853035598896184, -37.672550545939195 ], [ 144.853033532091445, -37.672687864313268 ], [ 144.852966678043657, -37.672816520606844 ], [ 144.852664215261171, -37.672839035729581 ] ] } },
{ "type": "Feature", "properties": { "gid": 679, "fclass": "trunk", "length": 2.5400000000372529, "status": "disappeared" }, "geometry": { "type": "LineString", "coordinates": [ [ 144.851835552203852, -37.669473649273776 ], [ 144.851835597014798, -37.669450762483415 ] ] } },
{ "type": "Feature", "properties": { "gid": 699, "fclass": "trunk", "length": 3.592609205897253, "status": "disappeared" }, "geometry": { "type": "LineString", "coordinates": [ [ 144.85192199837644, -37.669450869341922 ], [ 144.851893153128998, -37.669473720519733 ] ] } },
{ "type": "Feature", "properties": { "gid": 701, "fclass": "trunk", "length": 37.822879378308897, "status": "disappeared" }, "geometry": { "type": "LineString", "coordinates": [ [ 144.852664215261171, -37.672839035729581 ], [ 144.852567134790007, -37.672774547093645 ], [ 144.85241593971358, -37.672767208751864 ], [ 144.852290060646595, -37.672701253973244 ] ] } },
{ "type": "Feature", "properties": { "gid": 714, "fclass": "primary", "length": 38.252229590584435, "status": "disappeared" }, "geometry": { "type": "LineString", "coordinates": [ [ 144.882804696516359, -37.682530535424242 ], [ 144.882707504747088, -37.682513275252582 ], [ 144.882559814703257, -37.68255318231153 ], [ 144.882516393294054, -37.682690460067541 ] ] } },
{ "type": "Feature", "properties": { "gid": 735, "fclass": "primary", "length": 26.682497619355168, "status": "disappeared" }, "geometry": { "type": "LineString", "coordinates": [ [ 144.886540505197189, -37.669259800256228 ], [ 144.886429071112758, -37.669148121308268 ], [ 144.886310308338864, -37.669122260936248 ] ] } },
{ "type": "Feature", "properties": { "gid": 737, "fclass": "primary", "length": 2.5400000000372529, "status": "disappeared" }, "geometry": { "type": "LineString", "coordinates": [ [ 144.883779546579177, -37.685483870831703 ], [ 144.883779581736405, -37.685460984168337 ] ] } },
{ "type": "Feature", "properties": { "gid": 738, "fclass": "primary", "length": 2.5407166127115488, "status": "disappeared" }, "geometry": { "type": "LineString", "coordinates": [ [ 144.883779546579177, -37.685483870831703 ], [ 144.88380835314976, -37.685483898776219 ] ] } },
{ "type": "Feature", "properties": { "gid": 739, "fclass": "primary", "length": 16.064823796785998, "status": "disappeared" }, "geometry": { "type": "LineString", "coordinates": [ [ 144.883779546579177, -37.685483870831703 ], [ 144.883721722389737, -37.685621134897772 ] ] } },
{ "type": "Feature", "properties": { "gid": 744, "fclass": "primary", "length": 3.5926092055679342, "status": "disappeared" }, "geometry": { "type": "LineString", "coordinates": [ [ 144.885423878003479, -37.683929159022568 ], [ 144.885452718633104, -37.68390629989441 ] ] } },
{ "type": "Feature", "properties": { "gid": 745, "fclass": "primary", "length": 5.6808946141893015, "status": "disappeared" }, "geometry": { "type": "LineString", "coordinates": [ [ 144.885423878003479, -37.683929159022568 ], [ 144.885366231368522, -37.683951990580603 ] ] } },
{ "type": "Feature", "properties": { "gid": 746, "fclass": "primary", "length": 2.5407166122458875, "status": "disappeared" }, "geometry": { "type": "LineString", "coordinates": [ [ 144.885423878003479, -37.683929159022568 ], [ 144.88545268398272, -37.683929186571703 ] ] } },
{ "type": "Feature", "properties": { "gid": 753, "fclass": "primary", "length": 25.526755393143432, "status": "disappeared" }, "geometry": { "type": "LineString", "coordinates": [ [ 144.869535842841231, -37.69315912548123 ], [ 144.869565046940721, -37.692930290919023 ] ] } },
{ "type": "Feature", "properties": { "gid": 756, "fclass": "primary", "length": 2.5400000000372529, "status": "disappeared" }, "geometry": { "type": "LineString", "coordinates": [ [ 144.885452718633104, -37.68390629989441 ], [ 144.88545268398272, -37.683929186571703 ] ] } },
{ "type": "Feature", "properties": { "gid": 775, "fclass": "primary", "length": 22.719732711071394, "status": "disappeared" }, "geometry": { "type": "LineString", "coordinates": [ [ 144.873501877948826, -37.681720037030395 ], [ 144.873386963807661, -37.681536821749646 ] ] } },
{ "type": "Feature", "properties": { "gid": 785, "fclass": "primary", "length": 21.853988293243571, "status": "disappeared" }, "geometry": { "type": "LineString", "coordinates": [ [ 144.882669364749262, -37.676923149828298 ], [ 144.882871165067058, -37.676808913477302 ] ] } },
{ "type": "Feature", "properties": { "gid": 794, "fclass": "primary", "length": 3.5926092055679342, "status": "disappeared" }, "geometry": { "type": "LineString", "coordinates": [ [ 144.885490586395207, -37.696951728841036 ], [ 144.885461810110542, -37.696928814737049 ] ] } },
{ "type": "Feature", "properties": { "gid": 796, "fclass": "primary", "length": 2.5407166127115488, "status": "disappeared" }, "geometry": { "type": "LineString", "coordinates": [ [ 144.885490586395207, -37.696951728841036 ], [ 144.885519397333468, -37.696951756374006 ] ] } },
{ "type": "Feature", "properties": { "gid": 805, "fclass": "primary", "length": 25.526755393097087, "status": "disappeared" }, "geometry": { "type": "LineString", "coordinates": [ [ 144.854881563404092, -37.688061431839991 ], [ 144.854909932025009, -37.688290333037799 ] ] } },
{ "type": "Feature", "properties": { "gid": 807, "fclass": "primary", "length": 18.736051878591606, "status": "disappeared" }, "geometry": { "type": "LineString", "coordinates": [ [ 144.879464395248704, -37.681817732247133 ], [ 144.879383469632273, -37.68176186438108 ], [ 144.879407003771547, -37.681680354096422 ] ] } },
{ "type": "Feature", "properties": { "gid": 820, "fclass": "primary", "length": 22.719732711071394, "status": "disappeared" }, "geometry": { "type": "LineString", "coordinates": [ [ 144.886843331092479, -37.697868477816527 ], [ 144.886958302634355, -37.698051679050678 ] ] } },
{ "type": "Feature", "properties": { "gid": 831, "fclass": "primary", "length": 12.702293275780832, "status": "disappeared" }, "geometry": { "type": "LineString", "coordinates": [ [ 144.853244955129242, -37.670413745082406 ], [ 144.853129885105545, -37.670344943514102 ] ] } },
{ "type": "Feature", "properties": { "gid": 832, "fclass": "primary", "length": 19.34867448478575, "status": "disappeared" }, "geometry": { "type": "LineString", "coordinates": [ [ 144.871721469725372, -37.678468225439595 ], [ 144.871922980769511, -37.678537101363538 ] ] } },
{ "type": "Feature", "properties": { "gid": 833, "fclass": "primary", "length": 21.360844493634634, "status": "disappeared" }, "geometry": { "type": "LineString", "coordinates": [ [ 144.874686413709156, -37.679592815106318 ], [ 144.874702729841715, -37.679524171921017 ], [ 144.874830662498766, -37.679455645421349 ] ] } },
{ "type": "Feature", "properties": { "gid": 835, "fclass": "primary", "length": 17.767278375098915, "status": "disappeared" }, "geometry": { "type": "LineString", "coordinates": [ [ 144.88621107517335, -37.658502653184144 ], [ 144.886297515654519, -37.658468404900965 ], [ 144.886326432254378, -37.65838832810563 ] ] } },
{ "type": "Feature", "properties": { "gid": 844, "fclass": "primary", "length": 3.592609205897253, "status": "disappeared" }, "geometry": { "type": "LineString", "coordinates": [ [ 144.883779581736405, -37.685460984168337 ], [ 144.88380835314976, -37.685483898776219 ] ] } },
{ "type": "Feature", "properties": { "gid": 847, "fclass": "primary", "length": 26.826865400058185, "status": "disappeared" }, "geometry": { "type": "LineString", "coordinates": [ [ 144.87918025402243, -37.679368564701235 ], [ 144.879046835473758, -37.679492876760072 ], [ 144.87894960040606, -37.679505652331216 ] ] } },
{ "type": "Feature", "properties": { "gid": 871, "fclass": "primary", "length": 28.824534175231207, "status": "disappeared" }, "geometry": { "type": "LineString", "coordinates": [ [ 144.885377804851743, -37.695326672092115 ], [ 144.885561464146008, -37.695331138902368 ], [ 144.885694649200587, -37.695372748028177 ] ] } },
{ "type": "Feature", "properties": { "gid": 874, "fclass": "primary", "length": 24.097235694884535, "status": "disappeared" }, "geometry": { "type": "LineString", "coordinates": [ [ 144.854995038917707, -37.68897703647167 ], [ 144.855081857147837, -37.688771161430381 ] ] } },
{ "type": "Feature", "properties": { "gid": 880, "fclass": "primary", "length": 55.396351475832773, "status": "disappeared" }, "geometry": { "type": "LineString", "coordinates": [ [ 144.88545268398272, -37.683929186571703 ], [ 144.885700904332225, -37.684082478545179 ], [ 144.885999652742953, -37.684158575452578 ] ] } },
{ "type": "Feature", "properties": { "gid": 885, "fclass": "tertiary", "length": 21.702524464812651, "status": "disappeared" }, "geometry": { "type": "LineString", "coordinates": [ [ 144.878831781010433, -37.681130491992135 ], [ 144.878917902737982, -37.681313672963562 ] ] } },
{ "type": "Feature", "properties": { "gid": 894, "fclass": "tertiary", "length": 22.175910605816078, "status": "disappeared" }, "geometry": { "type": "LineString", "coordinates": [ [ 144.87175035120535, -37.678422482843253 ], [ 144.871766444296242, -37.67848686909074 ], [ 144.871922980769511, -37.678537101363538 ] ] } },
{ "type": "Feature", "properties": { "gid": 900, "fclass": "tertiary", "length": 3.592609205897253, "status": "disappeared" }, "geometry": { "type": "LineString", "coordinates": [ [ 144.874859542475974, -37.679409902092331 ], [ 144.874830700360064, -37.679432758708664 ] ] } },
{ "type": "Feature", "properties": { "gid": 906, "fclass": "tertiary", "length": 26.682497619355168, "status": "disappeared" }, "geometry": { "type": "LineString", "coordinates": [ [ 144.886540505197189, -37.669259800256228 ], [ 144.886429071112758, -37.669148121308268 ], [ 144.886310308338864, -37.669122260936248 ] ] } },
{ "type": "Feature", "properties": { "gid": 908, "fclass": "tertiary", "length": 25.402580037488889, "status": "disappeared" }, "geometry": { "type": "LineString", "coordinates": [ [ 144.874830700360064, -37.679432758708664 ], [ 144.874657571471204, -37.679615671679414 ] ] } },
{ "type": "Feature", "properties": { "gid": 910, "fclass": "tertiary", "length": 2.5400000000372529, "status": "disappeared" }, "geometry": { "type": "LineString", "coordinates": [ [ 144.883779546579177, -37.685483870831703 ], [ 144.883779581736405, -37.685460984168337 ] ] } },
{ "type": "Feature", "properties": { "gid": 911, "fclass": "tertiary", "length": 2.5407166127115488, "status": "disappeared" }, "geometry": { "type": "LineString", "coordinates": [ [ 144.883779546579177, -37.685483870831703 ], [ 144.88380835314976, -37.685483898776219 ] ] } },
{ "type": "Feature", "properties": { "gid": 912, "fclass": "tertiary", "length": 19.344910652234944, "status": "disappeared" }, "geometry": { "type": "LineString", "coordinates": [ [ 144.883779546579177, -37.685483870831703 ], [ 144.883692880583453, -37.68564399359439 ] ] } },
{ "type": "Feature", "properties": { "gid": 918, "fclass": "tertiary", "length": 34.297754849052083, "status": "disappeared" }, "geometry": { "type": "LineString", "coordinates": [ [ 144.869506993874836, -37.6931819806967 ], [ 144.869541575167034, -37.692967456147045 ], [ 144.869593935245916, -37.692884549092852 ] ] } },
{ "type": "Feature", "properties": { "gid": 920, "fclass": "tertiary", "length": 28.063067356065755, "status": "disappeared" }, "geometry": { "type": "LineString", "coordinates": [ [ 144.885694683783015, -37.695349861450161 ], [ 144.885377804851743, -37.695326672092115 ] ] } },
{ "type": "Feature", "properties": { "gid": 924, "fclass": "tertiary", "length": 3.5926092055679342, "status": "disappeared" }, "geometry": { "type": "LineString", "coordinates": [ [ 144.885423878003479, -37.683929159022568 ], [ 144.885452718633104, -37.68390629989441 ] ] } },
{ "type": "Feature", "properties": { "gid": 926, "fclass": "tertiary", "length": 2.5407166122458875, "status": "disappeared" }, "geometry": { "type": "LineString", "coordinates": [ [ 144.885423878003479, -37.683929159022568 ], [ 144.88545268398272, -37.683929186571703 ] ] } },
{ "type": "Feature", "properties": { "gid": 938, "fclass": "tertiary", "length": 2.5400000000372529, "status": "disappeared" }, "geometry": { "type": "LineString", "coordinates": [ [ 144.885452718633104, -37.68390629989441 ], [ 144.88545268398272, -37.683929186571703 ] ] } },
{ "type": "Feature", "properties": { "gid": 939, "fclass": "tertiary", "length": 3.5926092055679342, "status": "disappeared" }, "geometry": { "type": "LineString", "coordinates": [ [ 144.885452718633104, -37.68390629989441 ], [ 144.885481489961961, -37.68392921411391 ] ] } },
{ "type": "Feature", "properties": { "gid": 950, "fclass": "tertiary", "length": 25.097213610435702, "status": "disappeared" }, "geometry": { "type": "LineString", "coordinates": [ [ 144.853158774722857, -37.670299205262211 ], [ 144.853162208281788, -37.670385035113696 ], [ 144.853226968488258, -37.670406570904596 ], [ 144.853331401951493, -37.670390964141227 ] ] } },
{ "type": "Feature", "properties": { "gid": 960, "fclass": "tertiary", "length": 27.517588373126198, "status": "disappeared" }, "geometry": { "type": "LineString", "coordinates": [ [ 144.882669364749262, -37.676923149828298 ], [ 144.882741408494184, -37.676900333607357 ], [ 144.882900039173137, -37.676763168164321 ] ] } },
{ "type": "Feature", "properties": { "gid": 965, "fclass": "tertiary", "length": 3.5926092055679342, "status": "disappeared" }, "geometry": { "type": "LineString", "coordinates": [ [ 144.885490586395207, -37.696951728841036 ], [ 144.885461810110542, -37.696928814737049 ] ] } },
{ "type": "Feature", "properties": { "gid": 966, "fclass": "tertiary", "length": 5.6808946143975048, "status": "disappeared" }, "geometry": { "type": "LineString", "coordinates": [ [ 144.885490586395207, -37.696951728841036 ], [ 144.885548242899205, -37.696928897335852 ] ] } },
{ "type": "Feature", "properties": { "gid": 969, "fclass": "tertiary", "length": 18.920443574718391, "status": "disappeared" }, "geometry": { "type": "LineString", "coordinates": [ [ 144.879435881831114, -37.681634609702378 ], [ 144.879385272234572, -37.681760435775494 ], [ 144.879406821380741, -37.68179478756808 ] ] } },
{ "type": "Feature", "properties": { "gid": 1009, "fclass": "tertiary", "length": 3.592609205897253, "status": "disappeared" }, "geometry": { "type": "LineString", "coordinates": [ [ 144.883779581736405, -37.685460984168337 ], [ 144.88380835314976, -37.685483898776219 ] ] } },
{ "type": "Feature", "properties": { "gid": 1010, "fclass": "tertiary", "length": 2.5407166122458875, "status": "disappeared" }, "geometry": { "type": "LineString", "coordinates": [ [ 144.885481489961961, -37.68392921411391 ], [ 144.88545268398272, -37.683929186571703 ] ] } },
{ "type": "Feature", "properties": { "gid": 1011, "fclass": "tertiary", "length": 53.319575331639015, "status": "disappeared" }, "geometry": { "type": "LineString", "coordinates": [ [ 144.885481489961961, -37.68392921411391 ], [ 144.885729677963667, -37.684103962286308 ], [ 144.885999687227979, -37.684135688777076 ] ] } },
{ "type": "Feature", "properties": { "gid": 1019, "fclass": "tertiary", "length": 26.926102476150817, "status": "disappeared" }, "geometry": { "type": "LineString", "coordinates": [ [ 144.8869294570666, -37.698074538418489 ], [ 144.886936801015537, -37.69798013817627 ], [ 144.886814519804517, -37.697868450601987 ] ] } },
{ "type": "Feature", "properties": { "gid": 1042, "fclass": "tertiary", "length": 33.70514611095787, "status": "disappeared" }, "geometry": { "type": "LineString", "coordinates": [ [ 144.88251646437007, -37.682644686693052 ], [ 144.882521956461119, -37.682586044852926 ], [ 144.882570625629029, -37.682547471229476 ], [ 144.882804731967099, -37.682507648735637 ] ] } },
{ "type": "Feature", "properties": { "gid": 1049, "fclass": "tertiary", "length": 25.91839941739655, "status": "disappeared" }, "geometry": { "type": "LineString", "coordinates": [ [ 144.854881080497051, -37.688313184773321 ], [ 144.854910069187525, -37.688218812319903 ], [ 144.854881519503607, -37.688084318471276 ] ] } }
]
}
