{
"type": "FeatureCollection",
"crs": { "type": "name", "properties": { "name": "urn:ogc:def:crs:OGC:1.3:CRS84" } },
"features": [
{ "type": "Feature", "properties": { "gid": 3, "fclass": "residential", "length": 67.296008528129448, "status": "disappeared" }, "geometry": { "type": "LineString", "coordinates": [ [ 144.755579031879307, -37.697787030542436 ], [ 144.755676311200375, -37.697774355218712 ], [ 144.755787746705693, -37.697838951110278 ], [ 144.755803491240783, -37.697982024748491 ], [ 144.755733176041616, -37.698009059305789 ], [ 144.75558208789937, -37.6979558258057 ], [ 144.75554992486002, -37.697878517752194 ] ] } },
{ "type": "Feature", "properties": { "gid": 24, "fclass": "residential", "length": 104.60690362422363, "status": "disappeared" }, "geometry": { "type": "LineString", "coordinates": [ [ 144.756969212152683, -37.668632108070121 ], [ 144.756997212999124, -37.668881059911058 ], [ 144.756911454548401, -37.669241354488804 ], [ 144.756776085269109, -37.669355514120589 ], [ 144.756563655017203, -37.669363665102601 ] ] } },
{ "type": "Feature", "properties": { "gid": 44, "fclass": "residential", "length": 55.47452848286418, "status": "disappeared" }, "geometry": { "type": "LineString", "coordinates": [ [ 144.78064796239974, -37.696736991317024 ], [ 144.780766765498015, -37.696751512920429 ], [ 144.780842509900594, -37.696711599872309 ], [ 144.780965875241407, -37.696394273277228 ] ] } },
{ "type": "Feature", "properties": { "gid": 92, "fclass": "residential", "length": 130.89625587977565, "status": "disappeared" }, "geometry": { "type": "LineString", "coordinates": [ [ 144.787753144002977, -37.69043306910725 ], [ 144.78781392857141, -37.690587661965111 ], [ 144.787921840013297, -37.690630765596268 ], [ 144.788114476695227, -37.690638258554046 ], [ 144.788236624462996, -37.69074146464439 ], [ 144.788632258076831, -37.690915243929538 ], [ 144.788754395015587, -37.69102274071404 ], [ 144.788903755966118, -37.691053042771088 ] ] } },
{ "type": "Feature", "properties": { "gid": 103, "fclass": "residential", "length": 97.034119967854224, "status": "disappeared" }, "geometry": { "type": "LineString", "coordinates": [ [ 144.778344867771295, -37.68629642192915 ], [ 144.778720594844657, -37.68587371192703 ], [ 144.778807148657108, -37.685828098300817 ], [ 144.77892284755859, -37.685666674281912 ], [ 144.779009430259492, -37.68561104761082 ] ] } },
{ "type": "Feature", "properties": { "gid": 116, "fclass": "residential", "length": 61.067202362333568, "status": "disappeared" }, "geometry": { "type": "LineString", "coordinates": [ [ 144.782035101377403, -37.69527477740241 ], [ 144.782238288388413, -37.694748753769325 ] ] } },
{ "type": "Feature", "properties": { "gid": 122, "fclass": "residential", "length": 41.359473781845317, "status": "disappeared" }, "geometry": { "type": "LineString", "coordinates": [ [ 144.755472041359923, -37.686320576150209 ], [ 144.755011354649099, -37.686250974630227 ] ] } },
{ "type": "Feature", "properties": { "gid": 128, "fclass": "residential", "length": 135.14744678849763, "status": "disappeared" }, "geometry": { "type": "LineString", "coordinates": [ [ 144.773833896314642, -37.682374355109133 ], [ 144.773501376113387, -37.682794271220949 ], [ 144.773017339352094, -37.683308307243244 ], [ 144.772937977770937, -37.683356791209548 ] ] } },
{ "type": "Feature", "properties": { "gid": 153, "fclass": "residential", "length": 62.606762487816539, "status": "disappeared" }, "geometry": { "type": "LineString", "coordinates": [ [ 144.780938854037316, -37.695776284357741 ], [ 144.78093302956006, -37.695922176106798 ], [ 144.780793210180718, -37.696325297546743 ] ] } },
{ "type": "Feature", "properties": { "gid": 163, "fclass": "residential", "length": 323.693347379481, "status": "disappeared" }, "geometry": { "type": "LineString", "coordinates": [ [ 144.771230050415852, -37.676601937368005 ], [ 144.770960034087182, -37.676597130058902 ], [ 144.770657909096656, -37.676494991663787 ], [ 144.770053461602203, -37.676356511816621 ], [ 144.769405694151743, -37.676256567035914 ], [ 144.768865782199697, -37.676208322288417 ], [ 144.768325726408847, -37.67620727891007 ], [ 144.767915143621593, -37.676252257698167 ], [ 144.76763071407828, -37.676251706231639 ] ] } },
{ "type": "Feature", "properties": { "gid": 178, "fclass": "residential", "length": 193.92965535237076, "status": "disappeared" }, "geometry": { "type": "LineString", "coordinates": [ [ 144.769069307556407, -37.695639560291212 ], [ 144.769097943285345, -37.695696832131489 ], [ 144.769205798979783, -37.695757117429643 ], [ 144.76956462202898, -37.696186932924363 ], [ 144.770109797436874, -37.696920353083847 ], [ 144.770244466039173, -37.697046487968755 ], [ 144.770303914604341, -37.697038019464543 ] ] } },
{ "type": "Feature", "properties": { "gid": 180, "fclass": "residential", "length": 143.53753823972869, "status": "disappeared" }, "geometry": { "type": "LineString", "coordinates": [ [ 144.756506435037124, -37.687146605959121 ], [ 144.755113404067657, -37.686984989590485 ], [ 144.754893754807426, -37.68698310995034 ] ] } },
{ "type": "Feature", "properties": { "gid": 187, "fclass": "residential", "length": 338.36221871451221, "status": "disappeared" }, "geometry": { "type": "LineString", "coordinates": [ [ 144.777853740560261, -37.686776133577048 ], [ 144.776900101878823, -37.687794251130491 ], [ 144.776697981489889, -37.687952651177646 ], [ 144.776524460728183, -37.688181194812366 ], [ 144.776437902847363, -37.688226806748617 ], [ 144.776033237750454, -37.688685215655504 ], [ 144.775715407049972, -37.689003604613376 ], [ 144.775628847740393, -37.689049215950817 ], [ 144.77557079069004, -37.689197870829929 ] ] } },
{ "type": "Feature", "properties": { "gid": 190, "fclass": "residential", "length": 54.84570392329163, "status": "disappeared" }, "geometry": { "type": "LineString", "coordinates": [ [ 144.776181543876987, -37.696980483822529 ], [ 144.776786234918063, -37.697096045146388 ] ] } },
{ "type": "Feature", "properties": { "gid": 224, "fclass": "residential", "length": 39.833663212968737, "status": "disappeared" }, "geometry": { "type": "LineString", "coordinates": [ [ 144.756602814193542, -37.693005800934401 ], [ 144.756505444473703, -37.693048515617029 ], [ 144.756170378698783, -37.693096468356202 ] ] } },
{ "type": "Feature", "properties": { "gid": 232, "fclass": "residential", "length": 25.017263128955157, "status": "disappeared" }, "geometry": { "type": "LineString", "coordinates": [ [ 144.790399142179325, -37.692016909119225 ], [ 144.79051380783531, -37.692223089783141 ] ] } },
{ "type": "Feature", "properties": { "gid": 233, "fclass": "residential", "length": 257.92436924191298, "status": "disappeared" }, "geometry": { "type": "LineString", "coordinates": [ [ 144.789835487485618, -37.687507241938768 ], [ 144.791511202406298, -37.685735018430016 ], [ 144.791626582526561, -37.685679432774002 ] ] } },
{ "type": "Feature", "properties": { "gid": 240, "fclass": "residential", "length": 23.007088326583119, "status": "disappeared" }, "geometry": { "type": "LineString", "coordinates": [ [ 144.756132051868917, -37.696048771606527 ], [ 144.755872831044485, -37.696025357020162 ] ] } },
{ "type": "Feature", "properties": { "gid": 246, "fclass": "residential", "length": 105.6306548433091, "status": "disappeared" }, "geometry": { "type": "LineString", "coordinates": [ [ 144.755529654991193, -37.686320693741465 ], [ 144.75657706571954, -37.686458716770311 ], [ 144.756710366486601, -37.686437531244046 ] ] } },
{ "type": "Feature", "properties": { "gid": 251, "fclass": "residential", "length": 31.450050685609934, "status": "disappeared" }, "geometry": { "type": "LineString", "coordinates": [ [ 144.789162459688242, -37.691259478532402 ], [ 144.789110399394474, -37.691203600600993 ], [ 144.788948502102471, -37.69114895961409 ], [ 144.788932500754385, -37.691075980106334 ] ] } },
{ "type": "Feature", "properties": { "gid": 260, "fclass": "residential", "length": 98.032634080999387, "status": "disappeared" }, "geometry": { "type": "LineString", "coordinates": [ [ 144.754899979781783, -37.667277563677708 ], [ 144.755848888710574, -37.667737240134123 ] ] } },
{ "type": "Feature", "properties": { "gid": 269, "fclass": "residential", "length": 202.26763935109261, "status": "disappeared" }, "geometry": { "type": "LineString", "coordinates": [ [ 144.759228290073111, -37.682757849964503 ], [ 144.759148555953715, -37.682920757953447 ], [ 144.758447446354864, -37.683726104936049 ], [ 144.758099828135073, -37.684334763623426 ] ] } },
{ "type": "Feature", "properties": { "gid": 304, "fclass": "residential", "length": 414.68865700270868, "status": "disappeared" }, "geometry": { "type": "LineString", "coordinates": [ [ 144.763736236334381, -37.678189467360205 ], [ 144.764250768992355, -37.677719871028557 ], [ 144.764822790855277, -37.677286145965454 ], [ 144.765710014100677, -37.676797248445531 ], [ 144.766423696899267, -37.676538304688471 ], [ 144.766964195564185, -37.676396314833305 ], [ 144.76746131187349, -37.676311455388422 ], [ 144.76763071407828, -37.676251706231639 ] ] } },
{ "type": "Feature", "properties": { "gid": 306, "fclass": "residential", "length": 340.85899979937579, "status": "disappeared" }, "geometry": { "type": "LineString", "coordinates": [ [ 144.764872098877788, -37.674163620320321 ], [ 144.764904234696047, -37.674249509079928 ], [ 144.767491064294802, -37.676002540956084 ], [ 144.767591558102055, -37.676105726727798 ], [ 144.76763071407828, -37.676251706231639 ] ] } },
{ "type": "Feature", "properties": { "gid": 318, "fclass": "residential", "length": 97.151782338334769, "status": "disappeared" }, "geometry": { "type": "LineString", "coordinates": [ [ 144.774136449105328, -37.696816439364575 ], [ 144.774107920196201, -37.696721978161364 ], [ 144.774130092067736, -37.696533205118278 ], [ 144.774092688087308, -37.696395814700672 ], [ 144.773798140121244, -37.696140644953239 ], [ 144.773677598574238, -37.696106087327053 ] ] } },
{ "type": "Feature", "properties": { "gid": 367, "fclass": "residential", "length": 143.84527025347552, "status": "disappeared" }, "geometry": { "type": "LineString", "coordinates": [ [ 144.759165288179531, -37.684451344279019 ], [ 144.759155004986269, -37.684288255416526 ], [ 144.758999137597328, -37.684047630897993 ], [ 144.759012341613925, -37.683858841635463 ], [ 144.759180294836284, -37.683696111179366 ], [ 144.75968692398331, -37.683468260932045 ] ] } },
{ "type": "Feature", "properties": { "gid": 375, "fclass": "residential", "length": 49.716517041047908, "status": "disappeared" }, "geometry": { "type": "LineString", "coordinates": [ [ 144.78090666302981, -37.696943444458732 ], [ 144.781025483064695, -37.696952244174483 ], [ 144.78128454113903, -37.697035681444838 ], [ 144.781425192740244, -37.696967278204184 ] ] } },
{ "type": "Feature", "properties": { "gid": 379, "fclass": "residential", "length": 54.547890130621582, "status": "disappeared" }, "geometry": { "type": "LineString", "coordinates": [ [ 144.7711086810138, -37.697680385651083 ], [ 144.771056837440398, -37.697555840485435 ], [ 144.770911063524807, -37.697528383953255 ], [ 144.770835668402867, -37.697450997349279 ], [ 144.770677415687857, -37.697382034621413 ] ] } },
{ "type": "Feature", "properties": { "gid": 396, "fclass": "residential", "length": 61.154449369836819, "status": "disappeared" }, "geometry": { "type": "LineString", "coordinates": [ [ 144.756567851563148, -37.668059120370621 ], [ 144.756405925994926, -37.668035904221554 ], [ 144.756062897744272, -37.667796323931405 ], [ 144.755992739828656, -37.667783307124061 ] ] } },
{ "type": "Feature", "properties": { "gid": 423, "fclass": "residential", "length": 81.505559467192526, "status": "disappeared" }, "geometry": { "type": "LineString", "coordinates": [ [ 144.795138477579087, -37.654696675510195 ], [ 144.795109427206341, -37.65479103466388 ], [ 144.795137432229467, -37.655082891759577 ], [ 144.795104619696303, -37.655237322816689 ], [ 144.795055849942116, -37.655303039455511 ], [ 144.794935115697598, -37.655360050229518 ] ] } },
{ "type": "Feature", "properties": { "gid": 430, "fclass": "residential", "length": 336.90297433088887, "status": "disappeared" }, "geometry": { "type": "LineString", "coordinates": [ [ 144.774591703780118, -37.660061088109444 ], [ 144.774208331964758, -37.663081443217031 ] ] } },
{ "type": "Feature", "properties": { "gid": 469, "fclass": "residential", "length": 251.21902732193576, "status": "disappeared" }, "geometry": { "type": "LineString", "coordinates": [ [ 144.793884844172936, -37.660370493473998 ], [ 144.793776723030504, -37.660418942092065 ], [ 144.79324607789394, -37.660967313804832 ], [ 144.792921479348081, -37.661197052803978 ], [ 144.792575418021556, -37.661376688549282 ], [ 144.792207855174951, -37.6615205251342 ], [ 144.791797240346739, -37.661611359695002 ], [ 144.791663823817942, -37.661694092815537 ] ] } },
{ "type": "Feature", "properties": { "gid": 472, "fclass": "residential", "length": 27.35770192264447, "status": "disappeared" }, "geometry": { "type": "LineString", "coordinates": [ [ 144.782412004439749, -37.694451542802057 ], [ 144.782296106071328, -37.694680198866244 ] ] } },
{ "type": "Feature", "properties": { "gid": 475, "fclass": "residential", "length": 33.879127896050676, "status": "disappeared" }, "geometry": { "type": "LineString", "coordinates": [ [ 144.774775329782301, -37.695124029738793 ], [ 144.774770298393435, -37.694999574060176 ], [ 144.774689346575769, -37.694973674352788 ], [ 144.774632028889442, -37.694872006981356 ] ] } },
{ "type": "Feature", "properties": { "gid": 478, "fclass": "residential", "length": 82.540460476462869, "status": "disappeared" }, "geometry": { "type": "LineString", "coordinates": [ [ 144.754896644066406, -37.668307467720112 ], [ 144.75491428269217, -37.668419077471292 ], [ 144.755240022842457, -37.668994776998446 ] ] } },
{ "type": "Feature", "properties": { "gid": 481, "fclass": "residential", "length": 27.479667269683684, "status": "disappeared" }, "geometry": { "type": "LineString", "coordinates": [ [ 144.782000960590523, -37.687127053395102 ], [ 144.781742092465237, -37.68698926166811 ] ] } },
{ "type": "Feature", "properties": { "gid": 485, "fclass": "residential", "length": 249.57290646967195, "status": "disappeared" }, "geometry": { "type": "LineString", "coordinates": [ [ 144.76512683445776, -37.694167149467432 ], [ 144.765375385625191, -37.694146180228316 ], [ 144.767643305402004, -37.694428101135188 ], [ 144.767891452951773, -37.694538724249092 ] ] } },
{ "type": "Feature", "properties": { "gid": 496, "fclass": "residential", "length": 135.02285057165119, "status": "disappeared" }, "geometry": { "type": "LineString", "coordinates": [ [ 144.777313076589309, -37.684509342323821 ], [ 144.776585469061757, -37.685203172491605 ], [ 144.776453380505444, -37.685426071829809 ], [ 144.776388439070189, -37.685468863266614 ] ] } },
{ "type": "Feature", "properties": { "gid": 530, "fclass": "residential", "length": 175.86779291856263, "status": "disappeared" }, "geometry": { "type": "LineString", "coordinates": [ [ 144.755268749046309, -37.669017722600053 ], [ 144.755350689554206, -37.669283950183122 ], [ 144.755600973898623, -37.669816581448515 ], [ 144.755733622291729, -37.66998850373691 ], [ 144.75596706438651, -37.670163492145385 ], [ 144.756161219981294, -37.670241130839969 ], [ 144.756301577304612, -37.670255720824059 ] ] } },
{ "type": "Feature", "properties": { "gid": 550, "fclass": "residential", "length": 57.70929777845361, "status": "disappeared" }, "geometry": { "type": "LineString", "coordinates": [ [ 144.783091761828814, -37.698526598072426 ], [ 144.783227000122167, -37.698462474195487 ], [ 144.783305242255068, -37.698179393711392 ], [ 144.783409867711043, -37.698115214249682 ] ] } },
{ "type": "Feature", "properties": { "gid": 562, "fclass": "motorway", "length": 327.37903579632888, "status": "disappeared" }, "geometry": { "type": "LineString", "coordinates": [ [ 144.781869726322952, -37.682686785899755 ], [ 144.781456519760638, -37.682384213510581 ], [ 144.779645116453253, -37.681236556320904 ], [ 144.779321628751404, -37.681041423169752 ], [ 144.779127321465864, -37.680998152324207 ], [ 144.778965657979739, -37.680873407244889 ] ] } },
{ "type": "Feature", "properties": { "gid": 569, "fclass": "motorway", "length": 564.92337640057156, "status": "disappeared" }, "geometry": { "type": "LineString", "coordinates": [ [ 144.781898465800197, -37.682709724995298 ], [ 144.782146595756188, -37.682820319073336 ], [ 144.78693059200873, -37.685854266053539 ] ] } },
{ "type": "Feature", "properties": { "gid": 587, "fclass": "motorway", "length": 714.01409478123469, "status": "disappeared" }, "geometry": { "type": "LineString", "coordinates": [ [ 144.772122878461772, -37.676626526145192 ], [ 144.772543780359513, -37.676741760289183 ], [ 144.773233766384038, -37.677173626868338 ], [ 144.777977521763944, -37.680180684939984 ], [ 144.778318904592595, -37.680410185096903 ], [ 144.778419171866062, -37.680597756174286 ] ] } },
{ "type": "Feature", "properties": { "gid": 594, "fclass": "trunk", "length": 42.081837396658884, "status": "disappeared" }, "geometry": { "type": "LineString", "coordinates": [ [ 144.780357063373344, -37.697697697217791 ], [ 144.780535112517697, -37.697773835471352 ], [ 144.780730945136071, -37.697927248391551 ] ] } },
{ "type": "Feature", "properties": { "gid": 602, "fclass": "trunk", "length": 2.5407166122458875, "status": "disappeared" }, "geometry": { "type": "LineString", "coordinates": [ [ 144.780730945136071, -37.697927248391551 ], [ 144.780759756390296, -37.697927301116295 ] ] } },
{ "type": "Feature", "properties": { "gid": 603, "fclass": "trunk", "length": 2.5400000000372529, "status": "disappeared" }, "geometry": { "type": "LineString", "coordinates": [ [ 144.780730945136071, -37.697927248391551 ], [ 144.780730878795254, -37.697950134902811 ] ] } },
{ "type": "Feature", "properties": { "gid": 605, "fclass": "trunk", "length": 68.686522052132517, "status": "disappeared" }, "geometry": { "type": "LineString", "coordinates": [ [ 144.774487432642246, -37.695054828190152 ], [ 144.774390053321156, -37.695103279007519 ], [ 144.774266534449652, -37.695463511229747 ], [ 144.774140139133323, -37.6955805671357 ] ] } },
{ "type": "Feature", "properties": { "gid": 680, "fclass": "trunk", "length": 38.598329061961167, "status": "disappeared" }, "geometry": { "type": "LineString", "coordinates": [ [ 144.779583961277666, -37.686161387845807 ], [ 144.779415950550771, -37.686357046258195 ], [ 144.779295159138968, -37.686412610187269 ] ] } },
{ "type": "Feature", "properties": { "gid": 687, "fclass": "trunk", "length": 26.039236239611821, "status": "disappeared" }, "geometry": { "type": "LineString", "coordinates": [ [ 144.781926787947555, -37.692871480393947 ], [ 144.781818546689067, -37.692942804179175 ], [ 144.781753403754664, -37.693054258066709 ] ] } },
{ "type": "Feature", "properties": { "gid": 714, "fclass": "trunk", "length": 30.66641999239593, "status": "disappeared" }, "geometry": { "type": "LineString", "coordinates": [ [ 144.771656850571276, -37.687885931427559 ], [ 144.77158980586438, -37.688027415222805 ], [ 144.771454576361947, -37.688091526218365 ] ] } },
{ "type": "Feature", "properties": { "gid": 722, "fclass": "trunk", "length": 3.5926092055679342, "status": "disappeared" }, "geometry": { "type": "LineString", "coordinates": [ [ 144.780730878795254, -37.697950134902811 ], [ 144.780759756390296, -37.697927301116295 ] ] } },
{ "type": "Feature", "properties": { "gid": 731, "fclass": "trunk", "length": 128.74816979709055, "status": "disappeared" }, "geometry": { "type": "LineString", "coordinates": [ [ 144.758473449934144, -37.693627527322498 ], [ 144.758614115820933, -37.693559150774185 ], [ 144.759521385535351, -37.693633926647166 ], [ 144.759618504316052, -37.693669881992456 ], [ 144.759798037567833, -37.693836170523454 ] ] } },
{ "type": "Feature", "properties": { "gid": 732, "fclass": "trunk", "length": 2.5407166122458875, "status": "disappeared" }, "geometry": { "type": "LineString", "coordinates": [ [ 144.758473449934144, -37.693627527322498 ], [ 144.758444640333806, -37.693627469238443 ] ] } },
{ "type": "Feature", "properties": { "gid": 735, "fclass": "trunk", "length": 121.26525746973547, "status": "disappeared" }, "geometry": { "type": "LineString", "coordinates": [ [ 144.766182398860281, -37.697533553121104 ], [ 144.766118498919525, -37.69781665061042 ], [ 144.766018929475422, -37.697988106010946 ], [ 144.766002192159789, -37.698159723122551 ], [ 144.765931433397895, -37.69833123469445 ], [ 144.765808674964376, -37.698431123844287 ], [ 144.765660892282256, -37.698470886502498 ] ] } },
{ "type": "Feature", "properties": { "gid": 759, "fclass": "trunk", "length": 33.314008483530813, "status": "disappeared" }, "geometry": { "type": "LineString", "coordinates": [ [ 144.771035201799208, -37.693400439998605 ], [ 144.771208366093276, -37.693299211185561 ], [ 144.771237560552123, -37.693171959783029 ] ] } },
{ "type": "Feature", "properties": { "gid": 767, "fclass": "primary", "length": 25.016486945442949, "status": "disappeared" }, "geometry": { "type": "LineString", "coordinates": [ [ 144.769377569743398, -37.698478098279736 ], [ 144.769556001860593, -37.698425516263555 ], [ 144.769608409924444, -37.698364109221373 ] ] } },
{ "type": "Feature", "properties": { "gid": 775, "fclass": "primary", "length": 35.131823470262752, "status": "disappeared" }, "geometry": { "type": "LineString", "coordinates": [ [ 144.778469678157506, -37.683023847639902 ], [ 144.778577908382488, -37.682952526612269 ], [ 144.778700859138041, -37.682772520547282 ] ] } },
{ "type": "Feature", "properties": { "gid": 780, "fclass": "primary", "length": 20.35495401510283, "status": "disappeared" }, "geometry": { "type": "LineString", "coordinates": [ [ 144.775675130196845, -37.683155967465275 ], [ 144.775632138094522, -37.683082935384967 ], [ 144.775531509472444, -37.683018377832646 ] ] } },
{ "type": "Feature", "properties": { "gid": 784, "fclass": "primary", "length": 36.140226214642908, "status": "disappeared" }, "geometry": { "type": "LineString", "coordinates": [ [ 144.781550812723651, -37.69337430226112 ], [ 144.781658922739979, -37.693348751833526 ], [ 144.781810758513558, -37.69314590923404 ] ] } },
{ "type": "Feature", "properties": { "gid": 788, "fclass": "primary", "length": 18.516097034018173, "status": "disappeared" }, "geometry": { "type": "LineString", "coordinates": [ [ 144.783055536844842, -37.691065481710801 ], [ 144.782974672574113, -37.691009548936208 ], [ 144.78296950486245, -37.690928005733468 ] ] } },
{ "type": "Feature", "properties": { "gid": 811, "fclass": "primary", "length": 39.759532244739376, "status": "disappeared" }, "geometry": { "type": "LineString", "coordinates": [ [ 144.774458690722298, -37.695031887424015 ], [ 144.7742560635335, -37.69535191904081 ] ] } },
{ "type": "Feature", "properties": { "gid": 832, "fclass": "primary", "length": 17.779999999795109, "status": "disappeared" }, "geometry": { "type": "LineString", "coordinates": [ [ 144.796008383338147, -37.695184950965341 ], [ 144.796007951323162, -37.695345156764759 ] ] } },
{ "type": "Feature", "properties": { "gid": 843, "fclass": "primary", "length": 26.027169723050019, "status": "disappeared" }, "geometry": { "type": "LineString", "coordinates": [ [ 144.775443802139108, -37.683453061950715 ], [ 144.775303331682295, -37.683467102765078 ], [ 144.775184278468828, -37.683544122205575 ] ] } },
{ "type": "Feature", "properties": { "gid": 849, "fclass": "primary", "length": 29.66311996077787, "status": "disappeared" }, "geometry": { "type": "LineString", "coordinates": [ [ 144.775293573155153, -37.695239436165579 ], [ 144.775088419370576, -37.695198999553924 ], [ 144.775005811242721, -37.695124462800514 ] ] } },
{ "type": "Feature", "properties": { "gid": 850, "fclass": "primary", "length": 29.747670886180558, "status": "disappeared" }, "geometry": { "type": "LineString", "coordinates": [ [ 144.772565430016385, -37.68271525497871 ], [ 144.77253243471506, -37.682911160284256 ], [ 144.772478256587334, -37.682966843887101 ] ] } },
{ "type": "Feature", "properties": { "gid": 857, "fclass": "primary", "length": 23.000757398402062, "status": "disappeared" }, "geometry": { "type": "LineString", "coordinates": [ [ 144.757678292744515, -37.681038215512359 ], [ 144.757648828166452, -37.68124413702995 ] ] } },
{ "type": "Feature", "properties": { "gid": 870, "fclass": "primary", "length": 25.138988702477661, "status": "disappeared" }, "geometry": { "type": "LineString", "coordinates": [ [ 144.760188241168549, -37.697979438106643 ], [ 144.760091157413399, -37.697930609626454 ], [ 144.760073576858758, -37.697796115380783 ] ] } },
{ "type": "Feature", "properties": { "gid": 872, "fclass": "primary", "length": 20.479556989142111, "status": "disappeared" }, "geometry": { "type": "LineString", "coordinates": [ [ 144.759712000738404, -37.675572363617079 ], [ 144.75959628083524, -37.675732339273729 ] ] } },
{ "type": "Feature", "properties": { "gid": 878, "fclass": "tertiary", "length": 19.589833498908487, "status": "disappeared" }, "geometry": { "type": "LineString", "coordinates": [ [ 144.783026793842453, -37.691042542965427 ], [ 144.782969381754725, -37.69097091805866 ], [ 144.782998444749978, -37.6908822847724 ] ] } },
{ "type": "Feature", "properties": { "gid": 879, "fclass": "tertiary", "length": 24.860745401405278, "status": "disappeared" }, "geometry": { "type": "LineString", "coordinates": [ [ 144.775646256705187, -37.68317880015433 ], [ 144.77564293595205, -37.683084386032277 ], [ 144.775502703899207, -37.683018323850355 ] ] } },
{ "type": "Feature", "properties": { "gid": 885, "fclass": "tertiary", "length": 40.809538522959549, "status": "disappeared" }, "geometry": { "type": "LineString", "coordinates": [ [ 144.778469678157506, -37.683023847639902 ], [ 144.778577908382488, -37.682952526612269 ], [ 144.778729798485614, -37.682726800476274 ] ] } },
{ "type": "Feature", "properties": { "gid": 886, "fclass": "tertiary", "length": 51.119398600379164, "status": "disappeared" }, "geometry": { "type": "LineString", "coordinates": [ [ 144.774227116652298, -37.695397637812057 ], [ 144.774487637323602, -37.694986168590468 ] ] } },
{ "type": "Feature", "properties": { "gid": 889, "fclass": "tertiary", "length": 25.076187486653808, "status": "disappeared" }, "geometry": { "type": "LineString", "coordinates": [ [ 144.769637360732332, -37.698318391617896 ], [ 144.769572238794751, -37.6984155345896 ], [ 144.769435262414191, -37.698455322682392 ] ] } },
{ "type": "Feature", "properties": { "gid": 891, "fclass": "tertiary", "length": 40.903666726403387, "status": "disappeared" }, "geometry": { "type": "LineString", "coordinates": [ [ 144.781550812723651, -37.69337430226112 ], [ 144.781687843705896, -37.693310183278669 ], [ 144.78183969994987, -37.693100188591409 ] ] } },
{ "type": "Feature", "properties": { "gid": 902, "fclass": "tertiary", "length": 30.909358227273216, "status": "disappeared" }, "geometry": { "type": "LineString", "coordinates": [ [ 144.760102533211693, -37.697750400071548 ], [ 144.760084063484641, -37.697896265454112 ], [ 144.760143309752721, -37.697952170274029 ], [ 144.760217124975071, -37.697956609272232 ] ] } },
{ "type": "Feature", "properties": { "gid": 903, "fclass": "tertiary", "length": 34.809943410110677, "status": "disappeared" }, "geometry": { "type": "LineString", "coordinates": [ [ 144.775155336666131, -37.68358984140594 ], [ 144.775288933058704, -37.683465645332745 ], [ 144.775472675796522, -37.683430229312833 ] ] } },
{ "type": "Feature", "properties": { "gid": 947, "fclass": "tertiary", "length": 36.926573116996956, "status": "disappeared" }, "geometry": { "type": "LineString", "coordinates": [ [ 144.775034757548809, -37.695078743836383 ], [ 144.775016576773481, -37.695137356763972 ], [ 144.775059677213619, -37.6951760589332 ], [ 144.775232376924237, -37.695230738874429 ], [ 144.775322451356629, -37.695216603666054 ] ] } },
{ "type": "Feature", "properties": { "gid": 975, "fclass": "tertiary", "length": 23.41795387323597, "status": "disappeared" }, "geometry": { "type": "LineString", "coordinates": [ [ 144.796037316973354, -37.69513922692898 ], [ 144.795979141042096, -37.695345107706721 ] ] } },
{ "type": "Feature", "properties": { "gid": 980, "fclass": "tertiary", "length": 31.90041732585329, "status": "disappeared" }, "geometry": { "type": "LineString", "coordinates": [ [ 144.772478256587334, -37.682966843887101 ], [ 144.772532499222166, -37.682889704061751 ], [ 144.772565498813805, -37.682692368339666 ] ] } },
{ "type": "Feature", "properties": { "gid": 987, "fclass": "unclassified", "length": 58.873314453863109, "status": "disappeared" }, "geometry": { "type": "LineString", "coordinates": [ [ 144.756609385920541, -37.664099767324785 ], [ 144.756960136227718, -37.664172001354366 ], [ 144.757213490644006, -37.664306976014153 ] ] } }
]
}
