{
"type": "FeatureCollection",
"crs": { "type": "name", "properties": { "name": "urn:ogc:def:crs:OGC:1.3:CRS84" } },
"features": [
{ "type": "Feature", "properties": { "gid": 190690, "osm_id": "404174673", "code": 5121.0, "fclass": "unclassified", "name": "Plant Road", "pixel_count": 206, "Var_line": 38.225193023681641, "Edge_contrast": 16.477384567260742, "ROI": 9360.6666666666661, "Road_detected": -1, "ROI_norm": -0.28631250915842582, "Pred": 0 }, "geometry": { "type": "LineString", "coordinates": [ [ 144.834045925588299, -37.671180572260269 ], [ 144.833908425567557, -37.671208872269368 ], [ 144.833791625547036, -37.671205872277319 ], [ 144.833622025515893, -37.671188372288945 ], [ 144.833210925439886, -37.671142372317107 ], [ 144.832641125334476, -37.671077772356128 ], [ 144.832430525295479, -37.671053872370607 ], [ 144.83110822504986, -37.670894672461202 ], [ 144.830996225029111, -37.670881672468902 ] ] } },
{ "type": "Feature", "properties": { "gid": 268200, "osm_id": "590895580", "code": 5122.0, "fclass": "residential", "name": "Grogan Road", "pixel_count": 87, "Var_line": 48.684497833251953, "Edge_contrast": 41.400497436523438, "ROI": 5314.1666666666679, "Road_detected": -1, "ROI_norm": -0.63761645372260689, "Pred": 0 }, "geometry": { "type": "LineString", "coordinates": [ [ 144.801916222557963, -37.694728274290703 ], [ 144.802008222576347, -37.694751374284337 ], [ 144.802130222602699, -37.694800174275763 ], [ 144.802186522614477, -37.694819274271836 ], [ 144.802226822622146, -37.694825674269076 ], [ 144.802242822625118, -37.694827774267971 ] ] } },
{ "type": "Feature", "properties": { "gid": 268208, "osm_id": "590895588", "code": 5122.0, "fclass": "residential", "name": "Grogan Road", "pixel_count": 109, "Var_line": 58.062480926513672, "Edge_contrast": 13.008162498474121, "ROI": 6739.666666666667, "Road_detected": -1, "ROI_norm": -0.51385918868461355, "Pred": 0 }, "geometry": { "type": "LineString", "coordinates": [ [ 144.804825523263389, -37.696612774082091 ], [ 144.804797923258604, -37.696612974083926 ], [ 144.804765823252865, -37.696611374086075 ], [ 144.804728223245746, -37.696605574088686 ], [ 144.804697423239389, -37.696595974090847 ], [ 144.804654423229806, -37.69657587409386 ], [ 144.804543123203018, -37.69650577410183 ], [ 144.804428823172316, -37.696403774110244 ] ] } },
{ "type": "Feature", "properties": { "gid": 7, "osm_id": null, "code": null, "fclass": "residential", "name": null, "pixel_count": 75, "Var_line": 42.106563568115234, "Edge_contrast": 19.213584899902344, "ROI": 4331.5, "Road_detected": -1, "ROI_norm": -0.72292837172377744, "Pred": 0 }, "geometry": { "type": "LineString", "coordinates": [ [ 144.822095397123576, -37.66487867560555 ], [ 144.822257339409305, -37.664900372534376 ], [ 144.822469887584532, -37.66483345754785 ] ] } },
{ "type": "Feature", "properties": { "gid": 42, "osm_id": null, "code": null, "fclass": "residential", "name": null, "pixel_count": 91, "Var_line": 69.9228515625, "Edge_contrast": 23.102561950683594, "ROI": 2854.8333333333335, "Road_detected": -1, "ROI_norm": -0.8511277600362549, "Pred": 0 }, "geometry": { "type": "LineString", "coordinates": [ [ 144.8232771592414, -37.664445574263993 ], [ 144.823325626532608, -37.664501432595458 ], [ 144.823247872944251, -37.664654374000307 ], [ 144.823247345088276, -37.664880381334726 ] ] } },
{ "type": "Feature", "properties": { "gid": 108, "osm_id": null, "code": null, "fclass": "primary", "name": null, "pixel_count": 75, "Var_line": 104.50590515136719, "Edge_contrast": 28.122753143310547, "ROI": 5468.0, "Road_detected": -1, "ROI_norm": -0.62426114498531393, "Pred": 0 }, "geometry": { "type": "LineString", "coordinates": [ [ 144.839035083235729, -37.689139748414995 ], [ 144.839218724752499, -37.689144286276999 ], [ 144.839351873411232, -37.689185947013442 ] ] } },
{ "type": "Feature", "properties": { "gid": 138, "osm_id": null, "code": null, "fclass": "tertiary", "name": null, "pixel_count": 75, "Var_line": 104.50590515136719, "Edge_contrast": 28.122753143310547, "ROI": 5468.0, "Road_detected": -1, "ROI_norm": -0.62426114498531393, "Pred": 0 }, "geometry": { "type": "LineString", "coordinates": [ [ 144.839035083235729, -37.689139748414995 ], [ 144.839218724752499, -37.689144286276999 ], [ 144.839351873411232, -37.689185947013442 ] ] } },
{ "type": "Feature", "properties": { "gid": 126, "osm_id": null, "code": null, "fclass": "trunk", "name": null, "pixel_count": 78, "Var_line": 147.36427307128906, "Edge_contrast": 37.258750915527344, "ROI": 4178.0, "Road_detected": -1, "ROI_norm": -0.73625474154723003, "Pred": 0 }, "geometry": { "type": "LineString", "coordinates": [ [ 144.835330031987127, -37.697236586099116 ], [ 144.835279967777979, -37.697073450160936 ], [ 144.835231433402441, -37.697034762262646 ], [ 144.835157614700591, -37.697030369480288 ] ] } },
{ "type": "Feature", "properties": { "gid": 139, "osm_id": null, "code": null, "fclass": "primary", "name": null, "pixel_count": 30, "Var_line": 100.75563049316406, "Edge_contrast": 30.009559631347656, "ROI": 3041.333333333333, "Road_detected": -1, "ROI_norm": -0.8349364377426135, "Pred": 0 }, "geometry": { "type": "LineString", "coordinates": [ [ 144.836665271192629, -37.679295249050895 ], [ 144.836636466999124, -37.679295209769634 ] ] } },
{ "type": "Feature", "properties": { "gid": 140, "osm_id": null, "code": null, "fclass": "primary", "name": null, "pixel_count": 34, "Var_line": 114.37680053710938, "Edge_contrast": 35.859672546386719, "ROI": 3975.666666666667, "Road_detected": -1, "ROI_norm": -0.75382066224828514, "Pred": 0 }, "geometry": { "type": "LineString", "coordinates": [ [ 144.836665271192629, -37.679295249050895 ], [ 144.836636417584913, -37.679318096469601 ] ] } },
{ "type": "Feature", "properties": { "gid": 150, "osm_id": null, "code": null, "fclass": "primary", "name": null, "pixel_count": 50, "Var_line": 113.99530792236328, "Edge_contrast": 18.839052200317383, "ROI": 4386.6666666666661, "Road_detected": -1, "ROI_norm": -0.71813898148320954, "Pred": 0 }, "geometry": { "type": "LineString", "coordinates": [ [ 144.836636466999124, -37.679295209769634 ], [ 144.836406330354976, -37.679157575066633 ] ] } },
{ "type": "Feature", "properties": { "gid": 151, "osm_id": null, "code": null, "fclass": "primary", "name": null, "pixel_count": 30, "Var_line": 104.87994384765625, "Edge_contrast": 19.087627410888672, "ROI": 2235.333333333333, "Road_detected": -1, "ROI_norm": -0.90491073140843092, "Pred": 0 }, "geometry": { "type": "LineString", "coordinates": [ [ 144.836636466999124, -37.679295209769634 ], [ 144.836636417584913, -37.679318096469601 ] ] } },
{ "type": "Feature", "properties": { "gid": 166, "osm_id": null, "code": null, "fclass": "tertiary", "name": null, "pixel_count": 30, "Var_line": 100.75563049316406, "Edge_contrast": 30.009559631347656, "ROI": 3041.333333333333, "Road_detected": -1, "ROI_norm": -0.8349364377426135, "Pred": 0 }, "geometry": { "type": "LineString", "coordinates": [ [ 144.836665271192629, -37.679295249050895 ], [ 144.836636466999124, -37.679295209769634 ] ] } },
{ "type": "Feature", "properties": { "gid": 167, "osm_id": null, "code": null, "fclass": "tertiary", "name": null, "pixel_count": 50, "Var_line": 99.757621765136719, "Edge_contrast": 23.829557418823242, "ROI": 3048.9999999999995, "Road_detected": -1, "ROI_norm": -0.83427084272428698, "Pred": 0 }, "geometry": { "type": "LineString", "coordinates": [ [ 144.836665271192629, -37.679295249050895 ], [ 144.836809390884326, -37.679249671952846 ] ] } },
{ "type": "Feature", "properties": { "gid": 168, "osm_id": null, "code": null, "fclass": "tertiary", "name": null, "pixel_count": 34, "Var_line": 114.37680053710938, "Edge_contrast": 35.859672546386719, "ROI": 3975.666666666667, "Road_detected": -1, "ROI_norm": -0.75382066224828514, "Pred": 0 }, "geometry": { "type": "LineString", "coordinates": [ [ 144.836665271192629, -37.679295249050895 ], [ 144.836636417584913, -37.679318096469601 ] ] } },
{ "type": "Feature", "properties": { "gid": 177, "osm_id": null, "code": null, "fclass": "tertiary", "name": null, "pixel_count": 30, "Var_line": 85.712020874023438, "Edge_contrast": 9.3059854507446289, "ROI": 3842.3333333333335, "Road_detected": -1, "ROI_norm": -0.76539622778440042, "Pred": 0 }, "geometry": { "type": "LineString", "coordinates": [ [ 144.836636466999124, -37.679295209769634 ], [ 144.836607662805648, -37.679295170481417 ] ] } },
{ "type": "Feature", "properties": { "gid": 178, "osm_id": null, "code": null, "fclass": "tertiary", "name": null, "pixel_count": 30, "Var_line": 104.87994384765625, "Edge_contrast": 19.087627410888672, "ROI": 2235.333333333333, "Road_detected": -1, "ROI_norm": -0.90491073140843092, "Pred": 0 }, "geometry": { "type": "LineString", "coordinates": [ [ 144.836636466999124, -37.679295209769634 ], [ 144.836636417584913, -37.679318096469601 ] ] } },
{ "type": "Feature", "properties": { "gid": 180, "osm_id": null, "code": null, "fclass": "tertiary", "name": null, "pixel_count": 67, "Var_line": 120.31874084472656, "Edge_contrast": 32.567493438720703, "ROI": 3242.0, "Road_detected": -1, "ROI_norm": -0.81751521161075991, "Pred": 0 }, "geometry": { "type": "LineString", "coordinates": [ [ 144.836435233445854, -37.679111841000548 ], [ 144.836451268803842, -37.679189105740981 ], [ 144.836607662805648, -37.679295170481417 ] ] } },
{ "type": "Feature", "properties": { "gid": 186, "osm_id": null, "code": null, "fclass": "tertiary", "name": null, "pixel_count": 34, "Var_line": 94.708763122558594, "Edge_contrast": 15.153964042663574, "ROI": 1564.6666666666665, "Road_detected": -1, "ROI_norm": -0.96313582605509129, "Pred": 0 }, "geometry": { "type": "LineString", "coordinates": [ [ 144.836607662805648, -37.679295170481417 ], [ 144.836636417584913, -37.679318096469601 ] ] } }
]
}
