{
"type": "FeatureCollection",
"crs": { "type": "name", "properties": { "name": "urn:ogc:def:crs:OGC:1.3:CRS84" } },
"features": [
{ "type": "Feature", "properties": { "gid": 7, "fclass": "residential", "length": 123.09617073001428, "status": "disappeared" }, "geometry": { "type": "LineString", "coordinates": [ [ 144.810508700041481, -37.691707104371631 ], [ 144.810087912036494, -37.69149044508967 ], [ 144.80995828311822, -37.691485948275741 ], [ 144.809442194099063, -37.691934279423428 ] ] } },
{ "type": "Feature", "properties": { "gid": 16, "fclass": "residential", "length": 66.107446262585142, "status": "disappeared" }, "geometry": { "type": "LineString", "coordinates": [ [ 144.816812503153244, -37.658233502044716 ], [ 144.817561148335358, -37.65825753193419 ] ] } },
{ "type": "Feature", "properties": { "gid": 26, "fclass": "residential", "length": 365.70295112315347, "status": "disappeared" }, "geometry": { "type": "LineString", "coordinates": [ [ 144.812252433103083, -37.662368975490416 ], [ 144.812783863274348, -37.661451469549064 ], [ 144.812941552154427, -37.661005420789976 ], [ 144.812889824007328, -37.6608165227616 ], [ 144.812969397937167, -37.660662160247874 ], [ 144.81291946976873, -37.66047326501927 ], [ 144.813006157695241, -37.66035324398576 ], [ 144.812948945566689, -37.660198667785117 ], [ 144.813035802747549, -37.660009986155707 ], [ 144.812978590817949, -37.659855409949571 ], [ 144.81306360533921, -37.659683890608015 ], [ 144.813008235800311, -37.65951215206308 ], [ 144.813084166150645, -37.659374948922462 ], [ 144.813066401457405, -37.65928051252979 ] ] } },
{ "type": "Feature", "properties": { "gid": 30, "fclass": "residential", "length": 477.10512513100196, "status": "disappeared" }, "geometry": { "type": "LineString", "coordinates": [ [ 144.809605517214152, -37.661380658506964 ], [ 144.809422013288781, -37.661348897078277 ], [ 144.809206314456191, -37.661236979809523 ], [ 144.809005231485941, -37.661039259450611 ], [ 144.808794973377104, -37.660911615333994 ], [ 144.808637062686842, -37.660723976290875 ], [ 144.808372123670438, -37.660157100825359 ], [ 144.808468773134223, -37.659659464379331 ], [ 144.808571969219116, -37.659419316428874 ], [ 144.808776035600772, -37.659146429496843 ], [ 144.809205173400045, -37.65883384884205 ], [ 144.809442981324622, -37.658739818819733 ], [ 144.810177772720436, -37.658547877171337 ], [ 144.810534022874833, -37.658589923975448 ] ] } },
{ "type": "Feature", "properties": { "gid": 38, "fclass": "residential", "length": 230.2811928825239, "status": "disappeared" }, "geometry": { "type": "LineString", "coordinates": [ [ 144.811542000687837, -37.693242140826285 ], [ 144.811220112158225, -37.693074275351933 ], [ 144.809470887807947, -37.691980098400627 ] ] } },
{ "type": "Feature", "properties": { "gid": 52, "fclass": "residential", "length": 219.3067349940446, "status": "disappeared" }, "geometry": { "type": "LineString", "coordinates": [ [ 144.832572302587863, -37.667525772567977 ], [ 144.832729153960997, -37.667411557392739 ], [ 144.834305777005881, -37.666664203981412 ], [ 144.834586896174869, -37.666515827892674 ], [ 144.834648232267199, -37.666452973680201 ] ] } },
{ "type": "Feature", "properties": { "gid": 73, "fclass": "residential", "length": 25.608443251791947, "status": "disappeared" }, "geometry": { "type": "LineString", "coordinates": [ [ 144.83767165034584, -37.680120540621459 ], [ 144.837509449888387, -37.680201854779092 ], [ 144.837412262232931, -37.680188849097568 ] ] } },
{ "type": "Feature", "properties": { "gid": 80, "fclass": "residential", "length": 241.2675167760035, "status": "disappeared" }, "geometry": { "type": "LineString", "coordinates": [ [ 144.821064163647804, -37.662542674653466 ], [ 144.820858830279576, -37.662605306690324 ], [ 144.820747001516196, -37.662705269612061 ], [ 144.820768315358237, -37.662825457821221 ], [ 144.820697795096123, -37.662962673742996 ], [ 144.820735307815596, -37.663082886199263 ], [ 144.820659468969325, -37.66318576375604 ], [ 144.820707781025703, -37.663305992383108 ], [ 144.820639060090571, -37.663443210940514 ], [ 144.820676572954881, -37.663563423393711 ], [ 144.820600733547252, -37.663666300894938 ], [ 144.820649045817078, -37.663786529524238 ], [ 144.82058032433909, -37.663923748023429 ], [ 144.820619637247063, -37.664043963169632 ], [ 144.820550915481931, -37.66418118163881 ], [ 144.82062763997817, -37.664464522001339 ] ] } },
{ "type": "Feature", "properties": { "gid": 135, "fclass": "trunk", "length": 22.723578456548772, "status": "disappeared" }, "geometry": { "type": "LineString", "coordinates": [ [ 144.832797036703369, -37.67008941474365 ], [ 144.832566833761376, -37.66999754574568 ] ] } },
{ "type": "Feature", "properties": { "gid": 136, "fclass": "trunk", "length": 51.717724347574787, "status": "disappeared" }, "geometry": { "type": "LineString", "coordinates": [ [ 144.802425232817853, -37.698193853742055 ], [ 144.802453797642301, -37.698288308145102 ], [ 144.802435387036866, -37.698442762456352 ], [ 144.802193844148093, -37.698536771212147 ] ] } },
{ "type": "Feature", "properties": { "gid": 140, "fclass": "trunk", "length": 28.399665889099587, "status": "disappeared" }, "geometry": { "type": "LineString", "coordinates": [ [ 144.822005825096852, -37.66622886910433 ], [ 144.822150359024818, -37.666000214966871 ] ] } },
{ "type": "Feature", "properties": { "gid": 141, "fclass": "trunk", "length": 56.197123601871958, "status": "disappeared" }, "geometry": { "type": "LineString", "coordinates": [ [ 144.806891638309338, -37.69794938301127 ], [ 144.80684084600739, -37.698095203326702 ], [ 144.806898205770523, -37.698198285565631 ], [ 144.807178876026086, -37.698293144889035 ] ] } },
{ "type": "Feature", "properties": { "gid": 144, "fclass": "trunk", "length": 26.525242514250749, "status": "disappeared" }, "geometry": { "type": "LineString", "coordinates": [ [ 144.79951613382201, -37.697868608473584 ], [ 144.799804064557947, -37.697937749801127 ] ] } },
{ "type": "Feature", "properties": { "gid": 149, "fclass": "primary", "length": 18.319778179789196, "status": "disappeared" }, "geometry": { "type": "LineString", "coordinates": [ [ 144.841596115059843, -37.690516362631094 ], [ 144.841769157345823, -37.690425044636143 ] ] } },
{ "type": "Feature", "properties": { "gid": 150, "fclass": "primary", "length": 39.385437520507566, "status": "disappeared" }, "geometry": { "type": "LineString", "coordinates": [ [ 144.832739485915454, -37.670066447535916 ], [ 144.832757239755324, -37.670178045711872 ], [ 144.832911582501566, -37.670387103611702 ] ] } },
{ "type": "Feature", "properties": { "gid": 154, "fclass": "primary", "length": 2.5400000000372529, "status": "disappeared" }, "geometry": { "type": "LineString", "coordinates": [ [ 144.830722670537966, -37.670406916655985 ], [ 144.830722721734901, -37.670384029882023 ] ] } },
{ "type": "Feature", "properties": { "gid": 155, "fclass": "primary", "length": 3.5926092055679342, "status": "disappeared" }, "geometry": { "type": "LineString", "coordinates": [ [ 144.830722670537966, -37.670406916655985 ], [ 144.830751522533319, -37.670384070585548 ] ] } },
{ "type": "Feature", "properties": { "gid": 156, "fclass": "primary", "length": 17.039799533667978, "status": "disappeared" }, "geometry": { "type": "LineString", "coordinates": [ [ 144.830722670537966, -37.670406916655985 ], [ 144.83063596077767, -37.67054411514313 ] ] } },
{ "type": "Feature", "properties": { "gid": 157, "fclass": "primary", "length": 29.627380755608961, "status": "disappeared" }, "geometry": { "type": "LineString", "coordinates": [ [ 144.799803882847357, -37.698006409364318 ], [ 144.79951613382201, -37.697868608473584 ] ] } },
{ "type": "Feature", "properties": { "gid": 158, "fclass": "primary", "length": 2.5399999995715916, "status": "disappeared" }, "geometry": { "type": "LineString", "coordinates": [ [ 144.830751522533319, -37.670384070585548 ], [ 144.830751573721528, -37.670361183811437 ] ] } },
{ "type": "Feature", "properties": { "gid": 159, "fclass": "primary", "length": 2.5407166122458875, "status": "disappeared" }, "geometry": { "type": "LineString", "coordinates": [ [ 144.830751522533319, -37.670384070585548 ], [ 144.830722721734901, -37.670384029882023 ] ] } },
{ "type": "Feature", "properties": { "gid": 160, "fclass": "primary", "length": 2.5399999995715916, "status": "disappeared" }, "geometry": { "type": "LineString", "coordinates": [ [ 144.830751522533319, -37.670384070585548 ], [ 144.830751573721528, -37.670361183811437 ] ] } },
{ "type": "Feature", "properties": { "gid": 161, "fclass": "primary", "length": 5.6799331780281905, "status": "disappeared" }, "geometry": { "type": "LineString", "coordinates": [ [ 144.831298227480119, -37.670613710369736 ], [ 144.83126952865743, -37.670567896252678 ] ] } },
{ "type": "Feature", "properties": { "gid": 163, "fclass": "primary", "length": 3.5926092052387086, "status": "disappeared" }, "geometry": { "type": "LineString", "coordinates": [ [ 144.830751573721528, -37.670361183811437 ], [ 144.830722721734901, -37.670384029882023 ] ] } },
{ "type": "Feature", "properties": { "gid": 166, "fclass": "tertiary", "length": 14.269922587381418, "status": "disappeared" }, "geometry": { "type": "LineString", "coordinates": [ [ 144.831269324530467, -37.670659443341904 ], [ 144.831289255905205, -37.670600823882253 ], [ 144.831240778829198, -37.670544968900934 ] ] } },
{ "type": "Feature", "properties": { "gid": 168, "fclass": "tertiary", "length": 28.965547004324328, "status": "disappeared" }, "geometry": { "type": "LineString", "coordinates": [ [ 144.841826869915792, -37.690379347510763 ], [ 144.841567258661627, -37.690539211140582 ] ] } },
{ "type": "Feature", "properties": { "gid": 173, "fclass": "tertiary", "length": 47.510656801520689, "status": "disappeared" }, "geometry": { "type": "LineString", "coordinates": [ [ 144.832882731157241, -37.670409950202455 ], [ 144.832899102180704, -37.670332729940995 ], [ 144.832744715317716, -37.670143697950749 ], [ 144.832768387750122, -37.670020714198841 ] ] } },
{ "type": "Feature", "properties": { "gid": 197, "fclass": "unclassified", "length": 214.50254547299764, "status": "disappeared" }, "geometry": { "type": "LineString", "coordinates": [ [ 144.832572403859047, -37.667479998969128 ], [ 144.832950740865243, -37.667326040911504 ], [ 144.834421074696451, -37.666618589692597 ], [ 144.834619432962796, -37.666452933913682 ] ] } },
{ "type": "Feature", "properties": { "gid": 199, "fclass": "unclassified", "length": 1211.8840733360653, "status": "disappeared" }, "geometry": { "type": "LineString", "coordinates": [ [ 144.817676277907623, -37.658280594238974 ], [ 144.818248602097498, -37.658281464281401 ], [ 144.821012711354484, -37.658422949467436 ], [ 144.823668738186882, -37.658609985620458 ], [ 144.824554224859526, -37.658611286253731 ], [ 144.825267042646828, -37.658565124175304 ], [ 144.830386976350297, -37.657951677142222 ], [ 144.83055981359945, -37.657924743575293 ], [ 144.831269458636967, -37.657682571741361 ] ] } },
{ "type": "Feature", "properties": { "gid": 201, "fclass": "unclassified", "length": 115.81606573192647, "status": "disappeared" }, "geometry": { "type": "LineString", "coordinates": [ [ 144.809471003089612, -37.691934325244027 ], [ 144.809830199469133, -37.691583013388133 ], [ 144.809979886140383, -37.691487412960193 ], [ 144.810109450434254, -37.691517657156098 ], [ 144.81045108223222, -37.691707013222576 ] ] } },
{ "type": "Feature", "properties": { "gid": 207, "fclass": "unclassified", "length": 354.9258714593758, "status": "disappeared" }, "geometry": { "type": "LineString", "coordinates": [ [ 144.813066401457405, -37.65928051252979 ], [ 144.812918409000019, -37.660902393430412 ], [ 144.812854481367935, -37.661279927946076 ], [ 144.812745854349231, -37.661537236109304 ], [ 144.812252433103083, -37.662368975490416 ] ] } },
{ "type": "Feature", "properties": { "gid": 208, "fclass": "unclassified", "length": 82.606137281161182, "status": "disappeared" }, "geometry": { "type": "LineString", "coordinates": [ [ 144.809605574790965, -37.661357771665706 ], [ 144.809854749780726, -37.661040611362502 ], [ 144.809895272982828, -37.660671623841004 ] ] } },
{ "type": "Feature", "properties": { "gid": 209, "fclass": "unclassified", "length": 232.19833931301437, "status": "disappeared" }, "geometry": { "type": "LineString", "coordinates": [ [ 144.811542000687837, -37.693242140826285 ], [ 144.809442078799947, -37.691980052579979 ] ] } },
{ "type": "Feature", "properties": { "gid": 210, "fclass": "unclassified", "length": 70.685038801383911, "status": "disappeared" }, "geometry": { "type": "LineString", "coordinates": [ [ 144.817821856442094, -37.657617094026662 ], [ 144.817682469715749, -37.657951603666028 ], [ 144.817647592007546, -37.658234776648179 ] ] } },
{ "type": "Feature", "properties": { "gid": 220, "fclass": "unclassified", "length": 49.74088112303459, "status": "disappeared" }, "geometry": { "type": "LineString", "coordinates": [ [ 144.815689266759364, -37.670132969551489 ], [ 144.815753125038214, -37.669781182385485 ], [ 144.815805527996133, -37.669698298128488 ] ] } },
{ "type": "Feature", "properties": { "gid": 223, "fclass": "unclassified", "length": 250.1783950602422, "status": "disappeared" }, "geometry": { "type": "LineString", "coordinates": [ [ 144.821265586156585, -37.662611636201355 ], [ 144.820909311110853, -37.662569621386716 ], [ 144.820828246128372, -37.662599539205836 ], [ 144.820757814268973, -37.662699564067559 ], [ 144.820571012849513, -37.664055333778514 ], [ 144.820575964891503, -37.664244158156244 ], [ 144.820656438518199, -37.664464565132576 ] ] } },
{ "type": "Feature", "properties": { "gid": 228, "fclass": "unclassified", "length": 1094.510490156501, "status": "disappeared" }, "geometry": { "type": "LineString", "coordinates": [ [ 144.817589944511838, -37.658257575802928 ], [ 144.816931231982778, -37.658256570572519 ], [ 144.815289682452772, -37.658322710582368 ], [ 144.810364901965102, -37.658566769313524 ], [ 144.809889637429961, -37.658616080942636 ], [ 144.809479016377622, -37.658724141376162 ], [ 144.809241197731126, -37.658822462757392 ], [ 144.809024867502217, -37.658963730973717 ], [ 144.80868213236198, -37.659270727306058 ], [ 144.808534072340478, -37.659459308003306 ], [ 144.808468888972754, -37.6596136906686 ], [ 144.808399453917048, -37.660025544628056 ], [ 144.808495513990778, -37.660471993671884 ], [ 144.808608381333045, -37.660678156576346 ], [ 144.80880755407577, -37.660918787588642 ], [ 144.809206314456191, -37.661236979809523 ], [ 144.80937888932371, -37.661320219774552 ], [ 144.809576777439617, -37.661357725876947 ] ] } }
]
}
