{
"type": "FeatureCollection",
"crs": { "type": "name", "properties": { "name": "urn:ogc:def:crs:OGC:1.3:CRS84" } },
"features": [
{ "type": "Feature", "properties": { "gid": 17, "fclass": "residential", "length": 25.485898449400736, "status": "disappeared" }, "geometry": { "type": "LineString", "coordinates": [ [ 144.860536954714064, -37.68312462118913 ], [ 144.860461310829919, -37.683140267719772 ], [ 144.860396537665252, -37.683118735943658 ], [ 144.860364331932942, -37.683009986457961 ] ] } },
{ "type": "Feature", "properties": { "gid": 29, "fclass": "residential", "length": 45.768504365330742, "status": "disappeared" }, "geometry": { "type": "LineString", "coordinates": [ [ 144.854984144680373, -37.664602600789145 ], [ 144.854916323858447, -37.664302128247414 ], [ 144.854840897915409, -37.664213350150675 ] ] } },
{ "type": "Feature", "properties": { "gid": 44, "fclass": "residential", "length": 112.12746994143522, "status": "disappeared" }, "geometry": { "type": "LineString", "coordinates": [ [ 144.853414080323887, -37.672313559003435 ], [ 144.853337860799769, -37.672631020314675 ], [ 144.853097480583273, -37.67312851397029 ], [ 144.852980234041212, -37.673251386728836 ] ] } },
{ "type": "Feature", "properties": { "gid": 50, "fclass": "residential", "length": 43.573232019433831, "status": "disappeared" }, "geometry": { "type": "LineString", "coordinates": [ [ 144.862469555128456, -37.681684991605835 ], [ 144.862291508321675, -37.681583227151627 ], [ 144.862124394213708, -37.681409953952674 ] ] } },
{ "type": "Feature", "properties": { "gid": 89, "fclass": "residential", "length": 77.85556836885381, "status": "disappeared" }, "geometry": { "type": "LineString", "coordinates": [ [ 144.848484777608206, -37.688808772613662 ], [ 144.848466583623235, -37.688903157156332 ], [ 144.848627442929086, -37.689495553291692 ] ] } },
{ "type": "Feature", "properties": { "gid": 120, "fclass": "residential", "length": 58.093648887919315, "status": "disappeared" }, "geometry": { "type": "LineString", "coordinates": [ [ 144.850567156816595, -37.670067131322519 ], [ 144.850632178593656, -37.669955639080513 ], [ 144.850707887524635, -37.669901377228051 ], [ 144.85108610965753, -37.669793135595718 ] ] } },
{ "type": "Feature", "properties": { "gid": 121, "fclass": "residential", "length": 38.237126530542014, "status": "disappeared" }, "geometry": { "type": "LineString", "coordinates": [ [ 144.850567156816595, -37.670067131322519 ], [ 144.850653310451492, -37.670193116409315 ], [ 144.850707261034472, -37.670218931367771 ], [ 144.850793702757329, -37.670199013104614 ], [ 144.850855028372735, -37.670136150678935 ] ] } },
{ "type": "Feature", "properties": { "gid": 166, "fclass": "residential", "length": 33.894351521407323, "status": "disappeared" }, "geometry": { "type": "LineString", "coordinates": [ [ 144.848982890657254, -37.670179578345525 ], [ 144.848954312630951, -37.670067968955969 ], [ 144.849012285035286, -37.669882086460078 ] ] } },
{ "type": "Feature", "properties": { "gid": 167, "fclass": "residential", "length": 44.280718585990861, "status": "disappeared" }, "geometry": { "type": "LineString", "coordinates": [ [ 144.849238130293514, -37.672171054311271 ], [ 144.849378537547608, -37.672171230969518 ], [ 144.849421688544339, -37.672197032904783 ], [ 144.849434050120465, -37.672317204265362 ], [ 144.849352835047654, -37.672422953690884 ] ] } },
{ "type": "Feature", "properties": { "gid": 169, "fclass": "residential", "length": 141.13885098607068, "status": "disappeared" }, "geometry": { "type": "LineString", "coordinates": [ [ 144.853794691212215, -37.669109867412871 ], [ 144.853071705170748, -37.668788566729418 ], [ 144.852942098700709, -37.668791268511953 ], [ 144.852790786329251, -37.668848299747083 ], [ 144.852326231969727, -37.668924970953242 ] ] } },
{ "type": "Feature", "properties": { "gid": 175, "fclass": "residential", "length": 33.894351521317731, "status": "disappeared" }, "geometry": { "type": "LineString", "coordinates": [ [ 144.868733744152252, -37.690526284928382 ], [ 144.868704742032207, -37.690637825603723 ], [ 144.868762036501266, -37.690823842467019 ] ] } },
{ "type": "Feature", "properties": { "gid": 176, "fclass": "residential", "length": 66.608029178546047, "status": "disappeared" }, "geometry": { "type": "LineString", "coordinates": [ [ 144.8862697787917, -37.676926622595985 ], [ 144.886280696123379, -37.676849390110256 ], [ 144.886388927509785, -37.676703589649492 ], [ 144.886691562763588, -37.676569416533958 ], [ 144.886788786330015, -37.676560925928001 ] ] } },
{ "type": "Feature", "properties": { "gid": 195, "fclass": "residential", "length": 25.407166123855859, "status": "disappeared" }, "geometry": { "type": "LineString", "coordinates": [ [ 144.875338133202263, -37.668653605812274 ], [ 144.875050131596964, -37.668653305684799 ] ] } },
{ "type": "Feature", "properties": { "gid": 214, "fclass": "residential", "length": 33.250664132295022, "status": "disappeared" }, "geometry": { "type": "LineString", "coordinates": [ [ 144.886298031841648, -37.677292837721481 ], [ 144.886409791243352, -37.677195674997272 ], [ 144.886615075601412, -37.677155817657308 ] ] } },
{ "type": "Feature", "properties": { "gid": 241, "fclass": "residential", "length": 39.902162616736987, "status": "disappeared" }, "geometry": { "type": "LineString", "coordinates": [ [ 144.884034069880784, -37.688573819825933 ], [ 144.884091385136941, -37.688769842403978 ], [ 144.884264111714259, -37.68884868232346 ] ] } },
{ "type": "Feature", "properties": { "gid": 263, "fclass": "residential", "length": 27.947882736567408, "status": "disappeared" }, "geometry": { "type": "LineString", "coordinates": [ [ 144.851604475289207, -37.669816665843193 ], [ 144.851287668767867, -37.669816272884127 ] ] } },
{ "type": "Feature", "properties": { "gid": 264, "fclass": "residential", "length": 47.634986407309377, "status": "disappeared" }, "geometry": { "type": "LineString", "coordinates": [ [ 144.851604475289207, -37.669816665843193 ], [ 144.851537587672368, -37.66996248656671 ], [ 144.851350029413055, -37.670142487793427 ], [ 144.851344550598924, -37.670182532963196 ] ] } },
{ "type": "Feature", "properties": { "gid": 273, "fclass": "residential", "length": 28.545851521523154, "status": "disappeared" }, "geometry": { "type": "LineString", "coordinates": [ [ 144.872908667784856, -37.69190398578943 ], [ 144.872811596095886, -37.691809475359058 ], [ 144.872793816578138, -37.691674997434042 ] ] } },
{ "type": "Feature", "properties": { "gid": 338, "fclass": "residential", "length": 28.550746926333083, "status": "disappeared" }, "geometry": { "type": "LineString", "coordinates": [ [ 144.85107935368103, -37.673226151483576 ], [ 144.851198313374226, -37.673149056338787 ], [ 144.851367552405549, -37.673134962220658 ] ] } },
{ "type": "Feature", "properties": { "gid": 357, "fclass": "residential", "length": 132.85213589646543, "status": "disappeared" }, "geometry": { "type": "LineString", "coordinates": [ [ 144.868393377449706, -37.687459097480819 ], [ 144.868317325030887, -37.687707906593666 ], [ 144.86799021319851, -37.688411311983153 ], [ 144.867918051654442, -37.688492766227824 ], [ 144.867815351709339, -37.688534135051427 ] ] } },
{ "type": "Feature", "properties": { "gid": 362, "fclass": "residential", "length": 39.192986882613582, "status": "disappeared" }, "geometry": { "type": "LineString", "coordinates": [ [ 144.849926914962367, -37.673407807528342 ], [ 144.85011071162495, -37.673315060006146 ], [ 144.850330414002485, -37.673270991553352 ] ] } },
{ "type": "Feature", "properties": { "gid": 368, "fclass": "residential", "length": 28.405818936037029, "status": "disappeared" }, "geometry": { "type": "LineString", "coordinates": [ [ 144.850560829260388, -37.673271279266082 ], [ 144.850877740448766, -37.673225900632033 ] ] } },
{ "type": "Feature", "properties": { "gid": 394, "fclass": "residential", "length": 74.308945710139398, "status": "disappeared" }, "geometry": { "type": "LineString", "coordinates": [ [ 144.849521275336826, -37.674620299385104 ], [ 144.849647007385897, -37.674760638945912 ], [ 144.849761706066374, -37.67501825937515 ], [ 144.849894526375465, -37.67521582453859 ] ] } },
{ "type": "Feature", "properties": { "gid": 474, "fclass": "residential", "length": 30.479999999981374, "status": "disappeared" }, "geometry": { "type": "LineString", "coordinates": [ [ 144.851248970692552, -37.674851325549056 ], [ 144.851248430791969, -37.675125966463099 ] ] } },
{ "type": "Feature", "properties": { "gid": 540, "fclass": "residential", "length": 59.957114394204353, "status": "disappeared" }, "geometry": { "type": "LineString", "coordinates": [ [ 144.863363753655619, -37.680999412750097 ], [ 144.862815880465746, -37.681319200922033 ] ] } },
{ "type": "Feature", "properties": { "gid": 589, "fclass": "motorway", "length": 247.33804116636716, "status": "disappeared" }, "geometry": { "type": "LineString", "coordinates": [ [ 144.879570071580133, -37.68781415509094 ], [ 144.879732111248103, -37.687815748297794 ], [ 144.879840086958581, -37.687848756251334 ], [ 144.881566683324252, -37.689033430548562 ], [ 144.881786207382618, -37.689120902790499 ] ] } },
{ "type": "Feature", "properties": { "gid": 613, "fclass": "motorway", "length": 135.41838246274341, "status": "disappeared" }, "geometry": { "type": "LineString", "coordinates": [ [ 144.855698480407113, -37.667555870310217 ], [ 144.855978923921271, -37.667742163625633 ], [ 144.856239074335861, -37.668188769900894 ], [ 144.856463686164886, -37.668393590568861 ], [ 144.856647137474255, -37.668472483852 ] ] } },
{ "type": "Feature", "properties": { "gid": 622, "fclass": "motorway", "length": 251.73289895853873, "status": "disappeared" }, "geometry": { "type": "LineString", "coordinates": [ [ 144.861672426492845, -37.676534552843449 ], [ 144.861481246846068, -37.676730299961989 ], [ 144.860269989743102, -37.677552817016966 ], [ 144.859707633776509, -37.677922639287722 ], [ 144.859509470354595, -37.677996789024903 ] ] } },
{ "type": "Feature", "properties": { "gid": 627, "fclass": "motorway", "length": 196.6647555680407, "status": "disappeared" }, "geometry": { "type": "LineString", "coordinates": [ [ 144.882214799109192, -37.691387103941956 ], [ 144.882374883578393, -37.691493111964824 ], [ 144.883475134727433, -37.692589885099864 ], [ 144.883710887543572, -37.692670217394785 ] ] } },
{ "type": "Feature", "properties": { "gid": 653, "fclass": "motorway", "length": 271.2821159772862, "status": "disappeared" }, "geometry": { "type": "LineString", "coordinates": [ [ 144.883798405265537, -37.691960816533886 ], [ 144.883751973038954, -37.691711879253319 ], [ 144.883473573841002, -37.691265319202621 ], [ 144.882584060788361, -37.690131561396655 ], [ 144.882390107058455, -37.689808097086363 ] ] } },
{ "type": "Feature", "properties": { "gid": 688, "fclass": "trunk", "length": 24.834557976539148, "status": "disappeared" }, "geometry": { "type": "LineString", "coordinates": [ [ 144.884601532238918, -37.694273142552397 ], [ 144.884658957969691, -37.694400504677077 ], [ 144.884745302875103, -37.694456373908139 ] ] } },
{ "type": "Feature", "properties": { "gid": 714, "fclass": "trunk", "length": 89.810057255806697, "status": "disappeared" }, "geometry": { "type": "LineString", "coordinates": [ [ 144.871981130727903, -37.678216748853991 ], [ 144.871894661207051, -37.678250986550225 ], [ 144.871813335451492, -37.678436854490421 ], [ 144.871778224262783, -37.678971794915256 ] ] } },
{ "type": "Feature", "properties": { "gid": 779, "fclass": "trunk", "length": 26.152640834771287, "status": "disappeared" }, "geometry": { "type": "LineString", "coordinates": [ [ 144.883985860182094, -37.682440138324814 ], [ 144.884130202689022, -37.682234297515144 ] ] } },
{ "type": "Feature", "properties": { "gid": 792, "fclass": "trunk", "length": 66.383245759457154, "status": "disappeared" }, "geometry": { "type": "LineString", "coordinates": [ [ 144.885606229959876, -37.677635480502808 ], [ 144.885703545768479, -37.677566913110056 ], [ 144.886092643583453, -37.677401354717887 ], [ 144.886211621482431, -37.677292755662997 ] ] } },
{ "type": "Feature", "properties": { "gid": 801, "fclass": "trunk", "length": 21.559032490466894, "status": "disappeared" }, "geometry": { "type": "LineString", "coordinates": [ [ 144.879778306517125, -37.68367187221579 ], [ 144.879724418286543, -37.683594575458542 ], [ 144.879720985831568, -37.683488720953385 ] ] } },
{ "type": "Feature", "properties": { "gid": 825, "fclass": "trunk", "length": 28.012312355700658, "status": "disappeared" }, "geometry": { "type": "LineString", "coordinates": [ [ 144.869996597990962, -37.693274059523084 ], [ 144.870007121356878, -37.693437138204168 ], [ 144.870082633539369, -37.693503019182529 ] ] } },
{ "type": "Feature", "properties": { "gid": 880, "fclass": "trunk", "length": 3.5926092055679342, "status": "disappeared" }, "geometry": { "type": "LineString", "coordinates": [ [ 144.849067786447876, -37.670934951001144 ], [ 144.849096633105461, -37.670912100516261 ] ] } },
{ "type": "Feature", "properties": { "gid": 936, "fclass": "trunk", "length": 30.585709749858786, "status": "disappeared" }, "geometry": { "type": "LineString", "coordinates": [ [ 144.851810032440426, -37.697212330016932 ], [ 144.851781759540813, -37.696937655756521 ] ] } },
{ "type": "Feature", "properties": { "gid": 957, "fclass": "trunk", "length": 45.009925823309949, "status": "disappeared" }, "geometry": { "type": "LineString", "coordinates": [ [ 144.885175113962617, -37.677017125272222 ], [ 144.885319720387997, -37.67662818869492 ] ] } },
{ "type": "Feature", "properties": { "gid": 972, "fclass": "trunk", "length": 28.434992208443283, "status": "disappeared" }, "geometry": { "type": "LineString", "coordinates": [ [ 144.881246831622633, -37.684039524452992 ], [ 144.881365692340864, -37.68401675551678 ], [ 144.881563697840676, -37.684039838161546 ] ] } },
{ "type": "Feature", "properties": { "gid": 1017, "fclass": "trunk", "length": 3.5926092055679342, "status": "disappeared" }, "geometry": { "type": "LineString", "coordinates": [ [ 144.865284836345126, -37.685968007063025 ], [ 144.865256070358498, -37.685945088010818 ] ] } },
{ "type": "Feature", "properties": { "gid": 1018, "fclass": "trunk", "length": 2.5407166122458875, "status": "disappeared" }, "geometry": { "type": "LineString", "coordinates": [ [ 144.865284836345126, -37.685968007063025 ], [ 144.86525602959756, -37.685967974664095 ] ] } },
{ "type": "Feature", "properties": { "gid": 1090, "fclass": "trunk", "length": 34.982837031279779, "status": "disappeared" }, "geometry": { "type": "LineString", "coordinates": [ [ 144.875010742513552, -37.692501250020975 ], [ 144.875151102571152, -37.692552891313341 ], [ 144.875327342407189, -37.692684673016011 ] ] } },
{ "type": "Feature", "properties": { "gid": 1091, "fclass": "trunk", "length": 2.5400000000372529, "status": "disappeared" }, "geometry": { "type": "LineString", "coordinates": [ [ 144.8491254341142, -37.670912136801363 ], [ 144.849125479745652, -37.670889250024274 ] ] } },
{ "type": "Feature", "properties": { "gid": 1092, "fclass": "trunk", "length": 2.5407166122458875, "status": "disappeared" }, "geometry": { "type": "LineString", "coordinates": [ [ 144.8491254341142, -37.670912136801363 ], [ 144.849096633105461, -37.670912100516261 ] ] } },
{ "type": "Feature", "properties": { "gid": 1102, "fclass": "trunk", "length": 3.5926092055679342, "status": "disappeared" }, "geometry": { "type": "LineString", "coordinates": [ [ 144.865256070358498, -37.685945088010818 ], [ 144.865227222850052, -37.685967942258195 ] ] } },
{ "type": "Feature", "properties": { "gid": 1103, "fclass": "trunk", "length": 2.5400000000372529, "status": "disappeared" }, "geometry": { "type": "LineString", "coordinates": [ [ 144.865256070358498, -37.685945088010818 ], [ 144.86525602959756, -37.685967974664095 ] ] } },
{ "type": "Feature", "properties": { "gid": 1115, "fclass": "trunk", "length": 92.232817729371092, "status": "disappeared" }, "geometry": { "type": "LineString", "coordinates": [ [ 144.870164152382017, -37.696363934991439 ], [ 144.870164370885533, -37.696236628473663 ], [ 144.870261704993084, -37.696179517393709 ], [ 144.87049589917774, -37.696116832595614 ], [ 144.87059539813626, -37.695846592022562 ], [ 144.870647727255857, -37.695782279936701 ], [ 144.870712572854302, -37.695769476211588 ] ] } },
{ "type": "Feature", "properties": { "gid": 1132, "fclass": "trunk", "length": 40.414396405110701, "status": "disappeared" }, "geometry": { "type": "LineString", "coordinates": [ [ 144.869722021593248, -37.685423634054388 ], [ 144.869992299230205, -37.685298050824052 ], [ 144.870096860309388, -37.685218060795236 ] ] } },
{ "type": "Feature", "properties": { "gid": 1155, "fclass": "trunk", "length": 28.39831973227604, "status": "disappeared" }, "geometry": { "type": "LineString", "coordinates": [ [ 144.879320515398121, -37.681726040455175 ], [ 144.879378527028706, -37.681474344831344 ] ] } },
{ "type": "Feature", "properties": { "gid": 1163, "fclass": "trunk", "length": 3.5926092055679342, "status": "disappeared" }, "geometry": { "type": "LineString", "coordinates": [ [ 144.849096633105461, -37.670912100516261 ], [ 144.849125479745652, -37.670889250024274 ] ] } },
{ "type": "Feature", "properties": { "gid": 1211, "fclass": "trunk", "length": 21.429874193367549, "status": "disappeared" }, "geometry": { "type": "LineString", "coordinates": [ [ 144.866598008391236, -37.676402819355062 ], [ 144.866517098066595, -37.676346942683274 ], [ 144.866483078657666, -37.676242483822726 ] ] } },
{ "type": "Feature", "properties": { "gid": 1223, "fclass": "trunk", "length": 28.404473070946274, "status": "disappeared" }, "geometry": { "type": "LineString", "coordinates": [ [ 144.880935079822166, -37.680789300075205 ], [ 144.881223307286206, -37.680675152531705 ] ] } },
{ "type": "Feature", "properties": { "gid": 1244, "fclass": "trunk", "length": 187.22650344503521, "status": "disappeared" }, "geometry": { "type": "LineString", "coordinates": [ [ 144.854016219419208, -37.673710390141437 ], [ 144.853767887207425, -37.6736657440117 ], [ 144.852364875287776, -37.6731061567776 ], [ 144.852253399404447, -37.67303878929679 ], [ 144.852174406775674, -37.672929979453045 ] ] } },
{ "type": "Feature", "properties": { "gid": 1252, "fclass": "trunk", "length": 69.919293418520596, "status": "disappeared" }, "geometry": { "type": "LineString", "coordinates": [ [ 144.883947541315678, -37.688642396043214 ], [ 144.884105920522984, -37.68868403145742 ], [ 144.884523067978023, -37.689054912226531 ] ] } },
{ "type": "Feature", "properties": { "gid": 1327, "fclass": "trunk", "length": 33.124198849536093, "status": "disappeared" }, "geometry": { "type": "LineString", "coordinates": [ [ 144.870855438788453, -37.679588745924839 ], [ 144.871172013546186, -37.679749294088474 ] ] } },
{ "type": "Feature", "properties": { "gid": 1344, "fclass": "trunk", "length": 2.5407166122458875, "status": "disappeared" }, "geometry": { "type": "LineString", "coordinates": [ [ 144.86525602959756, -37.685967974664095 ], [ 144.865227222850052, -37.685967942258195 ] ] } },
{ "type": "Feature", "properties": { "gid": 1357, "fclass": "trunk", "length": 121.98717487990612, "status": "disappeared" }, "geometry": { "type": "LineString", "coordinates": [ [ 144.849933405531232, -37.670134999431099 ], [ 144.849663290857478, -37.670189016919238 ], [ 144.849360587014814, -37.670337401025591 ], [ 144.849317044030897, -37.670508997539322 ], [ 144.849143794048757, -37.670731926101261 ], [ 144.849125479745652, -37.670889250024274 ] ] } },
{ "type": "Feature", "properties": { "gid": 1372, "fclass": "trunk", "length": 74.025500631895255, "status": "disappeared" }, "geometry": { "type": "LineString", "coordinates": [ [ 144.867357959228855, -37.686519601218286 ], [ 144.867095583216781, -37.686241809236037 ], [ 144.866811513418043, -37.686015487601104 ] ] } },
{ "type": "Feature", "properties": { "gid": 1383, "fclass": "trunk", "length": 23.395616801987302, "status": "disappeared" }, "geometry": { "type": "LineString", "coordinates": [ [ 144.883910410313547, -37.69406649526092 ], [ 144.883915902153234, -37.694007853610785 ], [ 144.884025930362441, -37.693883514154535 ] ] } },
{ "type": "Feature", "properties": { "gid": 1426, "fclass": "primary", "length": 39.3506155095587, "status": "disappeared" }, "geometry": { "type": "LineString", "coordinates": [ [ 144.883965186481703, -37.695920364115324 ], [ 144.884127278662959, -37.695899064799512 ], [ 144.884368744015319, -37.695783434641861 ] ] } },
{ "type": "Feature", "properties": { "gid": 1433, "fclass": "primary", "length": 2.5407166127115488, "status": "disappeared" }, "geometry": { "type": "LineString", "coordinates": [ [ 144.874538445311714, -37.681972881255248 ], [ 144.874567250542015, -37.681972911422065 ] ] } },
{ "type": "Feature", "properties": { "gid": 1434, "fclass": "primary", "length": 2.5400000000372529, "status": "disappeared" }, "geometry": { "type": "LineString", "coordinates": [ [ 144.874538445311714, -37.681972881255248 ], [ 144.874538407360774, -37.681995767945963 ] ] } },
{ "type": "Feature", "properties": { "gid": 1465, "fclass": "primary", "length": 30.900669306890965, "status": "disappeared" }, "geometry": { "type": "LineString", "coordinates": [ [ 144.876210234618128, -37.681310905349271 ], [ 144.876268293704214, -37.681036324493199 ] ] } },
{ "type": "Feature", "properties": { "gid": 1477, "fclass": "primary", "length": 796.42874563073076, "status": "disappeared" }, "geometry": { "type": "LineString", "coordinates": [ [ 144.870852196412756, -37.681488342188992 ], [ 144.870064569694961, -37.680956804156168 ], [ 144.868467494980735, -37.680038160846401 ], [ 144.867927712893163, -37.67986448584778 ], [ 144.867322865124777, -37.679838069815183 ], [ 144.866739351515918, -37.679964729612152 ], [ 144.86637180410014, -37.680128818655739 ], [ 144.864230437276973, -37.681592592626693 ], [ 144.86405746800628, -37.681669639187199 ], [ 144.863664521540528, -37.681933820471542 ], [ 144.863622967086997, -37.682015307158707 ], [ 144.863620934708962, -37.682144042719216 ] ] } },
{ "type": "Feature", "properties": { "gid": 1478, "fclass": "primary", "length": 21.851988984943699, "status": "disappeared" }, "geometry": { "type": "LineString", "coordinates": [ [ 144.870134084371387, -37.697096273725414 ], [ 144.869989754091733, -37.697256323393631 ] ] } },
{ "type": "Feature", "properties": { "gid": 1480, "fclass": "primary", "length": 3.592609205897253, "status": "disappeared" }, "geometry": { "type": "LineString", "coordinates": [ [ 144.869967041006475, -37.693708873456416 ], [ 144.869938270657826, -37.693685955595875 ] ] } },
{ "type": "Feature", "properties": { "gid": 1481, "fclass": "primary", "length": 2.5407166127115488, "status": "disappeared" }, "geometry": { "type": "LineString", "coordinates": [ [ 144.869967041006475, -37.693708873456416 ], [ 144.869938231309305, -37.69370884218349 ] ] } },
{ "type": "Feature", "properties": { "gid": 1482, "fclass": "primary", "length": 10.162866449449211, "status": "disappeared" }, "geometry": { "type": "LineString", "coordinates": [ [ 144.869967041006475, -37.693708873456416 ], [ 144.870082279795383, -37.693708998478726 ] ] } },
{ "type": "Feature", "properties": { "gid": 1489, "fclass": "primary", "length": 8.0324118983929989, "status": "disappeared" }, "geometry": { "type": "LineString", "coordinates": [ [ 144.872123744875751, -37.696091403274899 ], [ 144.872152439441521, -37.696160093723726 ] ] } },
{ "type": "Feature", "properties": { "gid": 1490, "fclass": "primary", "length": 68.26592424929099, "status": "disappeared" }, "geometry": { "type": "LineString", "coordinates": [ [ 144.870048280481967, -37.696729995052884 ], [ 144.870032207090844, -37.696652735328541 ], [ 144.870089939270741, -37.696588429366059 ], [ 144.870369222777668, -37.6964843117333 ], [ 144.870567541462123, -37.696341484855935 ] ] } },
{ "type": "Feature", "properties": { "gid": 1492, "fclass": "primary", "length": 17.768050991787085, "status": "disappeared" }, "geometry": { "type": "LineString", "coordinates": [ [ 144.883653568932829, -37.673742846785608 ], [ 144.883696666553533, -37.673811549037737 ], [ 144.883797438851758, -37.673834533647167 ] ] } },
{ "type": "Feature", "properties": { "gid": 1496, "fclass": "primary", "length": 16.454035990656546, "status": "disappeared" }, "geometry": { "type": "LineString", "coordinates": [ [ 144.874740119814135, -37.68195020558651 ], [ 144.874642923520582, -37.681937230122365 ], [ 144.874567250542015, -37.681972911422065 ] ] } },
{ "type": "Feature", "properties": { "gid": 1509, "fclass": "primary", "length": 58.279878112622043, "status": "disappeared" }, "geometry": { "type": "LineString", "coordinates": [ [ 144.869938270657826, -37.693685955595875 ], [ 144.869940410638947, -37.693488560724099 ], [ 144.869985632163861, -37.693368454986704 ], [ 144.870169533737766, -37.693228473789183 ] ] } },
{ "type": "Feature", "properties": { "gid": 1510, "fclass": "primary", "length": 3.5926092055679342, "status": "disappeared" }, "geometry": { "type": "LineString", "coordinates": [ [ 144.869938270657826, -37.693685955595875 ], [ 144.869909421612164, -37.693708810903672 ] ] } },
{ "type": "Feature", "properties": { "gid": 1511, "fclass": "primary", "length": 2.5400000000372529, "status": "disappeared" }, "geometry": { "type": "LineString", "coordinates": [ [ 144.869938270657826, -37.693685955595875 ], [ 144.869938231309305, -37.69370884218349 ] ] } },
{ "type": "Feature", "properties": { "gid": 1520, "fclass": "primary", "length": 5.0800000000745058, "status": "disappeared" }, "geometry": { "type": "LineString", "coordinates": [ [ 144.878198883518024, -37.680626341852125 ], [ 144.878198957204063, -37.680580568444633 ] ] } },
{ "type": "Feature", "properties": { "gid": 1521, "fclass": "primary", "length": 19.34867448478575, "status": "disappeared" }, "geometry": { "type": "LineString", "coordinates": [ [ 144.8493189736852, -37.689427765071351 ], [ 144.849117454217264, -37.689358851404947 ] ] } },
{ "type": "Feature", "properties": { "gid": 1529, "fclass": "primary", "length": 31.426407529634538, "status": "disappeared" }, "geometry": { "type": "LineString", "coordinates": [ [ 144.881887102472149, -37.679851886162389 ], [ 144.882232648713909, -37.679920886634712 ] ] } },
{ "type": "Feature", "properties": { "gid": 1532, "fclass": "primary", "length": 12.700000000186265, "status": "disappeared" }, "geometry": { "type": "LineString", "coordinates": [ [ 144.881298016269938, -37.688136293208686 ], [ 144.881298195815475, -37.688021860008462 ] ] } },
{ "type": "Feature", "properties": { "gid": 1533, "fclass": "primary", "length": 22.22687461535909, "status": "disappeared" }, "geometry": { "type": "LineString", "coordinates": [ [ 144.88443181988913, -37.6733545246517 ], [ 144.884399223203445, -37.673481801025645 ], [ 144.884345134185054, -37.673537535383659 ] ] } },
{ "type": "Feature", "properties": { "gid": 1542, "fclass": "primary", "length": 22.719732711487875, "status": "disappeared" }, "geometry": { "type": "LineString", "coordinates": [ [ 144.884601797413438, -37.656326854115193 ], [ 144.884486894957377, -37.656143647748472 ] ] } },
{ "type": "Feature", "properties": { "gid": 1546, "fclass": "primary", "length": 23.007088326583119, "status": "disappeared" }, "geometry": { "type": "LineString", "coordinates": [ [ 144.87506355307849, -37.677968249260111 ], [ 144.874804357594513, -37.677945091857737 ] ] } },
{ "type": "Feature", "properties": { "gid": 1550, "fclass": "primary", "length": 79.783374558779855, "status": "disappeared" }, "geometry": { "type": "LineString", "coordinates": [ [ 144.885316506349056, -37.697752593114124 ], [ 144.8854034991584, -37.69738363005996 ], [ 144.885346392947497, -37.69704313732602 ] ] } },
{ "type": "Feature", "properties": { "gid": 1562, "fclass": "primary", "length": 42.442663654571177, "status": "disappeared" }, "geometry": { "type": "LineString", "coordinates": [ [ 144.886523242289911, -37.680771837641764 ], [ 144.886584349522366, -37.680840555727123 ], [ 144.886955279761452, -37.680795132891063 ] ] } },
{ "type": "Feature", "properties": { "gid": 1567, "fclass": "primary", "length": 24.595076049550727, "status": "disappeared" }, "geometry": { "type": "LineString", "coordinates": [ [ 144.875746686413976, -37.682935383151708 ], [ 144.875887273260048, -37.682838260328865 ], [ 144.875977318773096, -37.682821188550619 ] ] } },
{ "type": "Feature", "properties": { "gid": 1569, "fclass": "primary", "length": 26.638701467568858, "status": "disappeared" }, "geometry": { "type": "LineString", "coordinates": [ [ 144.869880218253826, -37.693937645482023 ], [ 144.869853430561761, -37.693808879097709 ], [ 144.869909421612164, -37.693708810903672 ] ] } },
{ "type": "Feature", "properties": { "gid": 1573, "fclass": "primary", "length": 33.289121263168376, "status": "disappeared" }, "geometry": { "type": "LineString", "coordinates": [ [ 144.878032400868562, -37.67668965006979 ], [ 144.878280860859491, -37.676669876889122 ], [ 144.878377965940871, -37.676735775007181 ] ] } },
{ "type": "Feature", "properties": { "gid": 1575, "fclass": "primary", "length": 27.99973602135675, "status": "disappeared" }, "geometry": { "type": "LineString", "coordinates": [ [ 144.885318159440004, -37.677658091799792 ], [ 144.88541527408438, -37.677722553767254 ], [ 144.885606091555502, -37.677727027427281 ] ] } },
{ "type": "Feature", "properties": { "gid": 1576, "fclass": "primary", "length": 23.967173756811519, "status": "disappeared" }, "geometry": { "type": "LineString", "coordinates": [ [ 144.86942976937766, -37.687849305197361 ], [ 144.869660031954936, -37.687963989354692 ] ] } },
{ "type": "Feature", "properties": { "gid": 1578, "fclass": "primary", "length": 3.592609205897253, "status": "disappeared" }, "geometry": { "type": "LineString", "coordinates": [ [ 144.874538407360774, -37.681995767945963 ], [ 144.874567250542015, -37.681972911422065 ] ] } },
{ "type": "Feature", "properties": { "gid": 1583, "fclass": "primary", "length": 34.594326722827986, "status": "disappeared" }, "geometry": { "type": "LineString", "coordinates": [ [ 144.85522922467311, -37.687031951487242 ], [ 144.855146683472782, -37.686885949032927 ], [ 144.855143372897743, -37.68673432067321 ] ] } },
{ "type": "Feature", "properties": { "gid": 1591, "fclass": "primary", "length": 30.908916031216958, "status": "disappeared" }, "geometry": { "type": "LineString", "coordinates": [ [ 144.876304089697726, -37.694379296088279 ], [ 144.875958295183381, -37.694424711809802 ] ] } },
{ "type": "Feature", "properties": { "gid": 1602, "fclass": "primary", "length": 2.5407166122458875, "status": "disappeared" }, "geometry": { "type": "LineString", "coordinates": [ [ 144.869938231309305, -37.69370884218349 ], [ 144.869909421612164, -37.693708810903672 ] ] } },
{ "type": "Feature", "properties": { "gid": 1612, "fclass": "primary", "length": 27.800138614394115, "status": "disappeared" }, "geometry": { "type": "LineString", "coordinates": [ [ 144.873074907283268, -37.678675648108168 ], [ 144.87313990329082, -37.678564144009364 ], [ 144.873248076186627, -37.678469850639836 ] ] } },
{ "type": "Feature", "properties": { "gid": 1615, "fclass": "primary", "length": 28.520111276768457, "status": "disappeared" }, "geometry": { "type": "LineString", "coordinates": [ [ 144.853159707350329, -37.669818582760286 ], [ 144.853113256229051, -37.669638291909912 ], [ 144.853044949426533, -37.669589573571351 ] ] } },
{ "type": "Feature", "properties": { "gid": 1620, "fclass": "primary", "length": 34.22932487068617, "status": "disappeared" }, "geometry": { "type": "LineString", "coordinates": [ [ 144.885665735087542, -37.695441380269308 ], [ 144.885475063498035, -37.695311030556297 ], [ 144.885392270688129, -37.69528663436013 ], [ 144.885349029216798, -37.695303757946071 ] ] } },
{ "type": "Feature", "properties": { "gid": 1623, "fclass": "primary", "length": 24.579914850501424, "status": "disappeared" }, "geometry": { "type": "LineString", "coordinates": [ [ 144.880134472146437, -37.695229994473969 ], [ 144.880274899625505, -37.695244439021678 ], [ 144.880393656113711, -37.695298913345013 ] ] } },
{ "type": "Feature", "properties": { "gid": 1627, "fclass": "primary", "length": 22.728778920110212, "status": "disappeared" }, "geometry": { "type": "LineString", "coordinates": [ [ 144.871457250823624, -37.698356463352134 ], [ 144.8713922596489, -37.698453661609591 ], [ 144.871284148354135, -37.698493597041981 ] ] } },
{ "type": "Feature", "properties": { "gid": 1628, "fclass": "primary", "length": 49.704917061264922, "status": "disappeared" }, "geometry": { "type": "LineString", "coordinates": [ [ 144.885942075109284, -37.684135633934261 ], [ 144.886276943385241, -37.684137382733581 ], [ 144.88648928720491, -37.684204813841639 ] ] } },
{ "type": "Feature", "properties": { "gid": 1629, "fclass": "primary", "length": 23.007088326120304, "status": "disappeared" }, "geometry": { "type": "LineString", "coordinates": [ [ 144.883812887128784, -37.682531517566417 ], [ 144.884072171215678, -37.682508882056943 ] ] } },
{ "type": "Feature", "properties": { "gid": 1637, "fclass": "primary", "length": 23.421451797638749, "status": "disappeared" }, "geometry": { "type": "LineString", "coordinates": [ [ 144.884742443528097, -37.696333073255822 ], [ 144.884540978203432, -37.696195559653212 ] ] } },
{ "type": "Feature", "properties": { "gid": 1640, "fclass": "primary", "length": 35.004445993974841, "status": "disappeared" }, "geometry": { "type": "LineString", "coordinates": [ [ 144.878085213493733, -37.679664982914936 ], [ 144.878330013692505, -37.679688118574305 ], [ 144.878373036285893, -37.679802596010283 ] ] } },
{ "type": "Feature", "properties": { "gid": 1660, "fclass": "tertiary", "length": 28.435308176817689, "status": "disappeared" }, "geometry": { "type": "LineString", "coordinates": [ [ 144.84937668093383, -37.689382064291713 ], [ 144.849193001163627, -37.689396137378665 ], [ 144.849128268639447, -37.689353143356207 ], [ 144.849146353521149, -37.689313114448389 ] ] } },
{ "type": "Feature", "properties": { "gid": 1666, "fclass": "tertiary", "length": 5.679933177819894, "status": "disappeared" }, "geometry": { "type": "LineString", "coordinates": [ [ 144.87050995923903, -37.696318536027235 ], [ 144.87053869159385, -37.696364340292128 ] ] } },
{ "type": "Feature", "properties": { "gid": 1670, "fclass": "tertiary", "length": 44.181317777085688, "status": "disappeared" }, "geometry": { "type": "LineString", "coordinates": [ [ 144.883965186481703, -37.695920364115324 ], [ 144.884170522941332, -37.695880511247587 ], [ 144.88439762445833, -37.695737689296344 ] ] } },
{ "type": "Feature", "properties": { "gid": 1678, "fclass": "tertiary", "length": 33.812861837586354, "status": "disappeared" }, "geometry": { "type": "LineString", "coordinates": [ [ 144.882059801185164, -37.698413142577927 ], [ 144.882001977379559, -37.69854182268314 ], [ 144.881857727538716, -37.698664695918332 ] ] } },
{ "type": "Feature", "properties": { "gid": 1685, "fclass": "tertiary", "length": 3.5926092055679342, "status": "disappeared" }, "geometry": { "type": "LineString", "coordinates": [ [ 144.870509841708127, -37.696387195721158 ], [ 144.87053869159385, -37.696364340292128 ] ] } },
{ "type": "Feature", "properties": { "gid": 1730, "fclass": "tertiary", "length": 36.503886169402364, "status": "disappeared" }, "geometry": { "type": "LineString", "coordinates": [ [ 144.878349125907107, -37.676758632493652 ], [ 144.87833304138266, -37.676685664562413 ], [ 144.878252094471549, -37.676646960877548 ], [ 144.878032400868562, -37.67668965006979 ] ] } },
{ "type": "Feature", "properties": { "gid": 1734, "fclass": "tertiary", "length": 63.672188826388904, "status": "disappeared" }, "geometry": { "type": "LineString", "coordinates": [ [ 144.870198421791315, -37.693182731822489 ], [ 144.869949521841988, -37.693425632375728 ], [ 144.869938270657826, -37.693685955595875 ] ] } },
{ "type": "Feature", "properties": { "gid": 1735, "fclass": "tertiary", "length": 800.44525543288819, "status": "disappeared" }, "geometry": { "type": "LineString", "coordinates": [ [ 144.870852196412756, -37.681488342188992 ], [ 144.870064569694961, -37.680956804156168 ], [ 144.868445909021631, -37.680028124188112 ], [ 144.867927712893163, -37.67986448584778 ], [ 144.867711727224759, -37.679837069488492 ], [ 144.867236451881126, -37.679837974067617 ], [ 144.866717735570404, -37.679971857671347 ], [ 144.86637180410014, -37.680128818655739 ], [ 144.864230437276973, -37.681592592626693 ], [ 144.864037674774693, -37.681663895038213 ], [ 144.863770836049355, -37.681881015854216 ], [ 144.863673536055614, -37.681926678626674 ], [ 144.863624808666827, -37.681992422521461 ], [ 144.863592088155855, -37.682166896605679 ] ] } },
{ "type": "Feature", "properties": { "gid": 1738, "fclass": "tertiary", "length": 3.592609205897253, "status": "disappeared" }, "geometry": { "type": "LineString", "coordinates": [ [ 144.869967041006475, -37.693708873456416 ], [ 144.869938270657826, -37.693685955595875 ] ] } },
{ "type": "Feature", "properties": { "gid": 1739, "fclass": "tertiary", "length": 2.5407166127115488, "status": "disappeared" }, "geometry": { "type": "LineString", "coordinates": [ [ 144.869967041006475, -37.693708873456416 ], [ 144.869938231309305, -37.69370884218349 ] ] } },
{ "type": "Feature", "properties": { "gid": 1740, "fclass": "tertiary", "length": 12.955023064648548, "status": "disappeared" }, "geometry": { "type": "LineString", "coordinates": [ [ 144.869967041006475, -37.693708873456416 ], [ 144.870111128788949, -37.693686143129312 ] ] } },
{ "type": "Feature", "properties": { "gid": 1748, "fclass": "tertiary", "length": 23.427607196830579, "status": "disappeared" }, "geometry": { "type": "LineString", "coordinates": [ [ 144.874480872819561, -37.681949934209982 ], [ 144.874599732290903, -37.681927171969448 ], [ 144.874740119814135, -37.68195020558651 ] ] } },
{ "type": "Feature", "properties": { "gid": 1749, "fclass": "tertiary", "length": 2.5407166122458875, "status": "disappeared" }, "geometry": { "type": "LineString", "coordinates": [ [ 144.874480872819561, -37.681949934209982 ], [ 144.874452067598043, -37.681949904022403 ] ] } },
{ "type": "Feature", "properties": { "gid": 1757, "fclass": "tertiary", "length": 23.105505148802649, "status": "disappeared" }, "geometry": { "type": "LineString", "coordinates": [ [ 144.884569858699592, -37.696149814273362 ], [ 144.884575173389464, -37.696207035904138 ], [ 144.884713667705427, -37.696310158966703 ] ] } },
{ "type": "Feature", "properties": { "gid": 1765, "fclass": "tertiary", "length": 3.5926092055679342, "status": "disappeared" }, "geometry": { "type": "LineString", "coordinates": [ [ 144.869938270657826, -37.693685955595875 ], [ 144.869909421612164, -37.693708810903672 ] ] } },
{ "type": "Feature", "properties": { "gid": 1766, "fclass": "tertiary", "length": 2.5400000000372529, "status": "disappeared" }, "geometry": { "type": "LineString", "coordinates": [ [ 144.869938270657826, -37.693685955595875 ], [ 144.869938231309305, -37.69370884218349 ] ] } },
{ "type": "Feature", "properties": { "gid": 1767, "fclass": "tertiary", "length": 41.351952235609232, "status": "disappeared" }, "geometry": { "type": "LineString", "coordinates": [ [ 144.855200373721431, -37.687054803310552 ], [ 144.855143203093007, -37.686823006413292 ], [ 144.855172267556128, -37.686688582217577 ] ] } },
{ "type": "Feature", "properties": { "gid": 1768, "fclass": "tertiary", "length": 25.686406700725346, "status": "disappeared" }, "geometry": { "type": "LineString", "coordinates": [ [ 144.883826276125205, -37.673811674823824 ], [ 144.883750646368838, -37.673827336115743 ], [ 144.883669693147311, -37.673792927318971 ], [ 144.883682441395933, -37.67369710123144 ] ] } },
{ "type": "Feature", "properties": { "gid": 1770, "fclass": "tertiary", "length": 25.910046129297097, "status": "disappeared" }, "geometry": { "type": "LineString", "coordinates": [ [ 144.880422502598037, -37.695276055526591 ], [ 144.880134472146437, -37.695229994473969 ] ] } },
{ "type": "Feature", "properties": { "gid": 1773, "fclass": "tertiary", "length": 53.11660947692711, "status": "disappeared" }, "geometry": { "type": "LineString", "coordinates": [ [ 144.886552115700198, -37.680726091516611 ], [ 144.886535797188259, -37.680803318798574 ], [ 144.886613120028187, -37.680863469701301 ], [ 144.886742745967013, -37.680860731493034 ], [ 144.88698411873375, -37.680772273367154 ] ] } },
{ "type": "Feature", "properties": { "gid": 1774, "fclass": "tertiary", "length": 12.700000000186265, "status": "disappeared" }, "geometry": { "type": "LineString", "coordinates": [ [ 144.872152439441521, -37.696160093723726 ], [ 144.872152632840965, -37.696045660886895 ] ] } },
{ "type": "Feature", "properties": { "gid": 1800, "fclass": "tertiary", "length": 27.324377766413434, "status": "disappeared" }, "geometry": { "type": "LineString", "coordinates": [ [ 144.870191745619792, -37.697073449611864 ], [ 144.87009981482808, -37.697129136062749 ], [ 144.869989754091733, -37.697256323393631 ] ] } },
{ "type": "Feature", "properties": { "gid": 1807, "fclass": "tertiary", "length": 23.007088326583119, "status": "disappeared" }, "geometry": { "type": "LineString", "coordinates": [ [ 144.87506355307849, -37.677968249260111 ], [ 144.874804357594513, -37.677945091857737 ] ] } },
{ "type": "Feature", "properties": { "gid": 1822, "fclass": "tertiary", "length": 40.45035055682937, "status": "disappeared" }, "geometry": { "type": "LineString", "coordinates": [ [ 144.876297173415594, -37.680990580844778 ], [ 144.87625007074044, -37.681170765251032 ], [ 144.876152587197964, -37.68133373249583 ] ] } },
{ "type": "Feature", "properties": { "gid": 1823, "fclass": "tertiary", "length": 37.911927305507206, "status": "disappeared" }, "geometry": { "type": "LineString", "coordinates": [ [ 144.878344195081695, -37.679825453469235 ], [ 144.878365922565791, -37.679748232759508 ], [ 144.878330013692505, -37.679688118574305 ], [ 144.878085213493733, -37.679664982914936 ] ] } },
{ "type": "Feature", "properties": { "gid": 1827, "fclass": "tertiary", "length": 21.56855184010093, "status": "disappeared" }, "geometry": { "type": "LineString", "coordinates": [ [ 144.870048359115629, -37.696684221930063 ], [ 144.870064690514255, -37.696611288590844 ], [ 144.870192648906738, -37.696547058719212 ] ] } },
{ "type": "Feature", "properties": { "gid": 1829, "fclass": "tertiary", "length": 32.658630350786325, "status": "disappeared" }, "geometry": { "type": "LineString", "coordinates": [ [ 144.88563695932433, -37.69541846619417 ], [ 144.885475063498035, -37.695311030556297 ], [ 144.885320253601947, -37.695280843793647 ] ] } },
{ "type": "Feature", "properties": { "gid": 1835, "fclass": "tertiary", "length": 26.638701467568858, "status": "disappeared" }, "geometry": { "type": "LineString", "coordinates": [ [ 144.869880218253826, -37.693937645482023 ], [ 144.869853430561761, -37.693808879097709 ], [ 144.869909421612164, -37.693708810903672 ] ] } },
{ "type": "Feature", "properties": { "gid": 1837, "fclass": "tertiary", "length": 27.479667269812918, "status": "disappeared" }, "geometry": { "type": "LineString", "coordinates": [ [ 144.869401001420101, -37.687826387156761 ], [ 144.869660031954936, -37.687963989354692 ] ] } },
{ "type": "Feature", "properties": { "gid": 1850, "fclass": "tertiary", "length": 34.762219806636992, "status": "disappeared" }, "geometry": { "type": "LineString", "coordinates": [ [ 144.884515760203243, -37.65609790169399 ], [ 144.884499444923421, -37.656175129407885 ], [ 144.884572997576839, -37.656329687225252 ], [ 144.884544101728721, -37.656395459337979 ] ] } },
{ "type": "Feature", "properties": { "gid": 1863, "fclass": "tertiary", "length": 26.881776228756415, "status": "disappeared" }, "geometry": { "type": "LineString", "coordinates": [ [ 144.884101046770866, -37.682463136552585 ], [ 144.88400376268649, -37.682505954991825 ], [ 144.883812887128784, -37.682531517566417 ] ] } },
{ "type": "Feature", "properties": { "gid": 1873, "fclass": "tertiary", "length": 2.5407166122458875, "status": "disappeared" }, "geometry": { "type": "LineString", "coordinates": [ [ 144.869938231309305, -37.69370884218349 ], [ 144.869909421612164, -37.693708810903672 ] ] } },
{ "type": "Feature", "properties": { "gid": 1875, "fclass": "tertiary", "length": 33.977735843767078, "status": "disappeared" }, "geometry": { "type": "LineString", "coordinates": [ [ 144.882203879893126, -37.67989797160029 ], [ 144.881890689628136, -37.679860472229443 ], [ 144.881887173926231, -37.679806112739335 ] ] } },
{ "type": "Feature", "properties": { "gid": 1884, "fclass": "tertiary", "length": 46.956690317037847, "status": "disappeared" }, "geometry": { "type": "LineString", "coordinates": [ [ 144.870252193960823, -37.695425679315214 ], [ 144.870310035371119, -37.695297004728566 ], [ 144.870512113935433, -37.695059774652826 ] ] } },
{ "type": "Feature", "properties": { "gid": 1885, "fclass": "tertiary", "length": 53.352800718224493, "status": "disappeared" }, "geometry": { "type": "LineString", "coordinates": [ [ 144.885942075109284, -37.684135633934261 ], [ 144.886255375399259, -37.6841130451281 ], [ 144.886447893486235, -37.684194761675563 ], [ 144.886518127617705, -37.684181954459319 ] ] } },
{ "type": "Feature", "properties": { "gid": 1890, "fclass": "tertiary", "length": 33.078280154522972, "status": "disappeared" }, "geometry": { "type": "LineString", "coordinates": [ [ 144.853130906755894, -37.669818547445331 ], [ 144.853149090334682, -37.669724161516584 ], [ 144.853053996805215, -37.669565267400266 ], [ 144.853073838806807, -37.669543835327104 ] ] } },
{ "type": "Feature", "properties": { "gid": 1899, "fclass": "tertiary", "length": 35.081037227307512, "status": "disappeared" }, "geometry": { "type": "LineString", "coordinates": [ [ 144.876332974481301, -37.694333552662528 ], [ 144.876105960347417, -37.694416282122134 ], [ 144.875958295183381, -37.694424711809802 ] ] } },
{ "type": "Feature", "properties": { "gid": 1905, "fclass": "tertiary", "length": 3.592609205897253, "status": "disappeared" }, "geometry": { "type": "LineString", "coordinates": [ [ 144.87053869159385, -37.696364340292128 ], [ 144.870567541462123, -37.696341484855935 ] ] } },
{ "type": "Feature", "properties": { "gid": 1914, "fclass": "tertiary", "length": 91.792648267788081, "status": "disappeared" }, "geometry": { "type": "LineString", "coordinates": [ [ 144.8852876603992, -37.697775452089239 ], [ 144.885423454119433, -37.69728638112116 ], [ 144.885353513310548, -37.697097499805594 ], [ 144.885404118906848, -37.696974532763818 ] ] } },
{ "type": "Feature", "properties": { "gid": 1932, "fclass": "unclassified", "length": 183.7903496656169, "status": "disappeared" }, "geometry": { "type": "LineString", "coordinates": [ [ 144.867441091884984, -37.68839640144229 ], [ 144.867484175613527, -37.688469400391249 ], [ 144.867566930147177, -37.688508113170691 ], [ 144.86786940616679, -37.68851130800779 ], [ 144.867937874433636, -37.688482775161098 ], [ 144.868085947908099, -37.688234045688539 ], [ 144.868333628776895, -37.687650707806263 ], [ 144.868537533340145, -37.687390595708877 ] ] } },
{ "type": "Feature", "properties": { "gid": 1933, "fclass": "unclassified", "length": 134.534863538465, "status": "disappeared" }, "geometry": { "type": "LineString", "coordinates": [ [ 144.875560903935565, -37.690808210911719 ], [ 144.875548653141806, -37.690593635798791 ], [ 144.875629775850996, -37.690533642572852 ], [ 144.875759475134487, -37.690496586334632 ], [ 144.875862081859481, -37.690510996861704 ], [ 144.875906888635456, -37.69063691988876 ], [ 144.876061640746826, -37.690694296724523 ], [ 144.876032649366692, -37.690805839166487 ], [ 144.875967740912955, -37.690860127783878 ], [ 144.87583803876052, -37.690898614655872 ], [ 144.875647179240275, -37.690899847110273 ] ] } },
{ "type": "Feature", "properties": { "gid": 1940, "fclass": "unclassified", "length": 31.984062256220941, "status": "disappeared" }, "geometry": { "type": "LineString", "coordinates": [ [ 144.884494260047404, -37.689054884453917 ], [ 144.884397020167341, -37.689063373157353 ], [ 144.884206390921406, -37.688917286548538 ] ] } },
{ "type": "Feature", "properties": { "gid": 1954, "fclass": "unclassified", "length": 66.072275406218878, "status": "disappeared" }, "geometry": { "type": "LineString", "coordinates": [ [ 144.850072421193858, -37.672652724832773 ], [ 144.850515328846313, -37.672611796084496 ], [ 144.850644843130851, -37.672659161725605 ], [ 144.850763480773907, -37.67274513517944 ] ] } },
{ "type": "Feature", "properties": { "gid": 1956, "fclass": "unclassified", "length": 65.215165006758468, "status": "disappeared" }, "geometry": { "type": "LineString", "coordinates": [ [ 144.862787033983949, -37.681342054621759 ], [ 144.863035717794531, -37.681209310053248 ], [ 144.86336379498627, -37.680976526054494 ] ] } },
{ "type": "Feature", "properties": { "gid": 1969, "fclass": "unclassified", "length": 114.48459036867636, "status": "disappeared" }, "geometry": { "type": "LineString", "coordinates": [ [ 144.852980189574225, -37.673274273487124 ], [ 144.853155306361458, -37.673014150809259 ], [ 144.853395685834471, -37.672516657016267 ], [ 144.853414080323887, -37.672313559003435 ] ] } },
{ "type": "Feature", "properties": { "gid": 1974, "fclass": "unclassified", "length": 361.73137965715893, "status": "disappeared" }, "geometry": { "type": "LineString", "coordinates": [ [ 144.866367462280692, -37.676471222702304 ], [ 144.866396947344299, -37.676085041144454 ], [ 144.866332383207208, -37.675947648402186 ], [ 144.865005657275901, -37.674931989567362 ], [ 144.864833000421726, -37.674843108515496 ], [ 144.864681856300507, -37.67480431638355 ], [ 144.864228106607186, -37.674865311147244 ], [ 144.86388248151178, -37.674862058008216 ], [ 144.863709753996915, -37.674813227145677 ], [ 144.863519130934662, -37.674705728226414 ] ] } },
{ "type": "Feature", "properties": { "gid": 2004, "fclass": "unclassified", "length": 47.943590423785459, "status": "disappeared" }, "geometry": { "type": "LineString", "coordinates": [ [ 144.854984144680373, -37.664602600789145 ], [ 144.854916323858447, -37.664302128247414 ], [ 144.854840941814416, -37.664190463314348 ] ] } },
{ "type": "Feature", "properties": { "gid": 2062, "fclass": "unclassified", "length": 112.26810777844121, "status": "disappeared" }, "geometry": { "type": "LineString", "coordinates": [ [ 144.85630778196159, -37.680350327285772 ], [ 144.856469927256512, -37.680287583122066 ], [ 144.857226015125292, -37.680305651786931 ], [ 144.857463712261591, -37.680274465590593 ], [ 144.857546595439857, -37.680237373219128 ] ] } },
{ "type": "Feature", "properties": { "gid": 2080, "fclass": "unclassified", "length": 128.15432963511796, "status": "disappeared" }, "geometry": { "type": "LineString", "coordinates": [ [ 144.850739690087693, -37.670204667512571 ], [ 144.850620983039107, -37.670155884977746 ], [ 144.85056715116724, -37.670069992170617 ], [ 144.85063214753572, -37.669971373745618 ], [ 144.850758308365556, -37.669891427075356 ], [ 144.851514546412062, -37.669779363262791 ], [ 144.851633275882165, -37.669816701525221 ] ] } },
{ "type": "Feature", "properties": { "gid": 2084, "fclass": "unclassified", "length": 35.623155865013388, "status": "disappeared" }, "geometry": { "type": "LineString", "coordinates": [ [ 144.884033789226777, -37.688756912912048 ], [ 144.883819805671493, -37.688577903470957 ], [ 144.883803713357793, -37.688504936599877 ] ] } },
{ "type": "Feature", "properties": { "gid": 2089, "fclass": "unclassified", "length": 75.7850486673847, "status": "disappeared" }, "geometry": { "type": "LineString", "coordinates": [ [ 144.862469555128456, -37.681684991605835 ], [ 144.862377801266376, -37.681650556117866 ], [ 144.862020119521844, -37.681331160715175 ], [ 144.861868916876375, -37.681318112657173 ], [ 144.861807664501555, -37.681340928747524 ] ] } },
{ "type": "Feature", "properties": { "gid": 2106, "fclass": "unclassified", "length": 136.61598540889878, "status": "disappeared" }, "geometry": { "type": "LineString", "coordinates": [ [ 144.880188467885858, -37.697518708859647 ], [ 144.880101957343783, -37.697567256328426 ], [ 144.880009277679733, -37.698099276787445 ], [ 144.87997136742473, -37.698159316109219 ], [ 144.879672412785084, -37.698181902827919 ], [ 144.87929433614147, -37.698135749349326 ] ] } },
{ "type": "Feature", "properties": { "gid": 2113, "fclass": "unclassified", "length": 128.10727073113776, "status": "disappeared" }, "geometry": { "type": "LineString", "coordinates": [ [ 144.863103375813125, -37.697546178627775 ], [ 144.863097585406877, -37.697760733868868 ], [ 144.862847999218758, -37.698361221527406 ], [ 144.86281323045074, -37.698667289872091 ] ] } },
{ "type": "Feature", "properties": { "gid": 2124, "fclass": "unclassified", "length": 33.466379913380472, "status": "disappeared" }, "geometry": { "type": "LineString", "coordinates": [ [ 144.856373949756829, -37.67584171293057 ], [ 144.856345326102371, -37.675747270595195 ], [ 144.856374514500743, -37.675544185327659 ] ] } },
{ "type": "Feature", "properties": { "gid": 2127, "fclass": "unclassified", "length": 162.02445645781739, "status": "disappeared" }, "geometry": { "type": "LineString", "coordinates": [ [ 144.877654850528643, -37.678611753429394 ], [ 144.877364474060215, -37.680053321883889 ] ] } },
{ "type": "Feature", "properties": { "gid": 2152, "fclass": "unclassified", "length": 138.13247903391462, "status": "disappeared" }, "geometry": { "type": "LineString", "coordinates": [ [ 144.884168012843105, -37.676352439154016 ], [ 144.884224147136933, -37.67613792989323 ], [ 144.884342720472375, -37.675116721793366 ] ] } },
{ "type": "Feature", "properties": { "gid": 2171, "fclass": "unclassified", "length": 36.620729634934939, "status": "disappeared" }, "geometry": { "type": "LineString", "coordinates": [ [ 144.880654068205502, -37.69458968793937 ], [ 144.880688618529916, -37.694375160288565 ], [ 144.880741003446673, -37.694269361821647 ] ] } },
{ "type": "Feature", "properties": { "gid": 2173, "fclass": "unclassified", "length": 368.01118015951045, "status": "disappeared" }, "geometry": { "type": "LineString", "coordinates": [ [ 144.884618695418311, -37.664131307891388 ], [ 144.884348777778627, -37.664086704198589 ], [ 144.884089587562642, -37.664089314472037 ], [ 144.883743731767055, -37.664267782974477 ], [ 144.883635702220801, -37.664290564932841 ], [ 144.882793423541528, -37.66423967849974 ], [ 144.882577601371054, -37.664132184825746 ], [ 144.882545309684673, -37.664063492515275 ], [ 144.882605372088449, -37.663634422345758 ], [ 144.882788171299609, -37.662982325097488 ], [ 144.88291448124852, -37.662776466635847 ], [ 144.883065913482795, -37.662619267208875 ] ] } },
{ "type": "Feature", "properties": { "gid": 2175, "fclass": "unclassified", "length": 251.10177640315169, "status": "disappeared" }, "geometry": { "type": "LineString", "coordinates": [ [ 144.851944224608332, -37.68753144374169 ], [ 144.852314341662748, -37.689774795282233 ] ] } },
{ "type": "Feature", "properties": { "gid": 2190, "fclass": "unclassified", "length": 46.336802044133293, "status": "disappeared" }, "geometry": { "type": "LineString", "coordinates": [ [ 144.8513445955588, -37.670159646179066 ], [ 144.851510474790587, -37.670019670057798 ], [ 144.851633275882165, -37.669816701525221 ] ] } },
{ "type": "Feature", "properties": { "gid": 2192, "fclass": "unclassified", "length": 198.95453790296096, "status": "disappeared" }, "geometry": { "type": "LineString", "coordinates": [ [ 144.880217315278713, -37.697495851109991 ], [ 144.880480897804745, -37.695925521366554 ], [ 144.880511723654507, -37.695789662878099 ], [ 144.880565831407836, -37.695733930720003 ] ] } },
{ "type": "Feature", "properties": { "gid": 2205, "fclass": "unclassified", "length": 28.256021951916978, "status": "disappeared" }, "geometry": { "type": "LineString", "coordinates": [ [ 144.856431555533845, -37.675841781993604 ], [ 144.856512710133018, -37.675764636326576 ], [ 144.85654720098421, -37.675613052652054 ] ] } },
{ "type": "Feature", "properties": { "gid": 2228, "fclass": "unclassified", "length": 66.513214328691021, "status": "disappeared" }, "geometry": { "type": "LineString", "coordinates": [ [ 144.886817589504716, -37.676560953148964 ], [ 144.886655539506989, -37.676582256260552 ], [ 144.886331252289494, -37.676749308473511 ], [ 144.886298784154093, -37.676792190353758 ], [ 144.886298616496759, -37.676903763203867 ] ] } },
{ "type": "Feature", "properties": { "gid": 2234, "fclass": "unclassified", "length": 2059.7550680877921, "status": "disappeared" }, "geometry": { "type": "LineString", "coordinates": [ [ 144.862268861026934, -37.665343580601892 ], [ 144.862286657303457, -37.665455174591578 ], [ 144.862458826994413, -37.665798675571047 ], [ 144.862582087907157, -37.666313771668399 ], [ 144.862783952457363, -37.668150673714713 ], [ 144.862925219514125, -37.668665789629316 ], [ 144.862884997263421, -37.669009046293901 ], [ 144.862655678421618, -37.669403581593258 ], [ 144.862358083273307, -37.669727947004333 ], [ 144.861211849449631, -37.670496194082205 ], [ 144.860757806943923, -37.670728826674917 ], [ 144.860606536113124, -37.67076441138471 ], [ 144.860455333722712, -37.670762804881775 ], [ 144.859829461383185, -37.670465975617148 ], [ 144.859591968548415, -37.670404189059809 ], [ 144.859483912349788, -37.670432670874888 ], [ 144.859069106538243, -37.670858450750401 ], [ 144.858616296772624, -37.671390035846308 ], [ 144.857345507530454, -37.672309723602517 ], [ 144.857303943465098, -37.672395499660858 ], [ 144.857312652654173, -37.672549996058727 ], [ 144.857510114421814, -37.672842038046383 ], [ 144.857928734179978, -37.673271663084641 ], [ 144.858678261972926, -37.673873328536608 ], [ 144.859174465312918, -37.674214354199364 ], [ 144.859908205536186, -37.674602859849799 ], [ 144.863577721150023, -37.676156245321749 ], [ 144.863880011242884, -37.676235262562642 ], [ 144.864247162771164, -37.676284313666002 ], [ 144.866338618719823, -37.676494077298997 ] ] } },
{ "type": "Feature", "properties": { "gid": 2246, "fclass": "unclassified", "length": 24.837257077359062, "status": "disappeared" }, "geometry": { "type": "LineString", "coordinates": [ [ 144.885952217924768, -37.677406942783776 ], [ 144.886112506269484, -37.677361321763904 ], [ 144.886182818029454, -37.677292728296315 ] ] } },
{ "type": "Feature", "properties": { "gid": 2251, "fclass": "unclassified", "length": 169.07474486137497, "status": "disappeared" }, "geometry": { "type": "LineString", "coordinates": [ [ 144.876733347790605, -37.678473488087995 ], [ 144.876597223718363, -37.679151368103625 ], [ 144.87667249889418, -37.6793574264113 ], [ 144.876639870245413, -37.679494713323095 ], [ 144.876482938699013, -37.679683367291119 ], [ 144.876442916922116, -37.679937941092511 ] ] } },
{ "type": "Feature", "properties": { "gid": 2255, "fclass": "unclassified", "length": 35.660605957641451, "status": "disappeared" }, "geometry": { "type": "LineString", "coordinates": [ [ 144.885735628183795, -37.6873166877496 ], [ 144.886138895509646, -37.687339958404934 ] ] } },
{ "type": "Feature", "properties": { "gid": 2265, "fclass": "unclassified", "length": 55.713901348717009, "status": "disappeared" }, "geometry": { "type": "LineString", "coordinates": [ [ 144.851368676263661, -37.672562793189961 ], [ 144.850937373046548, -37.672196068037387 ] ] } },
{ "type": "Feature", "properties": { "gid": 2284, "fclass": "unclassified", "length": 69.548591937978941, "status": "disappeared" }, "geometry": { "type": "LineString", "coordinates": [ [ 144.849578607197742, -37.674757692212594 ], [ 144.849711608397911, -37.674863710626653 ], [ 144.849836693986475, -37.675330186030848 ] ] } },
{ "type": "Feature", "properties": { "gid": 2291, "fclass": "unclassified", "length": 143.93603578553893, "status": "disappeared" }, "geometry": { "type": "LineString", "coordinates": [ [ 144.864138361428047, -37.682739685684744 ], [ 144.864423323430657, -37.682456785284828 ], [ 144.864429554878313, -37.681993336020717 ], [ 144.864543405717626, -37.681753154106524 ], [ 144.86445735416757, -37.681549936977966 ] ] } },
{ "type": "Feature", "properties": { "gid": 2292, "fclass": "unclassified", "length": 92.079557939471385, "status": "disappeared" }, "geometry": { "type": "LineString", "coordinates": [ [ 144.876360662243457, -37.695020179831985 ], [ 144.876865311057912, -37.694731756012899 ], [ 144.876908693773316, -37.694628810805227 ], [ 144.876880251554894, -37.694402776197343 ] ] } },
{ "type": "Feature", "properties": { "gid": 2301, "fclass": "unclassified", "length": 117.28115558108438, "status": "disappeared" }, "geometry": { "type": "LineString", "coordinates": [ [ 144.845602781184965, -37.689400146525038 ], [ 144.845489699158691, -37.688347213399425 ] ] } },
{ "type": "Feature", "properties": { "gid": 2306, "fclass": "unclassified", "length": 455.08514451217906, "status": "disappeared" }, "geometry": { "type": "LineString", "coordinates": [ [ 144.866626650132901, -37.676494398374523 ], [ 144.866628798267072, -37.676297002279064 ], [ 144.867003167690996, -37.674289102691048 ], [ 144.867177789306965, -37.673259390309546 ], [ 144.867181720961952, -37.673070578497914 ], [ 144.867299691691727, -37.672521425778768 ], [ 144.867353830149284, -37.672444242750998 ] ] } },
{ "type": "Feature", "properties": { "gid": 2309, "fclass": "unclassified", "length": 887.22825929101737, "status": "disappeared" }, "geometry": { "type": "LineString", "coordinates": [ [ 144.863717728655246, -37.69237450257895 ], [ 144.863565438296661, -37.691953787125065 ], [ 144.863207777831747, -37.691592914545588 ], [ 144.863008351329796, -37.691352376821676 ], [ 144.862970726332463, -37.691249343850593 ], [ 144.862989384635654, -37.690888900365692 ], [ 144.863377554436369, -37.69030573385502 ], [ 144.863531125438357, -37.690014103937379 ], [ 144.863746438181835, -37.689430739010156 ], [ 144.863868245660967, -37.688778607326832 ], [ 144.864047643337898, -37.68613539875556 ], [ 144.86411481402223, -37.685826504528151 ], [ 144.864326294069343, -37.685363288506039 ], [ 144.864277898618781, -37.685243078482038 ], [ 144.864159226022053, -37.685157118819859 ], [ 144.864051227581655, -37.685142692110595 ], [ 144.863673060675126, -37.685188035748858 ] ] } },
{ "type": "Feature", "properties": { "gid": 2330, "fclass": "unclassified", "length": 217.06472430868237, "status": "disappeared" }, "geometry": { "type": "LineString", "coordinates": [ [ 144.849324306897103, -37.672285596872378 ], [ 144.849498821535292, -37.673238480111934 ], [ 144.849588588618161, -37.673358748650045 ], [ 144.850009811325634, -37.673362137742842 ], [ 144.850182741923192, -37.673302276295338 ], [ 144.850420419962376, -37.673271103993898 ], [ 144.850528398859296, -37.673285543056501 ], [ 144.850618297531071, -37.673340011396093 ] ] } },
{ "type": "Feature", "properties": { "gid": 2341, "fclass": "unclassified", "length": 114.57859393416528, "status": "disappeared" }, "geometry": { "type": "LineString", "coordinates": [ [ 144.879929349155162, -37.69740401648663 ], [ 144.879529595027435, -37.697403615196698 ], [ 144.879426889335321, -37.697444993834168 ], [ 144.879319888408759, -37.697921213312391 ], [ 144.879236859517761, -37.698044145073709 ] ] } }
]
}
