{
"type": "FeatureCollection",
"crs": { "type": "name", "properties": { "name": "urn:ogc:def:crs:OGC:1.3:CRS84" } },
"features": [
{ "type": "Feature", "properties": { "gid": 24910, "osm_id": "140093067", "code": 5122.0, "fclass": "residential", "name": "Kings Road", "pixel_count": 166, "Var_line": 32.076271057128906, "Edge_contrast": 16.590757369995117, "ROI": 11599.666666666668, "Road_detected": -1, "ROI_norm": 0.082466551334362675, "Pred": 0 }, "geometry": { "type": "LineString", "coordinates": [ [ 144.788694819200771, -37.684741575247244 ], [ 144.788905519213358, -37.684518575234378 ], [ 144.788957219216684, -37.684466075231221 ], [ 144.789154319229425, -37.684266575219127 ], [ 144.78928311923849, -37.684143475211151 ], [ 144.789482919255448, -37.683978975198684 ], [ 144.789814619287824, -37.683745475177716 ] ] } },
{ "type": "Feature", "properties": { "gid": 25836, "osm_id": "28185962", "code": 5113.0, "fclass": "primary", "name": "Calder Park Drive", "pixel_count": 156, "Var_line": 54.311569213867188, "Edge_contrast": 14.774430274963379, "ROI": 13274.166666666668, "Road_detected": -1, "ROI_norm": 0.23075315977205346, "Pred": 0 }, "geometry": { "type": "LineString", "coordinates": [ [ 144.756188614678621, -37.69504177737948 ], [ 144.756290614635731, -37.694475077376126 ], [ 144.75632271462166, -37.694291577375132 ], [ 144.756381714600792, -37.694000777372921 ], [ 144.756428914579743, -37.693727777371485 ], [ 144.756434414577342, -37.693696077371293 ], [ 144.756451414569682, -37.693597477370716 ] ] } },
{ "type": "Feature", "properties": { "gid": 25837, "osm_id": "28185930", "code": 5113.0, "fclass": "primary", "name": "Calder Park Drive", "pixel_count": 245, "Var_line": 41.030498504638672, "Edge_contrast": 37.101821899414062, "ROI": 13678.166666666668, "Road_detected": -1, "ROI_norm": 0.26652968399350885, "Pred": 0 }, "geometry": { "type": "LineString", "coordinates": [ [ 144.756691514614886, -37.693631177354369 ], [ 144.756681514623068, -37.693723977354416 ], [ 144.756667914634249, -37.693850477354538 ], [ 144.756641914643296, -37.693977477355517 ], [ 144.756576214653364, -37.694177977358713 ], [ 144.756518514658609, -37.694320177361746 ], [ 144.756430014660879, -37.694484677366681 ], [ 144.756330814665375, -37.694687377372134 ], [ 144.756291914670101, -37.694794577374054 ], [ 144.756188614678621, -37.69504177737948 ] ] } },
{ "type": "Feature", "properties": { "gid": 25896, "osm_id": "137056584", "code": 5113.0, "fclass": "primary", "name": "Calder Park Drive", "pixel_count": 50, "Var_line": 28.278379440307617, "Edge_contrast": 36.146076202392578, "ROI": 2512.3333333333335, "Road_detected": -1, "ROI_norm": -0.72226909497365499, "Pred": 0 }, "geometry": { "type": "LineString", "coordinates": [ [ 144.757846713852985, -37.684633377332204 ], [ 144.757819513834249, -37.684501977334861 ] ] } },
{ "type": "Feature", "properties": { "gid": 66187, "osm_id": "305950289", "code": 5112.0, "fclass": "trunk", "name": "Melton Highway", "pixel_count": 50, "Var_line": 44.746334075927734, "Edge_contrast": 19.020023345947266, "ROI": 5806.833333333333, "Road_detected": -1, "ROI_norm": -0.43052216663804904, "Pred": 0 }, "geometry": { "type": "LineString", "coordinates": [ [ 144.756732814597058, -37.693397777352978 ], [ 144.757018714650002, -37.693429877333486 ] ] } },
{ "type": "Feature", "properties": { "gid": 174489, "osm_id": "140093063", "code": 5113.0, "fclass": "primary", "name": null, "pixel_count": 46, "Var_line": 61.965003967285156, "Edge_contrast": 21.233476638793945, "ROI": 2403.8333333333335, "Road_detected": -1, "ROI_norm": -0.7318773941766944, "Pred": 0 }, "geometry": { "type": "LineString", "coordinates": [ [ 144.788694819200771, -37.684741575247244 ], [ 144.788783019222819, -37.684804675240912 ] ] } },
{ "type": "Feature", "properties": { "gid": 174542, "osm_id": "292009609", "code": 5122.0, "fclass": "residential", "name": null, "pixel_count": 94, "Var_line": 57.488491058349609, "Edge_contrast": 24.658473968505859, "ROI": 2993.8333333333335, "Road_detected": -1, "ROI_norm": -0.67962949989288568, "Pred": 0 }, "geometry": { "type": "LineString", "coordinates": [ [ 144.790567619392533, -37.683507375128272 ], [ 144.790522019379978, -37.683463875131601 ], [ 144.790481719369609, -37.683431975134539 ], [ 144.790389219346451, -37.683365075141197 ], [ 144.790271419318742, -37.683296375149567 ] ] } },
{ "type": "Feature", "properties": { "gid": 174563, "osm_id": "306210571", "code": 5113.0, "fclass": "primary", "name": "Kings Road", "pixel_count": 306, "Var_line": 127.62007141113281, "Edge_contrast": 18.230430603027344, "ROI": 22743.666666666664, "Road_detected": -1, "ROI_norm": 1.0693318630271818, "Pred": 0 }, "geometry": { "type": "LineString", "coordinates": [ [ 144.784332918974172, -37.689672375511556 ], [ 144.784259618984237, -37.689884675515238 ], [ 144.784194419000215, -37.690139275518014 ], [ 144.784142219017781, -37.690387575520027 ], [ 144.784088819035446, -37.690638975522084 ], [ 144.784029919053978, -37.690907575524371 ], [ 144.78400411906216, -37.691025375525427 ], [ 144.783932719077654, -37.691285775528591 ], [ 144.783856219089756, -37.691522275532307 ], [ 144.783815919095048, -37.691636975534337 ], [ 144.783776919098415, -37.691731375536364 ], [ 144.783747319100968, -37.691802875537945 ], [ 144.783739719101447, -37.691819575538332 ], [ 144.783721719102573, -37.691859375539316 ] ] } },
{ "type": "Feature", "properties": { "gid": 207572, "osm_id": "7999751", "code": 5122.0, "fclass": "residential", "name": "Melton Highway Service Road", "pixel_count": 250, "Var_line": 55.640266418457031, "Edge_contrast": 21.835338592529297, "ROI": 36676.666666666664, "Road_detected": -1, "ROI_norm": 2.3031791699022763, "Pred": 0 }, "geometry": { "type": "LineString", "coordinates": [ [ 144.761152315421782, -37.693957977051127 ], [ 144.761361815449675, -37.693879977037497 ], [ 144.76144941546255, -37.693858377031702 ], [ 144.761783015524941, -37.693901777008897 ], [ 144.762245215610676, -37.693955476977379 ], [ 144.762892215730716, -37.694031076933221 ], [ 144.763536115849405, -37.694099276889297 ], [ 144.764330315996943, -37.69419357683509 ], [ 144.764391816008953, -37.694206076830866 ], [ 144.764453316021786, -37.694226976826585 ], [ 144.764495716032258, -37.694255876823533 ], [ 144.764560116051996, -37.694336476818677 ] ] } },
{ "type": "Feature", "properties": { "gid": 207647, "osm_id": "47521717", "code": 5115.0, "fclass": "tertiary", "name": "Sydenham Road", "pixel_count": 197, "Var_line": 55.121986389160156, "Edge_contrast": 20.357271194458008, "ROI": 10202.166666666666, "Road_detected": -1, "ROI_norm": -0.041290113515845245, "Pred": 0 }, "geometry": { "type": "LineString", "coordinates": [ [ 144.772155317879907, -37.69913587627584 ], [ 144.772124917865995, -37.699055076278391 ], [ 144.772092817853803, -37.698992476280978 ], [ 144.771922417799971, -37.698765376293878 ], [ 144.771712817734709, -37.698494676309778 ], [ 144.771404817638853, -37.698096876333011 ], [ 144.7713176176118, -37.697985476339603 ], [ 144.771219717582909, -37.697873676346902 ], [ 144.771117817552835, -37.697757376354488 ], [ 144.771011817523032, -37.69765017636233 ], [ 144.770946317507565, -37.697611476366994 ], [ 144.770875217491948, -37.69758067637202 ], [ 144.770803617478407, -37.697569776376909 ] ] } },
{ "type": "Feature", "properties": { "gid": 253964, "osm_id": "784646137", "code": 5113.0, "fclass": "primary", "name": "Kings Road", "pixel_count": 88, "Var_line": 82.592948913574219, "Edge_contrast": 31.513210296630859, "ROI": 7612.166666666667, "Road_detected": -1, "ROI_norm": -0.27064951384646274, "Pred": 0 }, "geometry": { "type": "LineString", "coordinates": [ [ 144.784043218972641, -37.69012617552832 ], [ 144.784125518953999, -37.689818775524671 ], [ 144.784139818950905, -37.68976677552407 ], [ 144.784180018944568, -37.68964267552208 ] ] } },
{ "type": "Feature", "properties": { "gid": 268275, "osm_id": "36714310", "code": 5122.0, "fclass": "residential", "name": "Robertsons Road", "pixel_count": 125, "Var_line": 53.036258697509766, "Edge_contrast": 23.008726119995117, "ROI": 13896.999999999998, "Road_detected": -1, "ROI_norm": 0.28590863461346361, "Pred": 0 }, "geometry": { "type": "LineString", "coordinates": [ [ 144.779592617660853, -37.685063675860675 ], [ 144.779762717670934, -37.684882875850292 ], [ 144.780588117723198, -37.684037575799749 ], [ 144.781030217750811, -37.683580975772678 ], [ 144.781110717752711, -37.683468475767945 ] ] } },
{ "type": "Feature", "properties": { "gid": 268368, "osm_id": "274205715", "code": 5115.0, "fclass": "tertiary", "name": "McCubbin Drive", "pixel_count": 77, "Var_line": 31.526823043823242, "Edge_contrast": 31.997722625732422, "ROI": 2984.666666666667, "Road_detected": -1, "ROI_norm": -0.68044126096226698, "Pred": 0 }, "geometry": { "type": "LineString", "coordinates": [ [ 144.773036517308611, -37.692371676258311 ], [ 144.77284091726375, -37.692268776272158 ], [ 144.772766117248381, -37.692246176277365 ], [ 144.772707317237064, -37.692235676281406 ] ] } },
{ "type": "Feature", "properties": { "gid": 268385, "osm_id": "274918092", "code": 5122.0, "fclass": "residential", "name": "Moonie Close", "pixel_count": 61, "Var_line": 48.192371368408203, "Edge_contrast": 6.4675288200378418, "ROI": 3615.0000000000005, "Road_detected": -1, "ROI_norm": -0.62462161797318105, "Pred": 0 }, "geometry": { "type": "LineString", "coordinates": [ [ 144.781943718313073, -37.687357975687512 ], [ 144.781846618296612, -37.687361075694021 ], [ 144.781748218280995, -37.687374275700584 ] ] } },
{ "type": "Feature", "properties": { "gid": 268402, "osm_id": "292009610", "code": 5122.0, "fclass": "residential", "name": null, "pixel_count": 106, "Var_line": 63.674911499023438, "Edge_contrast": 32.290924072265625, "ROI": 4213.3333333333339, "Road_detected": -1, "ROI_norm": -0.57163575908084396, "Pred": 0 }, "geometry": { "type": "LineString", "coordinates": [ [ 144.790308119321196, -37.683260275147369 ], [ 144.790398619342255, -37.683310975140905 ], [ 144.790458919357349, -37.683354475136547 ], [ 144.790505919370418, -37.683400175133094 ], [ 144.790534019379464, -37.683439375130966 ], [ 144.790551519385332, -37.683465975129593 ], [ 144.790567619392533, -37.683507375128272 ] ] } },
{ "type": "Feature", "properties": { "gid": 35, "osm_id": null, "code": null, "fclass": "residential", "name": null, "pixel_count": 50, "Var_line": 113.53685760498047, "Edge_contrast": 39.483116149902344, "ROI": 3868.1666666666661, "Road_detected": -1, "ROI_norm": -0.60220225316608922, "Pred": 0 }, "geometry": { "type": "LineString", "coordinates": [ [ 144.783714733163777, -37.692256781290141 ], [ 144.783656460462907, -37.692485542869072 ] ] } },
{ "type": "Feature", "properties": { "gid": 236, "osm_id": null, "code": null, "fclass": "residential", "name": null, "pixel_count": 90, "Var_line": 54.464370727539062, "Edge_contrast": 34.334693908691406, "ROI": 6757.3333333333339, "Road_detected": -1, "ROI_norm": -0.34634992338930298, "Pred": 0 }, "geometry": { "type": "LineString", "coordinates": [ [ 144.774714165164937, -37.696314020821461 ], [ 144.774626787175464, -37.696631408738831 ], [ 144.774678814941353, -37.696695875292626 ], [ 144.77479937066073, -37.696726140681442 ] ] } },
{ "type": "Feature", "properties": { "gid": 316, "osm_id": null, "code": null, "fclass": "residential", "name": null, "pixel_count": 150, "Var_line": 49.680900573730469, "Edge_contrast": 23.558738708496094, "ROI": 11247.666666666666, "Road_detected": -1, "ROI_norm": 0.051294926270124136, "Pred": 0 }, "geometry": { "type": "LineString", "coordinates": [ [ 144.77177492816179, -37.696491551076726 ], [ 144.771927131098323, -37.696775063195574 ], [ 144.772298527570797, -37.697222059213821 ], [ 144.772463416237485, -37.697479847203184 ], [ 144.772387481570775, -37.697581262437616 ], [ 144.772030362048355, -37.697773689483128 ] ] } },
{ "type": "Feature", "properties": { "gid": 372, "osm_id": null, "code": null, "fclass": "residential", "name": null, "pixel_count": 92, "Var_line": 98.352783203125, "Edge_contrast": 24.132139205932617, "ROI": 4473.0, "Road_detected": -1, "ROI_norm": -0.54864078187910004, "Pred": 0 }, "geometry": { "type": "LineString", "coordinates": [ [ 144.772082136042627, -37.690152526128649 ], [ 144.772168664290774, -37.690118360660328 ], [ 144.772203227299457, -37.69000113201799 ], [ 144.772284551835043, -37.689901157286208 ] ] } },
{ "type": "Feature", "properties": { "gid": 435, "osm_id": null, "code": null, "fclass": "residential", "name": null, "pixel_count": 50, "Var_line": 60.122280120849609, "Edge_contrast": 32.610569000244141, "ROI": 8029.333333333333, "Road_detected": -1, "ROI_norm": -0.23370700554353258, "Pred": 0 }, "geometry": { "type": "LineString", "coordinates": [ [ 144.782777924436061, -37.697450357825389 ], [ 144.783209828189399, -37.697542686651616 ] ] } },
{ "type": "Feature", "properties": { "gid": 476, "osm_id": null, "code": null, "fclass": "motorway", "name": null, "pixel_count": 225, "Var_line": 15.921340942382812, "Edge_contrast": 11.137219429016113, "ROI": 26386.666666666668, "Road_detected": -1, "ROI_norm": 1.3919404712914447, "Pred": 0 }, "geometry": { "type": "LineString", "coordinates": [ [ 144.789633645522713, -37.687575547814987 ], [ 144.789520956902038, -37.687309291761608 ], [ 144.789307563677824, -37.686999945891174 ], [ 144.789123361932468, -37.686553330632371 ], [ 144.789061208222591, -37.686244250368141 ], [ 144.789062213234359, -37.685883786117088 ], [ 144.789147885275014, -37.685506305823061 ], [ 144.789150164056025, -37.685334659306612 ], [ 144.789036094888473, -37.684919636317531 ] ] } },
{ "type": "Feature", "properties": { "gid": 500, "osm_id": null, "code": null, "fclass": "trunk", "name": null, "pixel_count": 169, "Var_line": 14.023392677307129, "Edge_contrast": 13.885457992553711, "ROI": 11755.0, "Road_detected": -1, "ROI_norm": 0.096222211637331398, "Pred": 0 }, "geometry": { "type": "LineString", "coordinates": [ [ 144.788193573976656, -37.69775758048992 ], [ 144.788280163698943, -37.697701947374036 ], [ 144.788392379198882, -37.697497596351155 ], [ 144.788489735743127, -37.696811169202597 ], [ 144.788618255333262, -37.696571086308836 ], [ 144.788633092359277, -37.69641662765855 ], [ 144.788831828658459, -37.696179529188562 ] ] } },
{ "type": "Feature", "properties": { "gid": 505, "osm_id": null, "code": null, "fclass": "trunk", "name": null, "pixel_count": 100, "Var_line": 152.85787963867188, "Edge_contrast": 84.946601867675781, "ROI": 7656.5, "Road_detected": -1, "ROI_norm": -0.26672354212909177, "Pred": 0 }, "geometry": { "type": "LineString", "coordinates": [ [ 144.788869390400208, -37.693044123338098 ], [ 144.789016583788566, -37.693207450173723 ], [ 144.789361660084097, -37.693436924067186 ], [ 144.789501732500923, -37.693571629426515 ] ] } },
{ "type": "Feature", "properties": { "gid": 507, "osm_id": null, "code": null, "fclass": "trunk", "name": null, "pixel_count": 50, "Var_line": 55.779106140136719, "Edge_contrast": 41.122714996337891, "ROI": 2793.5, "Road_detected": -1, "ROI_norm": -0.69737016908190785, "Pred": 0 }, "geometry": { "type": "LineString", "coordinates": [ [ 144.779473458335303, -37.694423283169371 ], [ 144.779501934706474, -37.694537768900361 ] ] } },
{ "type": "Feature", "properties": { "gid": 518, "osm_id": null, "code": null, "fclass": "trunk", "name": null, "pixel_count": 72, "Var_line": 94.303146362304688, "Edge_contrast": 34.698753356933594, "ROI": 5089.0000000000009, "Road_detected": -1, "ROI_norm": -0.49409043801668273, "Pred": 0 }, "geometry": { "type": "LineString", "coordinates": [ [ 144.771276611123653, -37.689784803578128 ], [ 144.771305034427684, -37.689912165157978 ], [ 144.771420098654033, -37.689968171111005 ] ] } },
{ "type": "Feature", "properties": { "gid": 520, "osm_id": null, "code": null, "fclass": "trunk", "name": null, "pixel_count": 113, "Var_line": 128.69073486328125, "Edge_contrast": 56.762100219726562, "ROI": 4939.833333333333, "Road_detected": -1, "ROI_norm": -0.50730000450934065, "Pred": 0 }, "geometry": { "type": "LineString", "coordinates": [ [ 144.772949613012685, -37.68907849802482 ], [ 144.772985957656857, -37.688966994169121 ], [ 144.773164557832587, -37.688850038065887 ], [ 144.773312317776998, -37.688810266006634 ], [ 144.773382485316603, -37.688827563799904 ] ] } },
{ "type": "Feature", "properties": { "gid": 521, "osm_id": null, "code": null, "fclass": "trunk", "name": null, "pixel_count": 119, "Var_line": 131.93638610839844, "Edge_contrast": 53.42987060546875, "ROI": 8479.1666666666679, "Road_detected": -1, "ROI_norm": -0.19387167597517099, "Pred": 0 }, "geometry": { "type": "LineString", "coordinates": [ [ 144.779497140734691, -37.686298548475882 ], [ 144.779410557605615, -37.686354175485022 ], [ 144.77925332355565, -37.686558436025408 ], [ 144.77907116239399, -37.686666812188456 ], [ 144.778861584401227, -37.686915318685394 ] ] } },
{ "type": "Feature", "properties": { "gid": 526, "osm_id": null, "code": null, "fclass": "trunk", "name": null, "pixel_count": 71, "Var_line": 107.85527038574219, "Edge_contrast": 40.324077606201172, "ROI": 1904.1666666666667, "Road_detected": -1, "ROI_norm": -0.77612575210405554, "Pred": 0 }, "geometry": { "type": "LineString", "coordinates": [ [ 144.782308487873593, -37.690377525713814 ], [ 144.782362824558732, -37.690266051785571 ], [ 144.782481732982006, -37.690240520210828 ] ] } },
{ "type": "Feature", "properties": { "gid": 527, "osm_id": null, "code": null, "fclass": "trunk", "name": null, "pixel_count": 50, "Var_line": 114.77487945556641, "Edge_contrast": 14.818495750427246, "ROI": 2584.5, "Road_detected": -1, "ROI_norm": -0.71587832146379937, "Pred": 0 }, "geometry": { "type": "LineString", "coordinates": [ [ 144.793582329754628, -37.697377913083258 ], [ 144.793669199896613, -37.697217856298856 ] ] } },
{ "type": "Feature", "properties": { "gid": 529, "osm_id": null, "code": null, "fclass": "trunk", "name": null, "pixel_count": 50, "Var_line": 123.78861236572266, "Edge_contrast": 87.376350402832031, "ROI": 3159.0, "Road_detected": -1, "ROI_norm": -0.66500304135185351, "Pred": 0 }, "geometry": { "type": "LineString", "coordinates": [ [ 144.779932172291353, -37.685292331949192 ], [ 144.780133551345671, -37.685384248705446 ] ] } },
{ "type": "Feature", "properties": { "gid": 545, "osm_id": null, "code": null, "fclass": "trunk", "name": null, "pixel_count": 125, "Var_line": 144.96148681640625, "Edge_contrast": 60.599376678466797, "ROI": 8538.5, "Road_detected": -1, "ROI_norm": -0.1886173679624491, "Pred": 0 }, "geometry": { "type": "LineString", "coordinates": [ [ 144.768978459210473, -37.687651928862209 ], [ 144.769030279474634, -37.687780766632621 ], [ 144.769191862787238, -37.687931272210633 ], [ 144.769351807627714, -37.688028848854266 ], [ 144.769494759818969, -37.688385298642736 ] ] } },
{ "type": "Feature", "properties": { "gid": 551, "osm_id": null, "code": null, "fclass": "trunk", "name": null, "pixel_count": 69, "Var_line": 100.78662872314453, "Edge_contrast": 8.0520381927490234, "ROI": 6143.333333333333, "Road_detected": -1, "ROI_norm": -0.40072315574567341, "Pred": 0 }, "geometry": { "type": "LineString", "coordinates": [ [ 144.768825541017492, -37.690558246846933 ], [ 144.768729440721728, -37.690189013239575 ], [ 144.768682828425597, -37.690123123961833 ] ] } },
{ "type": "Feature", "properties": { "gid": 557, "osm_id": null, "code": null, "fclass": "trunk", "name": null, "pixel_count": 97, "Var_line": 127.41945648193359, "Edge_contrast": 6.7509121894836426, "ROI": 2848.666666666667, "Road_detected": -1, "ROI_norm": -0.69248484337344995, "Pred": 0 }, "geometry": { "type": "LineString", "coordinates": [ [ 144.760647287637539, -37.680380467968476 ], [ 144.760712450748912, -37.680269025025453 ], [ 144.760874837807194, -37.680154915324181 ], [ 144.760936345600953, -37.680060630053127 ] ] } },
{ "type": "Feature", "properties": { "gid": 565, "osm_id": null, "code": null, "fclass": "trunk", "name": null, "pixel_count": 115, "Var_line": 83.199211120605469, "Edge_contrast": 9.1917562484741211, "ROI": 6056.0, "Road_detected": -1, "ROI_norm": -0.40845702484305069, "Pred": 0 }, "geometry": { "type": "LineString", "coordinates": [ [ 144.755156129261763, -37.686022403119743 ], [ 144.755072426466342, -37.685739008445182 ], [ 144.75503971919801, -37.685275484760062 ], [ 144.754892698012839, -37.68508636826472 ], [ 144.754814009021061, -37.68492313906237 ] ] } },
{ "type": "Feature", "properties": { "gid": 569, "osm_id": null, "code": null, "fclass": "trunk", "name": null, "pixel_count": 50, "Var_line": 132.16609191894531, "Edge_contrast": 100.00325012207031, "ROI": 2899.166666666667, "Road_detected": -1, "ROI_norm": -0.68801277784576809, "Pred": 0 }, "geometry": { "type": "LineString", "coordinates": [ [ 144.764944446380213, -37.697233604373487 ], [ 144.765001570643818, -37.697393922962398 ] ] } },
{ "type": "Feature", "properties": { "gid": 577, "osm_id": null, "code": null, "fclass": "trunk", "name": null, "pixel_count": 50, "Var_line": 107.06901550292969, "Edge_contrast": 14.82383918762207, "ROI": 2714.5, "Road_detected": -1, "ROI_norm": -0.70436607357075676, "Pred": 0 }, "geometry": { "type": "LineString", "coordinates": [ [ 144.774457803649995, -37.69532941233696 ], [ 144.774429471104469, -37.695169152378284 ] ] } },
{ "type": "Feature", "properties": { "gid": 594, "osm_id": null, "code": null, "fclass": "trunk", "name": null, "pixel_count": 30, "Var_line": 126.72249603271484, "Edge_contrast": 100.52028656005859, "ROI": 2600.666666666667, "Road_detected": -1, "ROI_norm": -0.71444667012325425, "Pred": 0 }, "geometry": { "type": "LineString", "coordinates": [ [ 144.756303458143009, -37.6875581545169 ], [ 144.756303384421727, -37.687581041104146 ] ] } },
{ "type": "Feature", "properties": { "gid": 623, "osm_id": null, "code": null, "fclass": "trunk", "name": null, "pixel_count": 50, "Var_line": 89.85455322265625, "Edge_contrast": 27.399232864379883, "ROI": 2438.0, "Road_detected": -1, "ROI_norm": -0.72885173928172808, "Pred": 0 }, "geometry": { "type": "LineString", "coordinates": [ [ 144.756274208474736, -37.687695415431378 ], [ 144.756303384421727, -37.687581041104146 ] ] } },
{ "type": "Feature", "properties": { "gid": 628, "osm_id": null, "code": null, "fclass": "trunk", "name": null, "pixel_count": 75, "Var_line": 108.88513946533203, "Edge_contrast": 17.814069747924805, "ROI": 4845.5, "Road_detected": -1, "ROI_norm": -0.51565376387788187, "Pred": 0 }, "geometry": { "type": "LineString", "coordinates": [ [ 144.755233593912294, -37.697694778732071 ], [ 144.755265066533042, -37.697428785708276 ], [ 144.755321359862819, -37.697282998274268 ] ] } },
{ "type": "Feature", "properties": { "gid": 639, "osm_id": null, "code": null, "fclass": "trunk", "name": null, "pixel_count": 50, "Var_line": 138.28128051757812, "Edge_contrast": 9.9996557235717773, "ROI": 4386.666666666667, "Road_detected": -1, "ROI_norm": -0.55628609522345385, "Pred": 0 }, "geometry": { "type": "LineString", "coordinates": [ [ 144.790795316455814, -37.694603795038454 ], [ 144.79050734326475, -37.694557518519574 ] ] } },
{ "type": "Feature", "properties": { "gid": 653, "osm_id": null, "code": null, "fclass": "trunk", "name": null, "pixel_count": 72, "Var_line": 142.75375366210938, "Edge_contrast": 79.693580627441406, "ROI": 4627.3333333333339, "Road_detected": -1, "ROI_norm": -0.53497367732915446, "Pred": 0 }, "geometry": { "type": "LineString", "coordinates": [ [ 144.75564148191566, -37.687373712123367 ], [ 144.755760136206987, -37.687428310104117 ], [ 144.756274650855573, -37.687558095910873 ] ] } },
{ "type": "Feature", "properties": { "gid": 661, "osm_id": null, "code": null, "fclass": "trunk", "name": null, "pixel_count": 150, "Var_line": 133.7247314453125, "Edge_contrast": 32.268356323242188, "ROI": 9820.1666666666661, "Road_detected": -1, "ROI_norm": -0.075118411170785757, "Pred": 0 }, "geometry": { "type": "LineString", "coordinates": [ [ 144.775786825880743, -37.684346288041489 ], [ 144.775945530421836, -37.684255037973834 ], [ 144.776080927066715, -37.684130844415989 ], [ 144.776241613081595, -37.68397808949657 ], [ 144.776400705222301, -37.683755240682068 ], [ 144.776566752862493, -37.683615369117803 ] ] } },
{ "type": "Feature", "properties": { "gid": 664, "osm_id": null, "code": null, "fclass": "trunk", "name": null, "pixel_count": 34, "Var_line": 125.16718292236328, "Edge_contrast": 122.73061370849609, "ROI": 2587.3333333333335, "Road_detected": -1, "ROI_norm": -0.71562741349689962, "Pred": 0 }, "geometry": { "type": "LineString", "coordinates": [ [ 144.756274650855573, -37.687558095910873 ], [ 144.756303384421727, -37.687581041104146 ] ] } },
{ "type": "Feature", "properties": { "gid": 687, "osm_id": null, "code": null, "fclass": "primary", "name": null, "pixel_count": 30, "Var_line": 69.034599304199219, "Edge_contrast": 34.142425537109375, "ROI": 1246.6666666666667, "Road_detected": -1, "ROI_norm": -0.83435115971694396, "Pred": 0 }, "geometry": { "type": "LineString", "coordinates": [ [ 144.761313619020626, -37.679168797116873 ], [ 144.761342423117895, -37.679168854511389 ] ] } },
{ "type": "Feature", "properties": { "gid": 706, "osm_id": null, "code": null, "fclass": "primary", "name": null, "pixel_count": 69, "Var_line": 113.87064361572266, "Edge_contrast": 44.656139373779297, "ROI": 4953.666666666667, "Road_detected": -1, "ROI_norm": -0.50607498325918354, "Pred": 0 }, "geometry": { "type": "LineString", "coordinates": [ [ 144.790415967530436, -37.696342517339204 ], [ 144.790354530814994, -37.696419652264154 ], [ 144.79015635417781, -37.696456496114344 ] ] } },
{ "type": "Feature", "properties": { "gid": 760, "osm_id": null, "code": null, "fclass": "primary", "name": null, "pixel_count": 50, "Var_line": 157.65196228027344, "Edge_contrast": 68.865951538085938, "ROI": 1714.8333333333333, "Road_detected": -1, "ROI_norm": -0.79289230800982002, "Pred": 0 }, "geometry": { "type": "LineString", "coordinates": [ [ 144.761462097827547, -37.668618254135509 ], [ 144.761460727108584, -37.669053102415965 ] ] } },
{ "type": "Feature", "properties": { "gid": 804, "osm_id": null, "code": null, "fclass": "primary", "name": null, "pixel_count": 146, "Var_line": 121.12730407714844, "Edge_contrast": 19.640417098999023, "ROI": 9296.6666666666661, "Road_detected": -1, "ROI_norm": -0.12147734787853799, "Pred": 0 }, "geometry": { "type": "LineString", "coordinates": [ [ 144.790996354102305, -37.694833012474497 ], [ 144.790939089716403, -37.694704175128621 ], [ 144.790842069419426, -37.694626763325687 ], [ 144.790518198499996, -37.694538942091853 ], [ 144.790258928597353, -37.694531336393148 ], [ 144.789931588602144, -37.694396303762147 ] ] } },
{ "type": "Feature", "properties": { "gid": 806, "osm_id": null, "code": null, "fclass": "primary", "name": null, "pixel_count": 50, "Var_line": 144.29043579101562, "Edge_contrast": 97.375679016113281, "ROI": 4182.6666666666661, "Road_detected": -1, "ROI_norm": -0.57435146884022847, "Pred": 0 }, "geometry": { "type": "LineString", "coordinates": [ [ 144.760317314969171, -37.684522315163733 ], [ 144.760460838417742, -37.684682809572642 ] ] } },
{ "type": "Feature", "properties": { "gid": 823, "osm_id": null, "code": null, "fclass": "primary", "name": null, "pixel_count": 69, "Var_line": 80.353111267089844, "Edge_contrast": 31.921104431152344, "ROI": 4551.666666666667, "Road_detected": -1, "ROI_norm": -0.5416743959745921, "Pred": 0 }, "geometry": { "type": "LineString", "coordinates": [ [ 144.783400454230275, -37.691340746100892 ], [ 144.783259970604746, -37.69135479620374 ], [ 144.783198530643631, -37.69143192760545 ] ] } },
{ "type": "Feature", "properties": { "gid": 825, "osm_id": null, "code": null, "fclass": "primary", "name": null, "pixel_count": 100, "Var_line": 131.54811096191406, "Edge_contrast": 18.701383590698242, "ROI": 7245.5, "Road_detected": -1, "ROI_norm": -0.30311995662171115, "Pred": 0 }, "geometry": { "type": "LineString", "coordinates": [ [ 144.784052210618142, -37.695141110232022 ], [ 144.784261467998249, -37.695007028127499 ], [ 144.784377491396327, -37.694732597108462 ], [ 144.784514477622764, -37.694684209423592 ] ] } },
{ "type": "Feature", "properties": { "gid": 864, "osm_id": null, "code": null, "fclass": "primary", "name": null, "pixel_count": 75, "Var_line": 95.6138916015625, "Edge_contrast": 40.608287811279297, "ROI": 6143.0, "Road_detected": -1, "ROI_norm": -0.40075267433001449, "Pred": 0 }, "geometry": { "type": "LineString", "coordinates": [ [ 144.763399605914913, -37.69372890397095 ], [ 144.763400813829179, -37.69334269361336 ], [ 144.76345944363382, -37.693019534973409 ] ] } },
{ "type": "Feature", "properties": { "gid": 870, "osm_id": null, "code": null, "fclass": "primary", "name": null, "pixel_count": 63, "Var_line": 99.873794555664062, "Edge_contrast": 20.306779861450195, "ROI": 4452.0, "Road_detected": -1, "ROI_norm": -0.55050045269259151, "Pred": 0 }, "geometry": { "type": "LineString", "coordinates": [ [ 144.78393273863378, -37.686535498336688 ], [ 144.784024597436513, -37.686522790199703 ], [ 144.78410584138345, -37.686444263511923 ] ] } },
{ "type": "Feature", "properties": { "gid": 880, "osm_id": null, "code": null, "fclass": "primary", "name": null, "pixel_count": 50, "Var_line": 115.26975250244141, "Edge_contrast": 6.3715958595275879, "ROI": 3911.0, "Road_detected": -1, "ROI_norm": -0.59840911507825334, "Pred": 0 }, "geometry": { "type": "LineString", "coordinates": [ [ 144.787986048537533, -37.68956378699496 ], [ 144.788159345586365, -37.689403886649743 ] ] } },
{ "type": "Feature", "properties": { "gid": 881, "osm_id": null, "code": null, "fclass": "primary", "name": null, "pixel_count": 69, "Var_line": 135.98939514160156, "Edge_contrast": 72.044281005859375, "ROI": 1631.1666666666665, "Road_detected": -1, "ROI_norm": -0.80030147267944496, "Pred": 0 }, "geometry": { "type": "LineString", "coordinates": [ [ 144.762924258574998, -37.689127737626833 ], [ 144.762838009785497, -37.689071780530647 ], [ 144.762809529296931, -37.688967303480986 ] ] } },
{ "type": "Feature", "properties": { "gid": 883, "osm_id": null, "code": null, "fclass": "primary", "name": null, "pixel_count": 50, "Var_line": 118.23897552490234, "Edge_contrast": 36.265682220458984, "ROI": 1895.3333333333333, "Road_detected": -1, "ROI_norm": -0.77690799458909554, "Pred": 0 }, "geometry": { "type": "LineString", "coordinates": [ [ 144.754871028370786, -37.685106349838186 ], [ 144.75498580907734, -37.685243905214264 ] ] } },
{ "type": "Feature", "properties": { "gid": 897, "osm_id": null, "code": null, "fclass": "primary", "name": null, "pixel_count": 30, "Var_line": 18.168859481811523, "Edge_contrast": 43.676536560058594, "ROI": 2757.5, "Road_detected": -1, "ROI_norm": -0.70055817619075034, "Pred": 0 }, "geometry": { "type": "LineString", "coordinates": [ [ 144.770279825162476, -37.676508571392262 ], [ 144.770279894645569, -37.676485684701056 ] ] } },
{ "type": "Feature", "properties": { "gid": 899, "osm_id": null, "code": null, "fclass": "primary", "name": null, "pixel_count": 50, "Var_line": 131.21168518066406, "Edge_contrast": 85.388687133789062, "ROI": 3654.5, "Road_detected": -1, "ROI_norm": -0.62112366572875655, "Pred": 0 }, "geometry": { "type": "LineString", "coordinates": [ [ 144.755702495883497, -37.68632104634807 ], [ 144.755961535758303, -37.686390234584259 ] ] } },
{ "type": "Feature", "properties": { "gid": 904, "osm_id": null, "code": null, "fclass": "primary", "name": null, "pixel_count": 100, "Var_line": 104.325439453125, "Edge_contrast": 31.967512130737305, "ROI": 7225.833333333333, "Road_detected": -1, "ROI_norm": -0.30486155309783808, "Pred": 0 }, "geometry": { "type": "LineString", "coordinates": [ [ 144.763782921407767, -37.690914597321729 ], [ 144.763702652352322, -37.691249157043131 ], [ 144.763723025841529, -37.691643992785636 ], [ 144.763693850608917, -37.691761229562609 ] ] } },
{ "type": "Feature", "properties": { "gid": 921, "osm_id": null, "code": null, "fclass": "primary", "name": null, "pixel_count": 50, "Var_line": 122.76438903808594, "Edge_contrast": 42.560375213623047, "ROI": 4407.3333333333339, "Road_detected": -1, "ROI_norm": -0.55445594299430345, "Pred": 0 }, "geometry": { "type": "LineString", "coordinates": [ [ 144.757144673377383, -37.685751810018509 ], [ 144.75711667498598, -37.685499998964055 ] ] } },
{ "type": "Feature", "properties": { "gid": 923, "osm_id": null, "code": null, "fclass": "primary", "name": null, "pixel_count": 34, "Var_line": 18.593036651611328, "Edge_contrast": 40.262214660644531, "ROI": 1533.6666666666667, "Road_detected": -1, "ROI_norm": -0.80893565859922689, "Pred": 0 }, "geometry": { "type": "LineString", "coordinates": [ [ 144.770251022071278, -37.676508516146946 ], [ 144.770279894645569, -37.676485684701056 ] ] } },
{ "type": "Feature", "properties": { "gid": 932, "osm_id": null, "code": null, "fclass": "primary", "name": null, "pixel_count": 62, "Var_line": 64.735397338867188, "Edge_contrast": 31.721879959106445, "ROI": 3134.8333333333335, "Road_detected": -1, "ROI_norm": -0.6671431387165857, "Pred": 0 }, "geometry": { "type": "LineString", "coordinates": [ [ 144.754861462360367, -37.68805872058396 ], [ 144.754859022273877, -37.688256113663094 ], [ 144.754802883122068, -37.688356128221912 ] ] } },
{ "type": "Feature", "properties": { "gid": 983, "osm_id": null, "code": null, "fclass": "tertiary", "name": null, "pixel_count": 63, "Var_line": 102.73060607910156, "Edge_contrast": 36.795982360839844, "ROI": 5133.5, "Road_detected": -1, "ROI_norm": -0.49014970700714139, "Pred": 0 }, "geometry": { "type": "LineString", "coordinates": [ [ 144.75711586677707, -37.685751751614717 ], [ 144.757116665801846, -37.6855028597898 ], [ 144.757145628419494, -37.685454284155874 ] ] } },
{ "type": "Feature", "properties": { "gid": 1017, "osm_id": null, "code": null, "fclass": "tertiary", "name": null, "pixel_count": 67, "Var_line": 74.852684020996094, "Edge_contrast": 11.691421508789062, "ROI": 8730.1666666666661, "Road_detected": -1, "ROI_norm": -0.17164418196629663, "Pred": 0 }, "geometry": { "type": "LineString", "coordinates": [ [ 144.783169656264107, -37.69145476203628 ], [ 144.783213066203132, -37.691386180532916 ], [ 144.783400519757635, -37.691317859530599 ] ] } },
{ "type": "Feature", "properties": { "gid": 1022, "osm_id": null, "code": null, "fclass": "tertiary", "name": null, "pixel_count": 69, "Var_line": 133.06362915039062, "Edge_contrast": 73.120429992675781, "ROI": 4763.5, "Road_detected": -1, "ROI_norm": -0.52291533562580095, "Pred": 0 }, "geometry": { "type": "LineString", "coordinates": [ [ 144.762924330294879, -37.68910485104896 ], [ 144.762843415744953, -37.6890703608127 ], [ 144.762809672805787, -37.688921530322418 ] ] } },
{ "type": "Feature", "properties": { "gid": 1028, "osm_id": null, "code": null, "fclass": "tertiary", "name": null, "pixel_count": 30, "Var_line": 98.8682861328125, "Edge_contrast": 40.355319976806641, "ROI": 5142.0, "Road_detected": -1, "ROI_norm": -0.48939698310644242, "Pred": 0 }, "geometry": { "type": "LineString", "coordinates": [ [ 144.76375246900227, -37.691440931404713 ], [ 144.763723660230568, -37.691440874590015 ] ] } },
{ "type": "Feature", "properties": { "gid": 1029, "osm_id": null, "code": null, "fclass": "tertiary", "name": null, "pixel_count": 34, "Var_line": 91.904731750488281, "Edge_contrast": 38.444023132324219, "ROI": 1993.5, "Road_detected": -1, "ROI_norm": -0.76821477150063133, "Pred": 0 }, "geometry": { "type": "LineString", "coordinates": [ [ 144.76375246900227, -37.691440931404713 ], [ 144.763723588750253, -37.691463761148064 ] ] } },
{ "type": "Feature", "properties": { "gid": 1046, "osm_id": null, "code": null, "fclass": "tertiary", "name": null, "pixel_count": 50, "Var_line": 73.912612915039062, "Edge_contrast": 19.701105117797852, "ROI": 7927.833333333333, "Road_detected": -1, "ROI_norm": -0.24269541447540813, "Pred": 0 }, "geometry": { "type": "LineString", "coordinates": [ [ 144.760117629276351, -37.692990003550833 ], [ 144.759915455328638, -37.693149805376081 ] ] } },
{ "type": "Feature", "properties": { "gid": 1063, "osm_id": null, "code": null, "fclass": "tertiary", "name": null, "pixel_count": 88, "Var_line": 130.97103881835938, "Edge_contrast": 55.411567687988281, "ROI": 1900.0, "Road_detected": -1, "ROI_norm": -0.77649473440831973, "Pred": 0 }, "geometry": { "type": "LineString", "coordinates": [ [ 144.755990416415614, -37.686367406668268 ], [ 144.75589315181432, -37.686380082301973 ], [ 144.755742086782988, -37.686326848768253 ], [ 144.755616001507804, -37.686343756673118 ] ] } },
{ "type": "Feature", "properties": { "gid": 1064, "osm_id": null, "code": null, "fclass": "tertiary", "name": null, "pixel_count": 75, "Var_line": 112.02155303955078, "Edge_contrast": 9.6207685470581055, "ROI": 5804.333333333333, "Road_detected": -1, "ROI_norm": -0.43074355602060754, "Pred": 0 }, "geometry": { "type": "LineString", "coordinates": [ [ 144.763723731710826, -37.691417988031787 ], [ 144.76369734008145, -37.691220538188759 ], [ 144.763811872885213, -37.690868880996227 ] ] } },
{ "type": "Feature", "properties": { "gid": 1065, "osm_id": null, "code": null, "fclass": "tertiary", "name": null, "pixel_count": 30, "Var_line": 97.312965393066406, "Edge_contrast": 19.562770843505859, "ROI": 3793.5, "Road_detected": -1, "ROI_norm": -0.60881441605850328, "Pred": 0 }, "geometry": { "type": "LineString", "coordinates": [ [ 144.763723731710826, -37.691417988031787 ], [ 144.763723660230568, -37.691440874590015 ] ] } },
{ "type": "Feature", "properties": { "gid": 1080, "osm_id": null, "code": null, "fclass": "tertiary", "name": null, "pixel_count": 30, "Var_line": 92.434959411621094, "Edge_contrast": 44.809925079345703, "ROI": 3711.0, "Road_detected": -1, "ROI_norm": -0.61612026568293421, "Pred": 0 }, "geometry": { "type": "LineString", "coordinates": [ [ 144.763723660230568, -37.691440874590015 ], [ 144.763723588750253, -37.691463761148064 ] ] } },
{ "type": "Feature", "properties": { "gid": 1084, "osm_id": null, "code": null, "fclass": "tertiary", "name": null, "pixel_count": 64, "Var_line": 106.12321472167969, "Edge_contrast": 19.634529113769531, "ROI": 2724.666666666667, "Road_detected": -1, "ROI_norm": -0.7034657567483521, "Pred": 0 }, "geometry": { "type": "LineString", "coordinates": [ [ 144.768542078061841, -37.689047176622807 ], [ 144.768585499879038, -37.688978600357871 ], [ 144.768686467264104, -37.688933021921819 ] ] } },
{ "type": "Feature", "properties": { "gid": 1085, "osm_id": null, "code": null, "fclass": "tertiary", "name": null, "pixel_count": 78, "Var_line": 81.464775085449219, "Edge_contrast": 41.121562957763672, "ROI": 4343.666666666667, "Road_detected": -1, "ROI_norm": -0.56009399260346027, "Pred": 0 }, "geometry": { "type": "LineString", "coordinates": [ [ 144.754919077314383, -37.688058838468727 ], [ 144.75486488253739, -37.688114513995899 ], [ 144.754855439869829, -37.688250384649166 ], [ 144.754802957298068, -37.68833324164229 ] ] } },
{ "type": "Feature", "properties": { "gid": 1109, "osm_id": null, "code": null, "fclass": "tertiary", "name": null, "pixel_count": 75, "Var_line": 81.47296142578125, "Edge_contrast": 12.76200008392334, "ROI": 6070.0000000000009, "Road_detected": -1, "ROI_norm": -0.40721724430072298, "Pred": 0 }, "geometry": { "type": "LineString", "coordinates": [ [ 144.763593048391186, -37.696361252639996 ], [ 144.763535936835183, -37.696198072501772 ], [ 144.763565167673107, -37.696063671073077 ] ] } },
{ "type": "Feature", "properties": { "gid": 1122, "osm_id": null, "code": null, "fclass": "tertiary", "name": null, "pixel_count": 125, "Var_line": 136.97169494628906, "Edge_contrast": 6.2714223861694336, "ROI": 7623.833333333333, "Road_detected": -1, "ROI_norm": -0.26961636339452311, "Pred": 0 }, "geometry": { "type": "LineString", "coordinates": [ [ 144.790996354102305, -37.694833012474497 ], [ 144.790924732140041, -37.694686985082164 ], [ 144.790777349770281, -37.694589459503369 ], [ 144.790496598945055, -37.694536043490551 ], [ 144.790219306958875, -37.694534127853935 ] ] } },
{ "type": "Feature", "properties": { "gid": 1129, "osm_id": null, "code": null, "fclass": "tertiary", "name": null, "pixel_count": 97, "Var_line": 112.18090057373047, "Edge_contrast": 40.210659027099609, "ROI": 4902.666666666667, "Road_detected": -1, "ROI_norm": -0.51059132666337714, "Pred": 0 }, "geometry": { "type": "LineString", "coordinates": [ [ 144.763341915031617, -37.693751676702973 ], [ 144.763398190059547, -37.693605885270195 ], [ 144.763432264868442, -37.693073837185814 ], [ 144.763488396112308, -37.692973818762688 ] ] } },
{ "type": "Feature", "properties": { "gid": 1141, "osm_id": null, "code": null, "fclass": "tertiary", "name": null, "pixel_count": 68, "Var_line": 92.173194885253906, "Edge_contrast": 25.930612564086914, "ROI": 2385.333333333333, "Road_detected": -1, "ROI_norm": -0.73351567560762754, "Pred": 0 }, "geometry": { "type": "LineString", "coordinates": [ [ 144.755127100332999, -37.686091004036712 ], [ 144.755004884813786, -37.686024954737114 ], [ 144.755012392194686, -37.685930562239541 ] ] } },
{ "type": "Feature", "properties": { "gid": 1151, "osm_id": null, "code": null, "fclass": "tertiary", "name": null, "pixel_count": 50, "Var_line": 149.76937866210938, "Edge_contrast": 64.657363891601562, "ROI": 4010.0, "Road_detected": -1, "ROI_norm": -0.58964209552893621, "Pred": 0 }, "geometry": { "type": "LineString", "coordinates": [ [ 144.761491042176914, -37.668572537987167 ], [ 144.761431854709343, -37.669075931799327 ] ] } },
{ "type": "Feature", "properties": { "gid": 1215, "osm_id": null, "code": null, "fclass": "tertiary", "name": null, "pixel_count": 30, "Var_line": 18.168859481811523, "Edge_contrast": 43.676536560058594, "ROI": 2757.5, "Road_detected": -1, "ROI_norm": -0.70055817619075034, "Pred": 0 }, "geometry": { "type": "LineString", "coordinates": [ [ 144.770279825162476, -37.676508571392262 ], [ 144.770279894645569, -37.676485684701056 ] ] } },
{ "type": "Feature", "properties": { "gid": 1235, "osm_id": null, "code": null, "fclass": "tertiary", "name": null, "pixel_count": 34, "Var_line": 18.593036651611328, "Edge_contrast": 40.262214660644531, "ROI": 1533.6666666666667, "Road_detected": -1, "ROI_norm": -0.80893565859922689, "Pred": 0 }, "geometry": { "type": "LineString", "coordinates": [ [ 144.770251022071278, -37.676508516146946 ], [ 144.770279894645569, -37.676485684701056 ] ] } },
{ "type": "Feature", "properties": { "gid": 1252, "osm_id": null, "code": null, "fclass": "tertiary", "name": null, "pixel_count": 50, "Var_line": 81.512428283691406, "Edge_contrast": 29.480997085571289, "ROI": 6079.666666666667, "Road_detected": -1, "ROI_norm": -0.40636120535483011, "Pred": 0 }, "geometry": { "type": "LineString", "coordinates": [ [ 144.763693850608917, -37.691761229562609 ], [ 144.763723588750253, -37.691463761148064 ] ] } },
{ "type": "Feature", "properties": { "gid": 1425, "osm_id": null, "code": null, "fclass": "unclassified", "name": null, "pixel_count": 50, "Var_line": 76.932571411132812, "Edge_contrast": 40.792762756347656, "ROI": 5221.5, "Road_detected": -1, "ROI_norm": -0.48235680074108184, "Pred": 0 }, "geometry": { "type": "LineString", "coordinates": [ [ 144.780764067887191, -37.696439677453647 ], [ 144.781253518676834, -37.696555005317926 ] ] } },
{ "type": "Feature", "properties": { "gid": 1429, "osm_id": null, "code": null, "fclass": "unclassified", "name": null, "pixel_count": 85, "Var_line": 117.83927154541016, "Edge_contrast": 37.106903076171875, "ROI": 7215.0000000000009, "Road_detected": -1, "ROI_norm": -0.30582090708892484, "Pred": 0 }, "geometry": { "type": "LineString", "coordinates": [ [ 144.758802701640462, -37.680720069803058 ], [ 144.758924766062393, -37.680831888654886 ], [ 144.759193667709013, -37.681191466096514 ], [ 144.759204291991921, -37.681247274006004 ] ] } }
]
}
