{
"type": "FeatureCollection",
"crs": { "type": "name", "properties": { "name": "urn:ogc:def:crs:OGC:1.3:CRS84" } },
"features": [
{ "type": "Feature", "properties": { "gid": 29, "fclass": "residential", "length": 68.396809993283156, "status": "disappeared" }, "geometry": { "type": "LineString", "coordinates": [ [ 144.771025642123533, -37.696558781360338 ], [ 144.771427401743125, -37.697085941412965 ] ] } },
{ "type": "Feature", "properties": { "gid": 37, "fclass": "residential", "length": 130.60206576360588, "status": "disappeared" }, "geometry": { "type": "LineString", "coordinates": [ [ 144.761093664554579, -37.675849769540193 ], [ 144.760996482100296, -37.675840993094667 ], [ 144.760392469704954, -37.675572296393256 ], [ 144.75974138482357, -37.675389327847483 ] ] } },
{ "type": "Feature", "properties": { "gid": 39, "fclass": "residential", "length": 61.639339769223653, "status": "disappeared" }, "geometry": { "type": "LineString", "coordinates": [ [ 144.780938854037316, -37.695776284357741 ], [ 144.780789836830508, -37.69624661852535 ], [ 144.780735655230416, -37.696302305580893 ] ] } },
{ "type": "Feature", "properties": { "gid": 115, "fclass": "residential", "length": 37.230669472254689, "status": "disappeared" }, "geometry": { "type": "LineString", "coordinates": [ [ 144.772868016873588, -37.697065794511964 ], [ 144.772885688720095, -37.69717740040317 ], [ 144.773039989727607, -37.697363646773823 ] ] } },
{ "type": "Feature", "properties": { "gid": 130, "fclass": "residential", "length": 39.091385992196017, "status": "disappeared" }, "geometry": { "type": "LineString", "coordinates": [ [ 144.775288950184517, -37.696795719865023 ], [ 144.774997427844681, -37.69673223446113 ], [ 144.774954326549704, -37.696693532292493 ], [ 144.774972507747293, -37.696634919409107 ] ] } },
{ "type": "Feature", "properties": { "gid": 136, "fclass": "residential", "length": 349.91055795814077, "status": "disappeared" }, "geometry": { "type": "LineString", "coordinates": [ [ 144.763578431430062, -37.673382920741034 ], [ 144.763173803630622, -37.673829845414026 ], [ 144.762949973706867, -37.67402537128303 ], [ 144.762884850644156, -37.674126802770296 ], [ 144.761620821395837, -37.675373057135374 ], [ 144.761555695391564, -37.675474487848682 ], [ 144.761122467388219, -37.675849826987616 ] ] } },
{ "type": "Feature", "properties": { "gid": 141, "fclass": "residential", "length": 100.68830102101933, "status": "disappeared" }, "geometry": { "type": "LineString", "coordinates": [ [ 144.77177499721347, -37.696468664558552 ], [ 144.77160968986621, -37.696351055460838 ], [ 144.771114567266068, -37.695735031742515 ] ] } },
{ "type": "Feature", "properties": { "gid": 215, "fclass": "residential", "length": 41.723825113549978, "status": "disappeared" }, "geometry": { "type": "LineString", "coordinates": [ [ 144.775259459413292, -37.697024530996508 ], [ 144.775572710123924, -37.697048004831238 ], [ 144.775720501779375, -37.69700250829667 ] ] } },
{ "type": "Feature", "properties": { "gid": 298, "fclass": "residential", "length": 203.94057042699507, "status": "disappeared" }, "geometry": { "type": "LineString", "coordinates": [ [ 144.790785368670498, -37.68778354523036 ], [ 144.790666561900963, -37.687774755163289 ], [ 144.790591053350965, -37.687734571439883 ], [ 144.790334443659646, -37.687425151904762 ], [ 144.790151606761214, -37.687133026075763 ], [ 144.789877759281154, -37.686548934579619 ], [ 144.789810304540055, -37.686202654474734 ] ] } },
{ "type": "Feature", "properties": { "gid": 302, "fclass": "residential", "length": 112.45594660904871, "status": "disappeared" }, "geometry": { "type": "LineString", "coordinates": [ [ 144.777726880059333, -37.690735299837279 ], [ 144.778008741052957, -37.690402534919173 ], [ 144.778507055183127, -37.689935710312383 ] ] } },
{ "type": "Feature", "properties": { "gid": 323, "fclass": "residential", "length": 26.518996363664435, "status": "disappeared" }, "geometry": { "type": "LineString", "coordinates": [ [ 144.77802490367938, -37.697167006394963 ], [ 144.778112007892673, -37.696938301325233 ] ] } },
{ "type": "Feature", "properties": { "gid": 324, "fclass": "residential", "length": 28.405818936120308, "status": "disappeared" }, "geometry": { "type": "LineString", "coordinates": [ [ 144.775146460763409, -37.696269059624427 ], [ 144.774829680209223, -37.696222691377066 ] ] } },
{ "type": "Feature", "properties": { "gid": 353, "fclass": "residential", "length": 51.432814469897735, "status": "disappeared" }, "geometry": { "type": "LineString", "coordinates": [ [ 144.756623611156101, -37.668631406256729 ], [ 144.756826609084897, -37.668196967473861 ] ] } },
{ "type": "Feature", "properties": { "gid": 354, "fclass": "residential", "length": 139.32111617713355, "status": "disappeared" }, "geometry": { "type": "LineString", "coordinates": [ [ 144.779499599847128, -37.695338797688386 ], [ 144.779640116570334, -37.695316169566368 ], [ 144.780028859577385, -37.695384113499941 ], [ 144.780288135527286, -37.695390310926527 ], [ 144.78091441545098, -37.695510182333955 ], [ 144.781025881589954, -37.695570463580459 ] ] } },
{ "type": "Feature", "properties": { "gid": 412, "fclass": "residential", "length": 81.262805251269029, "status": "disappeared" }, "geometry": { "type": "LineString", "coordinates": [ [ 144.770824868418202, -37.696260871008818 ], [ 144.770478546947913, -37.695862552418653 ], [ 144.77045205800718, -37.695690851739108 ], [ 144.770481085401912, -37.695619386543846 ] ] } },
{ "type": "Feature", "properties": { "gid": 413, "fclass": "residential", "length": 93.872945917333283, "status": "disappeared" }, "geometry": { "type": "LineString", "coordinates": [ [ 144.765665209271987, -37.669175837327792 ], [ 144.765182713471177, -37.669784255668475 ], [ 144.765144530991449, -37.669907197803902 ] ] } },
{ "type": "Feature", "properties": { "gid": 418, "fclass": "residential", "length": 30.345613839567875, "status": "disappeared" }, "geometry": { "type": "LineString", "coordinates": [ [ 144.785657345942184, -37.698050596187784 ], [ 144.785538458757003, -37.698064687582274 ], [ 144.78534061643245, -37.697981369250279 ] ] } },
{ "type": "Feature", "properties": { "gid": 430, "fclass": "residential", "length": 64.299891175696828, "status": "disappeared" }, "geometry": { "type": "LineString", "coordinates": [ [ 144.771800355834131, -37.697613045139953 ], [ 144.771779032314839, -37.697518597129665 ], [ 144.771456143524205, -37.697108882888365 ] ] } },
{ "type": "Feature", "properties": { "gid": 464, "fclass": "residential", "length": 31.907988799864825, "status": "disappeared" }, "geometry": { "type": "LineString", "coordinates": [ [ 144.776210964134663, -37.696774558979264 ], [ 144.776260166227019, -37.696577253549286 ], [ 144.776211776619164, -37.696499920738034 ] ] } },
{ "type": "Feature", "properties": { "gid": 574, "fclass": "trunk", "length": 2.5400000000372529, "status": "disappeared" }, "geometry": { "type": "LineString", "coordinates": [ [ 144.758012423123773, -37.693649483681448 ], [ 144.758012496333947, -37.693626597145915 ] ] } },
{ "type": "Feature", "properties": { "gid": 575, "fclass": "trunk", "length": 3.592609205897253, "status": "disappeared" }, "geometry": { "type": "LineString", "coordinates": [ [ 144.758012423123773, -37.693649483681448 ], [ 144.758041305933631, -37.693626655333887 ] ] } },
{ "type": "Feature", "properties": { "gid": 588, "fclass": "trunk", "length": 23.927653637165889, "status": "disappeared" }, "geometry": { "type": "LineString", "coordinates": [ [ 144.781276282737679, -37.688682029383031 ], [ 144.781205997697839, -37.688704787748676 ], [ 144.781173390391103, -37.688773388328286 ], [ 144.781074297458332, -37.688796093990412 ] ] } },
{ "type": "Feature", "properties": { "gid": 623, "fclass": "trunk", "length": 2.5407166127115488, "status": "disappeared" }, "geometry": { "type": "LineString", "coordinates": [ [ 144.761297007631072, -37.693564526341227 ], [ 144.761268198052534, -37.693564468936117 ] ] } },
{ "type": "Feature", "properties": { "gid": 678, "fclass": "trunk", "length": 2.5407166127115488, "status": "disappeared" }, "geometry": { "type": "LineString", "coordinates": [ [ 144.758012496333947, -37.693626597145915 ], [ 144.758041305933631, -37.693626655333887 ] ] } },
{ "type": "Feature", "properties": { "gid": 689, "fclass": "trunk", "length": 47.280902471428973, "status": "disappeared" }, "geometry": { "type": "LineString", "coordinates": [ [ 144.765317121507024, -37.669976196774101 ], [ 144.765298775086166, -37.670087734376025 ], [ 144.765114309629922, -37.670364876177089 ] ] } },
{ "type": "Feature", "properties": { "gid": 709, "fclass": "trunk", "length": 77.660022286779395, "status": "disappeared" }, "geometry": { "type": "LineString", "coordinates": [ [ 144.7800420750157, -37.687123472613486 ], [ 144.780287442501646, -37.686949411592821 ], [ 144.780359854692875, -37.686813654428043 ], [ 144.780446466707303, -37.686748013851236 ], [ 144.780562196708729, -37.686575145000255 ] ] } },
{ "type": "Feature", "properties": { "gid": 735, "fclass": "primary", "length": 2.5400000000372529, "status": "disappeared" }, "geometry": { "type": "LineString", "coordinates": [ [ 144.756602372376449, -37.693143120172039 ], [ 144.756602446012749, -37.693120233632932 ] ] } },
{ "type": "Feature", "properties": { "gid": 736, "fclass": "primary", "length": 2.5407166122458875, "status": "disappeared" }, "geometry": { "type": "LineString", "coordinates": [ [ 144.756602372376449, -37.693143120172039 ], [ 144.756573562962075, -37.693143061638025 ] ] } },
{ "type": "Feature", "properties": { "gid": 741, "fclass": "primary", "length": 29.206315763717253, "status": "disappeared" }, "geometry": { "type": "LineString", "coordinates": [ [ 144.788711344450803, -37.698056020880436 ], [ 144.7887978143211, -37.698043299612188 ], [ 144.788913534534743, -37.697873284250896 ] ] } },
{ "type": "Feature", "properties": { "gid": 742, "fclass": "primary", "length": 2.5407166122458875, "status": "disappeared" }, "geometry": { "type": "LineString", "coordinates": [ [ 144.786460448069533, -37.689126229932278 ], [ 144.786489255976051, -37.689126281279385 ] ] } },
{ "type": "Feature", "properties": { "gid": 743, "fclass": "primary", "length": 2.5407166122458875, "status": "disappeared" }, "geometry": { "type": "LineString", "coordinates": [ [ 144.786460448069533, -37.689126229932278 ], [ 144.786489255976051, -37.689126281279385 ] ] } },
{ "type": "Feature", "properties": { "gid": 744, "fclass": "primary", "length": 2.5400000000372529, "status": "disappeared" }, "geometry": { "type": "LineString", "coordinates": [ [ 144.786460448069533, -37.689126229932278 ], [ 144.786460383469745, -37.689149116523353 ] ] } },
{ "type": "Feature", "properties": { "gid": 758, "fclass": "primary", "length": 2.5400000000372529, "status": "disappeared" }, "geometry": { "type": "LineString", "coordinates": [ [ 144.770452643713242, -37.676508902719512 ], [ 144.770452713144067, -37.676486016028221 ] ] } },
{ "type": "Feature", "properties": { "gid": 761, "fclass": "primary", "length": 23.932409501816593, "status": "disappeared" }, "geometry": { "type": "LineString", "coordinates": [ [ 144.758707602082382, -37.683443405476851 ], [ 144.758597451660052, -37.683546174015724 ], [ 144.758505523718043, -37.683580318877823 ] ] } },
{ "type": "Feature", "properties": { "gid": 780, "fclass": "primary", "length": 3.5926092055679342, "status": "disappeared" }, "geometry": { "type": "LineString", "coordinates": [ [ 144.756573562962075, -37.693143061638025 ], [ 144.756602446012749, -37.693120233632932 ] ] } },
{ "type": "Feature", "properties": { "gid": 792, "fclass": "primary", "length": 24.04557173557307, "status": "disappeared" }, "geometry": { "type": "LineString", "coordinates": [ [ 144.757397366066073, -37.696783713568756 ], [ 144.757516366520008, -37.696735320329942 ], [ 144.757599481707246, -37.696646802723428 ] ] } },
{ "type": "Feature", "properties": { "gid": 794, "fclass": "primary", "length": 171.26940049561284, "status": "disappeared" }, "geometry": { "type": "LineString", "coordinates": [ [ 144.757042672443021, -37.690603590264793 ], [ 144.756427126760599, -37.690529388939041 ], [ 144.756060054653005, -37.690455690657608 ], [ 144.755736380543112, -37.690324862958704 ], [ 144.755390994959953, -37.690226889699709 ], [ 144.755229295360522, -37.690119277947957 ] ] } },
{ "type": "Feature", "properties": { "gid": 811, "fclass": "primary", "length": 27.35770192264447, "status": "disappeared" }, "geometry": { "type": "LineString", "coordinates": [ [ 144.760199261378943, -37.685414662434113 ], [ 144.760084761235646, -37.685185565623236 ] ] } },
{ "type": "Feature", "properties": { "gid": 869, "fclass": "primary", "length": 2.5407166127115488, "status": "disappeared" }, "geometry": { "type": "LineString", "coordinates": [ [ 144.790365957139898, -37.693596031439114 ], [ 144.790337147528675, -37.693595981024302 ] ] } },
{ "type": "Feature", "properties": { "gid": 885, "fclass": "primary", "length": 27.324377766413434, "status": "disappeared" }, "geometry": { "type": "LineString", "coordinates": [ [ 144.779959714039023, -37.685727230627229 ], [ 144.779849518403012, -37.685854335646681 ], [ 144.779757534789383, -37.685909952989505 ] ] } },
{ "type": "Feature", "properties": { "gid": 899, "fclass": "primary", "length": 10.475469176582482, "status": "disappeared" }, "geometry": { "type": "LineString", "coordinates": [ [ 144.790337147528675, -37.693595981024302 ], [ 144.790221845618532, -37.693618665850011 ] ] } },
{ "type": "Feature", "properties": { "gid": 904, "fclass": "primary", "length": 3.5926092055679342, "status": "disappeared" }, "geometry": { "type": "LineString", "coordinates": [ [ 144.786460383469745, -37.689149116523353 ], [ 144.786489255976051, -37.689126281279385 ] ] } },
{ "type": "Feature", "properties": { "gid": 942, "fclass": "primary", "length": 16.06844960050196, "status": "disappeared" }, "geometry": { "type": "LineString", "coordinates": [ [ 144.786489255976051, -37.689126281279385 ], [ 144.786662232493256, -37.689080816033766 ] ] } },
{ "type": "Feature", "properties": { "gid": 1006, "fclass": "tertiary", "length": 2.5400000000372529, "status": "disappeared" }, "geometry": { "type": "LineString", "coordinates": [ [ 144.756602372376449, -37.693143120172039 ], [ 144.756602446012749, -37.693120233632932 ] ] } },
{ "type": "Feature", "properties": { "gid": 1007, "fclass": "tertiary", "length": 2.5407166122458875, "status": "disappeared" }, "geometry": { "type": "LineString", "coordinates": [ [ 144.756602372376449, -37.693143120172039 ], [ 144.756573562962075, -37.693143061638025 ] ] } },
{ "type": "Feature", "properties": { "gid": 1030, "fclass": "tertiary", "length": 45.391062877982392, "status": "disappeared" }, "geometry": { "type": "LineString", "coordinates": [ [ 144.770246292788187, -37.697037908979418 ], [ 144.770066702883298, -37.696880218752533 ], [ 144.769988038471666, -37.696694113735262 ] ] } },
{ "type": "Feature", "properties": { "gid": 1044, "fclass": "tertiary", "length": 3.5926092055679342, "status": "disappeared" }, "geometry": { "type": "LineString", "coordinates": [ [ 144.756573562962075, -37.693143061638025 ], [ 144.756602446012749, -37.693120233632932 ] ] } },
{ "type": "Feature", "properties": { "gid": 1057, "fclass": "tertiary", "length": 29.666332690017132, "status": "disappeared" }, "geometry": { "type": "LineString", "coordinates": [ [ 144.757397366066073, -37.696783713568756 ], [ 144.757516366520008, -37.696735320329942 ], [ 144.757628439115422, -37.696601087992128 ] ] } },
{ "type": "Feature", "properties": { "gid": 1059, "fclass": "tertiary", "length": 174.66367473819236, "status": "disappeared" }, "geometry": { "type": "LineString", "coordinates": [ [ 144.757042672443021, -37.690603590264793 ], [ 144.756427126760599, -37.690529388939041 ], [ 144.755995309591611, -37.690432672090616 ], [ 144.755369421110601, -37.690216832709702 ], [ 144.75520056115613, -37.690096332519119 ] ] } },
{ "type": "Feature", "properties": { "gid": 1071, "fclass": "tertiary", "length": 10.162866449449211, "status": "disappeared" }, "geometry": { "type": "LineString", "coordinates": [ [ 144.790308274478008, -37.693618817156796 ], [ 144.790193035998783, -37.693618615400545 ] ] } },
{ "type": "Feature", "properties": { "gid": 1072, "fclass": "tertiary", "length": 2.5407166122458875, "status": "disappeared" }, "geometry": { "type": "LineString", "coordinates": [ [ 144.790308274478008, -37.693618817156796 ], [ 144.790337084097899, -37.693618867578586 ] ] } },
{ "type": "Feature", "properties": { "gid": 1173, "fclass": "tertiary", "length": 30.894653551845494, "status": "disappeared" }, "geometry": { "type": "LineString", "coordinates": [ [ 144.758505523718043, -37.683580318877823 ], [ 144.758666034162957, -37.683493386549863 ], [ 144.758765359472875, -37.683397748262678 ] ] } },
{ "type": "Feature", "properties": { "gid": 1207, "fclass": "tertiary", "length": 39.891606662456617, "status": "disappeared" }, "geometry": { "type": "LineString", "coordinates": [ [ 144.760113712755413, -37.68513985009222 ], [ 144.760190286559521, -37.685406061935083 ], [ 144.760141430755766, -37.685483206912615 ] ] } },
{ "type": "Feature", "properties": { "gid": 1210, "fclass": "tertiary", "length": 31.533392366614379, "status": "disappeared" }, "geometry": { "type": "LineString", "coordinates": [ [ 144.786691169442491, -37.689035094148657 ], [ 144.786550496992163, -37.689117807897347 ], [ 144.786374153602111, -37.689080302666667 ] ] } },
{ "type": "Feature", "properties": { "gid": 1283, "fclass": "unclassified", "length": 189.30379762504398, "status": "disappeared" }, "geometry": { "type": "LineString", "coordinates": [ [ 144.772612433589586, -37.695829430595673 ], [ 144.772774299019972, -37.695894106415409 ], [ 144.773938776493452, -37.696681607499613 ], [ 144.774003395611999, -37.696750389350086 ], [ 144.774024490947085, -37.69692207898607 ], [ 144.774078280631926, -37.696999422854866 ] ] } },
{ "type": "Feature", "properties": { "gid": 1312, "fclass": "unclassified", "length": 108.8268020533243, "status": "disappeared" }, "geometry": { "type": "LineString", "coordinates": [ [ 144.778449371740777, -37.68995849035182 ], [ 144.778223527591621, -37.6902241303859 ], [ 144.777698071546212, -37.690735246383042 ] ] } },
{ "type": "Feature", "properties": { "gid": 1337, "fclass": "unclassified", "length": 184.69669112355467, "status": "disappeared" }, "geometry": { "type": "LineString", "coordinates": [ [ 144.780735323540256, -37.69641673820621 ], [ 144.78046530230057, -37.696389065836456 ], [ 144.780011812988761, -37.696292396178521 ], [ 144.779061663784859, -37.696084667936681 ], [ 144.778719848123814, -37.695978186346913 ] ] } },
{ "type": "Feature", "properties": { "gid": 1344, "fclass": "unclassified", "length": 133.25266410865871, "status": "disappeared" }, "geometry": { "type": "LineString", "coordinates": [ [ 144.759712436809565, -37.675435043456375 ], [ 144.759831293244616, -37.675420977568749 ], [ 144.760457226030269, -37.675588160621288 ], [ 144.76109359229352, -37.675872656231391 ] ] } },
{ "type": "Feature", "properties": { "gid": 1353, "fclass": "unclassified", "length": 130.76320417154972, "status": "disappeared" }, "geometry": { "type": "LineString", "coordinates": [ [ 144.773010972665588, -37.69743225172757 ], [ 144.772293796358781, -37.696400991751439 ] ] } },
{ "type": "Feature", "properties": { "gid": 1375, "fclass": "unclassified", "length": 123.70183486032093, "status": "disappeared" }, "geometry": { "type": "LineString", "coordinates": [ [ 144.763571605433356, -37.694003883666234 ], [ 144.763691835377983, -37.692982802722298 ], [ 144.763747894736809, -37.692905670719568 ] ] } },
{ "type": "Feature", "properties": { "gid": 1446, "fclass": "unclassified", "length": 143.05067207658902, "status": "disappeared" }, "geometry": { "type": "LineString", "coordinates": [ [ 144.77652267687003, -37.698537411902763 ], [ 144.776187942290335, -37.698469557600291 ], [ 144.775993816532718, -37.698350470410944 ], [ 144.775869088941818, -37.697903947790657 ], [ 144.775978173197359, -37.697552269759051 ] ] } },
{ "type": "Feature", "properties": { "gid": 1492, "fclass": "unclassified", "length": 78.875311851567147, "status": "disappeared" }, "geometry": { "type": "LineString", "coordinates": [ [ 144.762275670282037, -37.693841112443131 ], [ 144.762335150131463, -37.693249037565458 ], [ 144.762421874996875, -37.693154802004351 ] ] } },
{ "type": "Feature", "properties": { "gid": 1515, "fclass": "unclassified", "length": 44.371051614148527, "status": "disappeared" }, "geometry": { "type": "LineString", "coordinates": [ [ 144.775811750282458, -37.695377726876558 ], [ 144.77630125432924, -37.695470188488699 ] ] } },
{ "type": "Feature", "properties": { "gid": 1523, "fclass": "unclassified", "length": 189.41481738403078, "status": "disappeared" }, "geometry": { "type": "LineString", "coordinates": [ [ 144.781054691946792, -37.695570516234312 ], [ 144.780374499944202, -37.69541335593285 ], [ 144.779143335888676, -37.695248025255694 ], [ 144.778952472277666, -37.695246242841314 ] ] } },
{ "type": "Feature", "properties": { "gid": 1539, "fclass": "unclassified", "length": 103.05579850618598, "status": "disappeared" }, "geometry": { "type": "LineString", "coordinates": [ [ 144.766122194400168, -37.670412622363045 ], [ 144.765358309474465, -37.670044938124498 ], [ 144.765144530991449, -37.669907197803902 ] ] } },
{ "type": "Feature", "properties": { "gid": 1546, "fclass": "unclassified", "length": 256.68288109583244, "status": "disappeared" }, "geometry": { "type": "LineString", "coordinates": [ [ 144.76514460202165, -37.669884311059178 ], [ 144.765282123470257, -37.669652850943898 ], [ 144.765598298431968, -37.669275836530439 ], [ 144.765694443605923, -37.669035712321111 ], [ 144.765655693768537, -37.668760993797775 ], [ 144.765468076017328, -37.668314332072882 ], [ 144.765254834687539, -37.668004941157605 ], [ 144.765208807152419, -37.667755955879819 ] ] } },
{ "type": "Feature", "properties": { "gid": 1549, "fclass": "unclassified", "length": 351.33051337750442, "status": "disappeared" }, "geometry": { "type": "LineString", "coordinates": [ [ 144.761122395135885, -37.675872713678842 ], [ 144.761416644953016, -37.675612962403854 ], [ 144.763439276740741, -37.673557158241358 ], [ 144.763578431430062, -37.673382920741034 ] ] } },
{ "type": "Feature", "properties": { "gid": 1553, "fclass": "unclassified", "length": 409.3707180017235, "status": "disappeared" }, "geometry": { "type": "LineString", "coordinates": [ [ 144.794022016528771, -37.684035730391351 ], [ 144.793666010731044, -37.683863467099449 ], [ 144.791573864495518, -37.682595351927482 ], [ 144.791293382522923, -37.68246040384377 ], [ 144.791185374222835, -37.682455924340907 ], [ 144.791100604422098, -37.682511563018132 ], [ 144.790481227135587, -37.683182779791956 ] ] } }
]
}
