{
"type": "FeatureCollection",
"crs": { "type": "name", "properties": { "name": "urn:ogc:def:crs:OGC:1.3:CRS84" } },
"features": [
{ "type": "Feature", "properties": { "gid": 10789, "osm_id": "136602591", "code": 5121.0, "fclass": "unclassified", "name": "Operations Road", "pixel_count": 97, "Var_line": 36.301483154296875, "Edge_contrast": 32.307331085205078, "ROI": 1677.8333333333335, "Road_detected": -1, "ROI_norm": -0.8490571332040221, "Pred": 0 }, "geometry": { "type": "LineString", "coordinates": [ [ 144.855342431299505, -37.690070270697653 ], [ 144.855215831272659, -37.690023970706548 ], [ 144.855073731244204, -37.689987970716409 ], [ 144.854934231217101, -37.689960370726048 ] ] } },
{ "type": "Feature", "properties": { "gid": 10827, "osm_id": "220821957", "code": 5121.0, "fclass": "unclassified", "name": null, "pixel_count": 181, "Var_line": 62.340805053710938, "Edge_contrast": 34.726345062255859, "ROI": 3914.6666666666661, "Road_detected": -1, "ROI_norm": -0.66432238580334224, "Pred": 0 }, "geometry": { "type": "LineString", "coordinates": [ [ 144.855315931287208, -37.689998470699898 ], [ 144.85532683128514, -37.689961570699388 ], [ 144.855352731286189, -37.689929670697829 ], [ 144.855385131289552, -37.689908970695761 ], [ 144.855440831297642, -37.689894370692059 ], [ 144.855499331308238, -37.689899070688064 ], [ 144.85555023131954, -37.689922170684468 ], [ 144.855572331325476, -37.689942070682875 ], [ 144.855590031331616, -37.689970570681439 ], [ 144.85559693133618, -37.690001970680804 ], [ 144.85559223133879, -37.69003357068091 ], [ 144.85557653133921, -37.690062770681841 ], [ 144.855546131336951, -37.690090670683702 ], [ 144.855496931330691, -37.690111570686902 ], [ 144.855441331321487, -37.690115670690652 ], [ 144.855388131310917, -37.690102370694355 ], [ 144.855363031305018, -37.690088270696151 ], [ 144.855342431299505, -37.690070270697653 ], [ 144.855321331292231, -37.690036170699322 ], [ 144.855315931287208, -37.689998470699898 ] ] } },
{ "type": "Feature", "properties": { "gid": 10843, "osm_id": "292140418", "code": 5121.0, "fclass": "unclassified", "name": "Sky Road", "pixel_count": 100, "Var_line": 0.0, "Edge_contrast": 9.0466470718383789, "ROI": 1392.6666666666663, "Road_detected": -1, "ROI_norm": -0.87260837028043703, "Pred": 0 }, "geometry": { "type": "LineString", "coordinates": [ [ 144.858823732731366, -37.697784870413294 ], [ 144.860808433057684, -37.697626970279472 ], [ 144.862376333311914, -37.697468670173947 ], [ 144.862710733365645, -37.697430970151515 ] ] } },
{ "type": "Feature", "properties": { "gid": 21828, "osm_id": "25291450", "code": 5115.0, "fclass": "tertiary", "name": "Fawkner Street", "pixel_count": 245, "Var_line": 25.284364700317383, "Edge_contrast": 40.412887573242188, "ROI": 19553.333333333336, "Road_detected": -1, "ROI_norm": 0.62723791656612349, "Pred": 0 }, "geometry": { "type": "LineString", "coordinates": [ [ 144.884972735089264, -37.677683568760877 ], [ 144.885238835119878, -37.677540968743649 ], [ 144.885339435132522, -37.677496568737077 ], [ 144.885508835153729, -37.677421668725991 ], [ 144.885899735202656, -37.677248868700488 ], [ 144.886861635320059, -37.676795568637885 ], [ 144.887022835339138, -37.676713668627436 ], [ 144.887161735355932, -37.67664676861839 ], [ 144.887290135371273, -37.67658306861005 ], [ 144.887429335388276, -37.676517668601029 ] ] } },
{ "type": "Feature", "properties": { "gid": 21850, "osm_id": "136573280", "code": 5113.0, "fclass": "primary", "name": "Mickleham Road", "pixel_count": 200, "Var_line": 146.17906188964844, "Edge_contrast": 58.511985778808594, "ROI": 25508.833333333332, "Road_detected": -1, "ROI_norm": 1.119088503621372, "Pred": 0 }, "geometry": { "type": "LineString", "coordinates": [ [ 144.885369234194457, -37.668736368789524 ], [ 144.885368634159221, -37.668410068791566 ], [ 144.88534623411914, -37.668073768795246 ], [ 144.885310534074392, -37.667715668799865 ], [ 144.885272334039399, -37.667451768804099 ], [ 144.885150133947235, -37.666791668816515 ], [ 144.884938933784923, -37.66562316883816 ], [ 144.884910533764781, -37.665481168840969 ] ] } },
{ "type": "Feature", "properties": { "gid": 61792, "osm_id": "691595830", "code": 5122.0, "fclass": "residential", "name": null, "pixel_count": 73, "Var_line": 109.28346252441406, "Edge_contrast": 36.055828094482422, "ROI": 3213.333333333333, "Road_detected": -1, "ROI_norm": -0.72224383853131058, "Pred": 0 }, "geometry": { "type": "LineString", "coordinates": [ [ 144.883834535046589, -37.679114068829342 ], [ 144.883832535037811, -37.679035968829986 ], [ 144.883820435031396, -37.678995668831114 ], [ 144.883796335024016, -37.678965868832911 ], [ 144.883761035015226, -37.678940568835479 ] ] } },
{ "type": "Feature", "properties": { "gid": 68024, "osm_id": "755961999", "code": 5113.0, "fclass": "primary", "name": "Mickleham Road", "pixel_count": 90, "Var_line": 64.790489196777344, "Edge_contrast": 3.352348804473877, "ROI": 7184.166666666667, "Road_detected": -1, "ROI_norm": -0.39430215334978902, "Pred": 0 }, "geometry": { "type": "LineString", "coordinates": [ [ 144.882009232206883, -37.655661769099375 ], [ 144.881921932173782, -37.655494469106365 ], [ 144.881662132076542, -37.655007469127057 ], [ 144.881552332035056, -37.65479836913584 ], [ 144.881512032019856, -37.654721669139043 ], [ 144.881162931896824, -37.654138469166419 ], [ 144.880285031597339, -37.65276376923466 ], [ 144.879991431498041, -37.652311969257461 ], [ 144.879754231414864, -37.651919469275995 ], [ 144.879654431376764, -37.651725269284 ], [ 144.879576131344209, -37.651548569290384 ], [ 144.879527931321491, -37.651414469294551 ], [ 144.879459331286199, -37.651196869300556 ], [ 144.879428431265836, -37.651056869303538 ] ] } },
{ "type": "Feature", "properties": { "gid": 81127, "osm_id": "47160741", "code": 5115.0, "fclass": "tertiary", "name": "Fawkner Street", "pixel_count": 25, "Var_line": 38.896167755126953, "Edge_contrast": 37.208385467529297, "ROI": 2119.666666666667, "Road_detected": -1, "ROI_norm": -0.81256716856955347, "Pred": 0 }, "geometry": { "type": "LineString", "coordinates": [ [ 144.887429335388276, -37.676517668601029 ], [ 144.887586035406628, -37.676436468590808 ] ] } },
{ "type": "Feature", "properties": { "gid": 163986, "osm_id": "25802031", "code": 5113.0, "fclass": "primary", "name": "Mickleham Road", "pixel_count": 100, "Var_line": 79.7139892578125, "Edge_contrast": 18.553997039794922, "ROI": 23712.166666666668, "Road_detected": -1, "ROI_norm": 0.97070607481730931, "Pred": 0 }, "geometry": { "type": "LineString", "coordinates": [ [ 144.882855632540526, -37.657403969030995 ], [ 144.882200732282087, -37.656052769083949 ], [ 144.88208843223768, -37.655820969093028 ], [ 144.882009232206883, -37.655661769099375 ] ] } },
{ "type": "Feature", "properties": { "gid": 165422, "osm_id": "27591301", "code": 5121.0, "fclass": "unclassified", "name": "Trade Park Drive", "pixel_count": 125, "Var_line": 54.937892913818359, "Edge_contrast": 37.614650726318359, "ROI": 5897.5, "Road_detected": -1, "ROI_norm": -0.50056489457125153, "Pred": 0 }, "geometry": { "type": "LineString", "coordinates": [ [ 144.874608335116221, -37.694575769360739 ], [ 144.87479713513352, -37.694433169348734 ], [ 144.875119035169234, -37.694247669328007 ], [ 144.8752786351873, -37.694159469317675 ], [ 144.875397235200808, -37.694094069310047 ] ] } },
{ "type": "Feature", "properties": { "gid": 165470, "osm_id": "38744297", "code": 5122.0, "fclass": "residential", "name": "Goodwood Crescent", "pixel_count": 20, "Var_line": 88.72137451171875, "Edge_contrast": 35.504951477050781, "ROI": 1376.1666666666667, "Road_detected": -1, "ROI_norm": -0.87397106605516817, "Pred": 0 }, "geometry": { "type": "LineString", "coordinates": [ [ 144.887436236794542, -37.689562068519415 ], [ 144.887748836831634, -37.68940486849916 ], [ 144.887925036856785, -37.689355368487462 ], [ 144.888151736895992, -37.68935536847205 ], [ 144.888325136931059, -37.689402868459958 ], [ 144.888505136972981, -37.68950306844706 ], [ 144.889698137363808, -37.691215668355248 ] ] } },
{ "type": "Feature", "properties": { "gid": 165603, "osm_id": "333195342", "code": 5122.0, "fclass": "residential", "name": "Rosto Court", "pixel_count": 50, "Var_line": 19.687509536743164, "Edge_contrast": 23.253135681152344, "ROI": 6418.9999999999991, "Road_detected": -1, "ROI_norm": -0.45749544932747493, "Pred": 0 }, "geometry": { "type": "LineString", "coordinates": [ [ 144.88043493588296, -37.692338468978392 ], [ 144.880640835804769, -37.691281968970976 ] ] } },
{ "type": "Feature", "properties": { "gid": 166754, "osm_id": "136593613", "code": 5121.0, "fclass": "unclassified", "name": "Reid Way", "pixel_count": 155, "Var_line": 4.4448351860046387, "Edge_contrast": 6.6219244003295898, "ROI": 11310.333333333332, "Road_detected": -1, "ROI_norm": -0.053531857440495281, "Pred": 0 }, "geometry": { "type": "LineString", "coordinates": [ [ 144.850962130945902, -37.693827470971719 ], [ 144.850958030957315, -37.69394007097128 ], [ 144.850958030970446, -37.694062370970506 ], [ 144.8509824309902, -37.69420707096797 ], [ 144.851262231207045, -37.695773570939245 ], [ 144.851588131445766, -37.6974690709066 ], [ 144.851588031446454, -37.697476070906532 ] ] } },
{ "type": "Feature", "properties": { "gid": 166813, "osm_id": "245242753", "code": 5121.0, "fclass": "unclassified", "name": "Sky Road", "pixel_count": 175, "Var_line": 21.99894905090332, "Edge_contrast": 3.1216704845428467, "ROI": 3442.3333333333335, "Road_detected": -1, "ROI_norm": -0.70333127293049569, "Pred": 0 }, "geometry": { "type": "LineString", "coordinates": [ [ 144.858823732731366, -37.697784870413294 ], [ 144.858571832693997, -37.697842670430049 ], [ 144.858037432606494, -37.697888570466056 ], [ 144.857551932526832, -37.697928970498779 ], [ 144.857372232498506, -37.697954370510843 ], [ 144.857230132477355, -37.697986270520289 ], [ 144.8570932324605, -37.698049970529176 ] ] } },
{ "type": "Feature", "properties": { "gid": 183238, "osm_id": "16450865", "code": 5121.0, "fclass": "unclassified", "name": "Centre Road", "pixel_count": 96, "Var_line": 67.045455932617188, "Edge_contrast": 30.506998062133789, "ROI": 4004.3333333333326, "Road_detected": -1, "ROI_norm": -0.65691702896692439, "Pred": 0 }, "geometry": { "type": "LineString", "coordinates": [ [ 144.852551029408971, -37.676973270968588 ], [ 144.852541529414992, -37.677044770968791 ], [ 144.852519129416208, -37.677091870969996 ], [ 144.85250642941881, -37.677136570970596 ], [ 144.852490029422, -37.677192570971336 ], [ 144.852470529427251, -37.677272870972232 ] ] } },
{ "type": "Feature", "properties": { "gid": 183327, "osm_id": "245242756", "code": 5121.0, "fclass": "unclassified", "name": "Sky Road", "pixel_count": 175, "Var_line": 20.05506706237793, "Edge_contrast": 18.009862899780273, "ROI": 3682.0, "Road_detected": -1, "ROI_norm": -0.68353777268743054, "Pred": 0 }, "geometry": { "type": "LineString", "coordinates": [ [ 144.857074232432097, -37.697815970531877 ], [ 144.857211332458576, -37.697841970522461 ], [ 144.857364232486162, -37.697852570512012 ], [ 144.857541232516098, -37.697846170500043 ], [ 144.858032032598032, -37.697818570466865 ], [ 144.858564632686068, -37.697780370430927 ], [ 144.858823732731366, -37.697784870413294 ] ] } },
{ "type": "Feature", "properties": { "gid": 183351, "osm_id": "292140448", "code": 5115.0, "fclass": "tertiary", "name": "Watson Drive", "pixel_count": 68, "Var_line": 48.391036987304688, "Edge_contrast": 13.892315864562988, "ROI": 610.83333333333326, "Road_detected": -1, "ROI_norm": -0.93717812663663913, "Pred": 0 }, "geometry": { "type": "LineString", "coordinates": [ [ 144.869024033414689, -37.687739469782748 ], [ 144.868901833403072, -37.687827869790489 ], [ 144.868835533396066, -37.687869169794745 ] ] } },
{ "type": "Feature", "properties": { "gid": 190506, "osm_id": "96025294", "code": 5121.0, "fclass": "unclassified", "name": "Quarry Road", "pixel_count": 199, "Var_line": 78.730209350585938, "Edge_contrast": 15.755642890930176, "ROI": 9604.8333333333321, "Road_detected": -1, "ROI_norm": -0.19438504797407383, "Pred": 0 }, "geometry": { "type": "LineString", "coordinates": [ [ 144.856130329221457, -37.669472270772175 ], [ 144.856181929265148, -37.669795570766674 ], [ 144.856197429274886, -37.669861370765211 ], [ 144.856222129286692, -37.669931470763089 ], [ 144.85625412929906, -37.669995270760474 ], [ 144.856294629312686, -37.670056770757412 ], [ 144.856364729332057, -37.67012437075222 ], [ 144.856446929352813, -37.670185470746304 ], [ 144.856521629369809, -37.670223370740949 ], [ 144.856671229402195, -37.670284170730405 ] ] } },
{ "type": "Feature", "properties": { "gid": 190674, "osm_id": "25466931", "code": 5121.0, "fclass": "unclassified", "name": "Landside Drive", "pixel_count": 95, "Var_line": 47.421600341796875, "Edge_contrast": 14.982531547546387, "ROI": 5568.333333333333, "Road_detected": -1, "ROI_norm": -0.52774998704694964, "Pred": 0 }, "geometry": { "type": "LineString", "coordinates": [ [ 144.852304629365847, -37.676968070985353 ], [ 144.852224229351009, -37.676959470990823 ], [ 144.852171429341325, -37.676954470994467 ], [ 144.852097229328422, -37.676953570999515 ], [ 144.852001629312241, -37.676956971005978 ], [ 144.851911329297366, -37.676963671012004 ] ] } },
{ "type": "Feature", "properties": { "gid": 190687, "osm_id": "354721169", "code": 5115.0, "fclass": "tertiary", "name": "Departure Drive", "pixel_count": 50, "Var_line": 67.679481506347656, "Edge_contrast": 31.86082649230957, "ROI": 4023.0, "Road_detected": -1, "ROI_norm": -0.65537539334298589, "Pred": 0 }, "geometry": { "type": "LineString", "coordinates": [ [ 144.851766228837477, -37.672917371047085 ], [ 144.851565728794242, -37.672837471061186 ] ] } },
{ "type": "Feature", "properties": { "gid": 192659, "osm_id": "577265135", "code": 5113.0, "fclass": "primary", "name": "Mickleham Road", "pixel_count": 50, "Var_line": 117.67929077148438, "Edge_contrast": 35.879371643066406, "ROI": 8346.6666666666661, "Road_detected": -1, "ROI_norm": -0.29829404194827336, "Pred": 0 }, "geometry": { "type": "LineString", "coordinates": [ [ 144.885342234299742, -37.669757568785016 ], [ 144.885366034209994, -37.668885968788814 ] ] } },
{ "type": "Feature", "properties": { "gid": 192765, "osm_id": "24821196", "code": 5122.0, "fclass": "residential", "name": "Lyndhurst Road", "pixel_count": 25, "Var_line": 52.079204559326172, "Edge_contrast": 20.447868347167969, "ROI": 10125.0, "Road_detected": -1, "ROI_norm": -0.15142571956057829, "Pred": 0 }, "geometry": { "type": "LineString", "coordinates": [ [ 144.891131836593132, -37.681762468316471 ], [ 144.891088336569538, -37.681612968320337 ], [ 144.890952636531381, -37.681476668330419 ], [ 144.8908059364976, -37.681398568340889 ], [ 144.890669936469067, -37.681352068350478 ], [ 144.890304436401806, -37.681313668375537 ], [ 144.889376236233943, -37.681244968439138 ], [ 144.888584636090741, -37.681185568493376 ], [ 144.88839613606217, -37.681222868505955 ], [ 144.888300236049247, -37.681257268512283 ], [ 144.888216236038005, -37.681287268517799 ], [ 144.88804493601944, -37.681389768528817 ], [ 144.887167736017147, -37.682776268579858 ] ] } },
{ "type": "Feature", "properties": { "gid": 192773, "osm_id": "24821303", "code": 5115.0, "fclass": "tertiary", "name": "Rylandes Drive", "pixel_count": 190, "Var_line": 31.87141227722168, "Edge_contrast": 39.459625244140625, "ROI": 23535.166666666668, "Road_detected": -1, "ROI_norm": 0.95608806559746562, "Pred": 0 }, "geometry": { "type": "LineString", "coordinates": [ [ 144.886816136223985, -37.685260768588343 ], [ 144.886742236203361, -37.685187868593829 ], [ 144.886613236171883, -37.685102768603137 ], [ 144.886194736075623, -37.684880968632946 ], [ 144.885991536032066, -37.684802368647347 ], [ 144.885884936010655, -37.684775168654767 ], [ 144.885050535856067, -37.684678868712076 ], [ 144.884384835733243, -37.684606868757839 ] ] } },
{ "type": "Feature", "properties": { "gid": 192804, "osm_id": "25291460", "code": 5113.0, "fclass": "primary", "name": "Mickleham Road", "pixel_count": 50, "Var_line": 149.94610595703125, "Edge_contrast": 60.340469360351562, "ROI": 6333.8333333333339, "Road_detected": -1, "ROI_norm": -0.46452916186169335, "Pred": 0 }, "geometry": { "type": "LineString", "coordinates": [ [ 144.88465783474075, -37.674951968799263 ], [ 144.88471403471658, -37.674637668797402 ] ] } },
{ "type": "Feature", "properties": { "gid": 196068, "osm_id": "569032378", "code": 5113.0, "fclass": "primary", "name": "Centre Road", "pixel_count": 70, "Var_line": 82.460174560546875, "Edge_contrast": 39.997631072998047, "ROI": 7983.5, "Road_detected": -1, "ROI_norm": -0.32828711359614465, "Pred": 0 }, "geometry": { "type": "LineString", "coordinates": [ [ 144.853963728865921, -37.669647770918225 ], [ 144.854148228898794, -37.669656870905655 ], [ 144.854264128918715, -37.669655770897762 ] ] } },
{ "type": "Feature", "properties": { "gid": 196082, "osm_id": "780343862", "code": 5113.0, "fclass": "primary", "name": "Centre Road", "pixel_count": 100, "Var_line": 121.92848205566406, "Edge_contrast": 17.618764877319336, "ROI": 16721.0, "Road_detected": -1, "ROI_norm": 0.39332223984105408, "Pred": 0 }, "geometry": { "type": "LineString", "coordinates": [ [ 144.852474028843886, -37.67183827100574 ], [ 144.852694228831268, -37.671366870993694 ], [ 144.852975428815085, -37.670764170978366 ], [ 144.853078528809306, -37.670544670972731 ] ] } },
{ "type": "Feature", "properties": { "gid": 196097, "osm_id": "5136662", "code": 5115.0, "fclass": "tertiary", "name": "Arrival Drive", "pixel_count": 315, "Var_line": 43.259712219238281, "Edge_contrast": 12.094136238098145, "ROI": 23373.5, "Road_detected": -1, "ROI_norm": 0.94273639992585689, "Pred": 0 }, "geometry": { "type": "LineString", "coordinates": [ [ 144.85020142825428, -37.670006471171384 ], [ 144.850350428265614, -37.669871971162117 ], [ 144.850363928266802, -37.669861371161275 ], [ 144.850400928270062, -37.669832171158923 ], [ 144.850438228273759, -37.669806671156572 ], [ 144.850478628278069, -37.669781971153974 ], [ 144.850529728284272, -37.669757471150668 ], [ 144.850635028298058, -37.669716471143779 ], [ 144.850679428304204, -37.669701871140845 ], [ 144.850923228337905, -37.669623571124752 ], [ 144.851024528352553, -37.669596971118089 ], [ 144.85115042837117, -37.669567871109678 ], [ 144.851249228386678, -37.669553371103078 ], [ 144.852248728545817, -37.669426771036072 ], [ 144.85264562860695, -37.669357571009549 ], [ 144.852793528630656, -37.669340070999596 ], [ 144.852893828647211, -37.669333270992787 ] ] } },
{ "type": "Feature", "properties": { "gid": 196283, "osm_id": "787883361", "code": 5113.0, "fclass": "primary", "name": "Airport Drive", "pixel_count": 84, "Var_line": 24.97210693359375, "Edge_contrast": 22.532569885253906, "ROI": 4854.666666666667, "Road_detected": -1, "ROI_norm": -0.58669002045501983, "Pred": 0 }, "geometry": { "type": "LineString", "coordinates": [ [ 144.860343930975546, -37.679015270426689 ], [ 144.860379830985607, -37.679050770424034 ], [ 144.860456931007064, -37.679126570418319 ], [ 144.860936831140663, -37.679597370382808 ] ] } },
{ "type": "Feature", "properties": { "gid": 196288, "osm_id": "5137120", "code": 5111.0, "fclass": "motorway", "name": "Tullamarine Freeway", "pixel_count": 75, "Var_line": 72.861213684082031, "Edge_contrast": 10.277558326721191, "ROI": 20862.0, "Road_detected": -1, "ROI_norm": 0.73531758548722748, "Pred": 0 }, "geometry": { "type": "LineString", "coordinates": [ [ 144.8615619308313, -37.675715270364492 ], [ 144.863416031238842, -37.676525070233488 ], [ 144.863881531341264, -37.676729470200598 ] ] } },
{ "type": "Feature", "properties": { "gid": 204317, "osm_id": "784400689", "code": 5113.0, "fclass": "primary", "name": "Airport Drive", "pixel_count": 150, "Var_line": 24.070112228393555, "Edge_contrast": 14.382650375366211, "ROI": 5953.5, "Road_detected": -1, "ROI_norm": -0.4959399876994367, "Pred": 0 }, "geometry": { "type": "LineString", "coordinates": [ [ 144.867632535111142, -37.705737369765473 ], [ 144.867681635074462, -37.70531766976476 ], [ 144.86771483503253, -37.704874869765213 ], [ 144.867734834982542, -37.704378469766965 ], [ 144.867724534938617, -37.703986969770135 ], [ 144.867687934883378, -37.703532469775389 ], [ 144.867638434832458, -37.703139269781211 ], [ 144.867582734779404, -37.702735769787481 ], [ 144.867485034693772, -37.702097269798145 ], [ 144.867180534429821, -37.700134269830976 ], [ 144.867126134372882, -37.699692869837413 ], [ 144.867040034278176, -37.698951569847935 ], [ 144.866925634184668, -37.698266569859932 ], [ 144.866864334127939, -37.697837969866725 ], [ 144.866746234020553, -37.697029869879863 ], [ 144.866697533977685, -37.696709969885084 ], [ 144.86662883391395, -37.696227769892737 ], [ 144.866363233680858, -37.694488769921605 ] ] } },
{ "type": "Feature", "properties": { "gid": 204383, "osm_id": "27591223", "code": 5121.0, "fclass": "unclassified", "name": "Aviation Place", "pixel_count": 50, "Var_line": 22.58544921875, "Edge_contrast": 40.252689361572266, "ROI": 7497.5, "Road_detected": -1, "ROI_norm": -0.36842469823368157, "Pred": 0 }, "geometry": { "type": "LineString", "coordinates": [ [ 144.872306534754387, -37.69491246951506 ], [ 144.872127834831986, -37.695920569520943 ] ] } },
{ "type": "Feature", "properties": { "gid": 211475, "osm_id": "553729219", "code": 5122.0, "fclass": "residential", "name": "Hillcrest Drive", "pixel_count": 80, "Var_line": 131.92958068847656, "Edge_contrast": 16.172954559326172, "ROI": 6746.1666666666661, "Road_detected": -1, "ROI_norm": -0.43047553209719885, "Pred": 0 }, "geometry": { "type": "LineString", "coordinates": [ [ 144.883333835127416, -37.68066846885376 ], [ 144.883406235139233, -37.680661668848899 ], [ 144.88345823514743, -37.680654668845399 ], [ 144.883514635156274, -37.680646068841625 ], [ 144.883550735161151, -37.680633468839297 ], [ 144.883590635164978, -37.680605068836734 ] ] } },
{ "type": "Feature", "properties": { "gid": 211476, "osm_id": "553729220", "code": 5122.0, "fclass": "residential", "name": "Hillcrest Drive", "pixel_count": 90, "Var_line": 102.21253204345703, "Edge_contrast": 35.957809448242188, "ROI": 6937.5, "Road_detected": -1, "ROI_norm": -0.414673766951831, "Pred": 0 }, "geometry": { "type": "LineString", "coordinates": [ [ 144.883550235182355, -37.680831668838032 ], [ 144.883515835170954, -37.680780568840653 ], [ 144.883484535161841, -37.680746368843032 ], [ 144.883439935151074, -37.680717768846257 ], [ 144.88338893513955, -37.680692468849898 ], [ 144.883333835127416, -37.68066846885376 ] ] } },
{ "type": "Feature", "properties": { "gid": 211508, "osm_id": "27591304", "code": 5121.0, "fclass": "unclassified", "name": null, "pixel_count": 114, "Var_line": 66.582099914550781, "Edge_contrast": 31.718807220458984, "ROI": 6392.3333333333321, "Road_detected": -1, "ROI_norm": -0.45969778593310112, "Pred": 0 }, "geometry": { "type": "LineString", "coordinates": [ [ 144.875918235353197, -37.694672769271016 ], [ 144.875509535249478, -37.694365269300697 ], [ 144.875451235236852, -37.694342169304846 ], [ 144.875406535227228, -37.694324469307972 ], [ 144.875303535207905, -37.694310869315039 ], [ 144.875146135182547, -37.69432776932566 ] ] } },
{ "type": "Feature", "properties": { "gid": 211694, "osm_id": "82479028", "code": 5115.0, "fclass": "tertiary", "name": "North Circular Road", "pixel_count": 166, "Var_line": 22.000755310058594, "Edge_contrast": 59.760551452636719, "ROI": 5431.0, "Road_detected": -1, "ROI_norm": -0.53909202056592431, "Pred": 0 }, "geometry": { "type": "LineString", "coordinates": [ [ 144.886215036472834, -37.688535668608885 ], [ 144.886187736483919, -37.688682568609828 ], [ 144.886170436500436, -37.688863468609881 ], [ 144.886150236527101, -37.689143868609555 ], [ 144.886160936536527, -37.689213968608321 ], [ 144.886173036546182, -37.6892839686071 ], [ 144.886198536559135, -37.689363568604868 ], [ 144.886221336569605, -37.689424068602946 ] ] } },
{ "type": "Feature", "properties": { "gid": 234338, "osm_id": "767524028", "code": 5113.0, "fclass": "primary", "name": "Centre Road", "pixel_count": 75, "Var_line": 90.189826965332031, "Edge_contrast": 13.577982902526855, "ROI": 8052.9999999999982, "Road_detected": -1, "ROI_norm": -0.32254727381773163, "Pred": 0 }, "geometry": { "type": "LineString", "coordinates": [ [ 144.852103929176394, -37.675528271007913 ], [ 144.852021329127325, -37.675204371015532 ], [ 144.851897629042782, -37.674616071027586 ] ] } },
{ "type": "Feature", "properties": { "gid": 234361, "osm_id": "749164866", "code": 5121.0, "fclass": "unclassified", "name": "Reid Way", "pixel_count": 50, "Var_line": 0.0, "Edge_contrast": 0.0, "ROI": 1825.9999999999998, "Road_detected": -1, "ROI_norm": -0.83682040043901174, "Pred": 0 }, "geometry": { "type": "LineString", "coordinates": [ [ 144.851588031446454, -37.697476070906532 ], [ 144.851584131468599, -37.697687770905489 ] ] } },
{ "type": "Feature", "properties": { "gid": 234396, "osm_id": "655952908", "code": 5122.0, "fclass": "residential", "name": "Strathconnon Square", "pixel_count": 42, "Var_line": 50.612205505371094, "Edge_contrast": 32.196140289306641, "ROI": 4166.833333333333, "Road_detected": -1, "ROI_norm": -0.64349654027638981, "Pred": 0 }, "geometry": { "type": "LineString", "coordinates": [ [ 144.870495333689917, -37.687932869681518 ], [ 144.870575333707563, -37.687968569675832 ] ] } },
{ "type": "Feature", "properties": { "gid": 234408, "osm_id": "44764232", "code": 5113.0, "fclass": "primary", "name": null, "pixel_count": 147, "Var_line": 59.218830108642578, "Edge_contrast": 12.070502281188965, "ROI": 3941.6666666666665, "Road_detected": -1, "ROI_norm": -0.66209251999014584, "Pred": 0 }, "geometry": { "type": "LineString", "coordinates": [ [ 144.861885431406563, -37.6805452703125 ], [ 144.861948531428538, -37.680647970307568 ], [ 144.8619914314433, -37.680716170304215 ], [ 144.862044331460197, -37.680788570300173 ], [ 144.862087631474537, -37.680852070296808 ], [ 144.862097031478527, -37.680874370296046 ], [ 144.862103031481922, -37.680895870295515 ], [ 144.862105131484839, -37.680919970295214 ], [ 144.862097731485562, -37.680938570295588 ], [ 144.862086631485766, -37.680958170296257 ], [ 144.862073431485129, -37.68097367029705 ], [ 144.862033931482614, -37.681013370299482 ] ] } },
{ "type": "Feature", "properties": { "gid": 234425, "osm_id": "44873068", "code": 5121.0, "fclass": "unclassified", "name": "Francis Briggs Road", "pixel_count": 104, "Var_line": 14.926736831665039, "Edge_contrast": 35.137702941894531, "ROI": 3852.0, "Road_detected": -1, "ROI_norm": -0.6694978768265637, "Pred": 0 }, "geometry": { "type": "LineString", "coordinates": [ [ 144.857194430373255, -37.67847667064391 ], [ 144.857220330374133, -37.678443370642398 ], [ 144.857240530374071, -37.678409970641233 ], [ 144.857266330373562, -37.67836377063977 ], [ 144.857312130370872, -37.678265270637283 ], [ 144.857407830353964, -37.6779545706327 ] ] } },
{ "type": "Feature", "properties": { "gid": 234460, "osm_id": "325722388", "code": 5115.0, "fclass": "tertiary", "name": "Arrival Drive", "pixel_count": 92, "Var_line": 58.435768127441406, "Edge_contrast": 12.54407787322998, "ROI": 7280.666666666667, "Road_detected": -1, "ROI_norm": -0.38633244775817932, "Pred": 0 }, "geometry": { "type": "LineString", "coordinates": [ [ 144.853173528699472, -37.669369470973585 ], [ 144.85319982870584, -37.669386370971679 ], [ 144.853230728713442, -37.66940757096949 ], [ 144.853263628721749, -37.669431970967103 ], [ 144.853301028732233, -37.66946947096433 ], [ 144.853381028755393, -37.669556270958324 ] ] } },
{ "type": "Feature", "properties": { "gid": 254144, "osm_id": "366450225", "code": 5121.0, "fclass": "unclassified", "name": "Link Road", "pixel_count": 100, "Var_line": 25.470535278320312, "Edge_contrast": 9.8462429046630859, "ROI": 4114.6666666666661, "Road_detected": -1, "ROI_norm": -0.647804861261146, "Pred": 0 }, "geometry": { "type": "LineString", "coordinates": [ [ 144.845560129973506, -37.693473271340565 ], [ 144.845632629983271, -37.693447771335791 ], [ 144.845718429997191, -37.693439271330043 ], [ 144.845815530013766, -37.69343757132345 ], [ 144.846883530204565, -37.69349377125063 ] ] } },
{ "type": "Feature", "properties": { "gid": 255596, "osm_id": "74466973", "code": 5113.0, "fclass": "primary", "name": "Mickleham Road", "pixel_count": 150, "Var_line": 137.14389038085938, "Edge_contrast": 101.96501922607422, "ROI": 24778.000000000004, "Road_detected": -1, "ROI_norm": 1.0587307160234305, "Pred": 0 }, "geometry": { "type": "LineString", "coordinates": [ [ 144.882903735455955, -37.684409768859808 ], [ 144.882940335440452, -37.684207068858612 ], [ 144.882992335416276, -37.683898968856923 ], [ 144.883074135384788, -37.683475468853992 ], [ 144.883174735347211, -37.682964968850335 ], [ 144.883239035324721, -37.682652968847947 ] ] } },
{ "type": "Feature", "properties": { "gid": 255638, "osm_id": "352180071", "code": 5115.0, "fclass": "tertiary", "name": "Watson Drive", "pixel_count": 50, "Var_line": 24.011539459228516, "Edge_contrast": 9.1738262176513672, "ROI": 689.0, "Road_detected": -1, "ROI_norm": -0.9307225274613975, "Pred": 0 }, "geometry": { "type": "LineString", "coordinates": [ [ 144.868835533396066, -37.687869169794745 ], [ 144.868642633378272, -37.688013969806939 ] ] } },
{ "type": "Feature", "properties": { "gid": 261843, "osm_id": "27591305", "code": 5121.0, "fclass": "unclassified", "name": null, "pixel_count": 97, "Var_line": 85.442390441894531, "Edge_contrast": 6.7107629776000977, "ROI": 2571.9999999999995, "Road_detected": -1, "ROI_norm": -0.7752100338966198, "Pred": 0 }, "geometry": { "type": "LineString", "coordinates": [ [ 144.875119035169234, -37.694247669328007 ], [ 144.875226335176279, -37.694141169321369 ], [ 144.875239335175507, -37.694112769320654 ], [ 144.875260635174214, -37.694066369319501 ], [ 144.875188635139466, -37.69385976932562 ] ] } },
{ "type": "Feature", "properties": { "gid": 261846, "osm_id": "27592689", "code": 5121.0, "fclass": "unclassified", "name": null, "pixel_count": 50, "Var_line": 49.198345184326172, "Edge_contrast": 28.075454711914062, "ROI": 4035.333333333333, "Road_detected": -1, "ROI_norm": -0.65435681266288381, "Pred": 0 }, "geometry": { "type": "LineString", "coordinates": [ [ 144.875046035271652, -37.695316069326331 ], [ 144.874460135186638, -37.69546786936521 ] ] } },
{ "type": "Feature", "properties": { "gid": 261864, "osm_id": "27613740", "code": 5122.0, "fclass": "residential", "name": "Marmal Court", "pixel_count": 50, "Var_line": 58.288047790527344, "Edge_contrast": 42.354862213134766, "ROI": 5881.3333333333339, "Road_detected": -1, "ROI_norm": -0.50190006113841235, "Pred": 0 }, "geometry": { "type": "LineString", "coordinates": [ [ 144.871922834022456, -37.688729269579561 ], [ 144.870824233912913, -37.689476369649583 ] ] } },
{ "type": "Feature", "properties": { "gid": 261886, "osm_id": "38743629", "code": 5115.0, "fclass": "tertiary", "name": "Gladstone Park Drive", "pixel_count": 632, "Var_line": 26.899045944213867, "Edge_contrast": 28.023012161254883, "ROI": 25910.5, "Road_detected": -1, "ROI_norm": 1.1522611987436164, "Pred": 0 }, "geometry": { "type": "LineString", "coordinates": [ [ 144.886221336569605, -37.689424068602946 ], [ 144.88592493652672, -37.689501568622624 ], [ 144.885733136498231, -37.689545068635383 ], [ 144.885577536475893, -37.689587468645733 ], [ 144.885447536456866, -37.689619368654341 ], [ 144.885326836437827, -37.689636368662477 ], [ 144.885208736417979, -37.689641668670461 ], [ 144.885105536399664, -37.689637368677516 ], [ 144.885012936382481, -37.689626768683887 ], [ 144.884911036362581, -37.689605568690929 ], [ 144.88481583634271, -37.689573668697626 ], [ 144.884728636323729, -37.689537668703771 ], [ 144.884648236305026, -37.68949306870956 ], [ 144.88455163628123, -37.689427268716507 ], [ 144.884484536264409, -37.689378468721372 ], [ 144.884331736223658, -37.689245368732593 ], [ 144.883685936050767, -37.688676968780058 ], [ 144.883627936035111, -37.688624768784322 ], [ 144.883546136013081, -37.688551568790338 ], [ 144.883407235975795, -37.688428368800558 ], [ 144.883367035964909, -37.688391768803498 ], [ 144.883322835953066, -37.688353068806762 ], [ 144.883259735937798, -37.688312168811301 ], [ 144.883210135926305, -37.688285168814794 ], [ 144.883150435912938, -37.688257068819077 ], [ 144.883070635895763, -37.688225668824714 ], [ 144.882988235878798, -37.688200268830464 ], [ 144.882895635860137, -37.688175868836922 ], [ 144.882827935846791, -37.688160468841623 ], [ 144.882767535835427, -37.688151968845773 ], [ 144.882682435819561, -37.688141368851646 ], [ 144.882590535802649, -37.68813176885795 ], [ 144.882458435778545, -37.688120068867029 ] ] } },
{ "type": "Feature", "properties": { "gid": 121, "osm_id": null, "code": null, "fclass": "residential", "name": null, "pixel_count": 102, "Var_line": 96.323570251464844, "Edge_contrast": 30.719263076782227, "ROI": 4573.833333333333, "Road_detected": -1, "ROI_norm": -0.60988337783302049, "Pred": 0 }, "geometry": { "type": "LineString", "coordinates": [ [ 144.850567156816595, -37.670067131322519 ], [ 144.850653310451492, -37.670193116409315 ], [ 144.850707261034472, -37.670218931367749 ], [ 144.850793702757329, -37.670199013104636 ], [ 144.850855028372735, -37.670136150678942 ] ] } },
{ "type": "Feature", "properties": { "gid": 169, "osm_id": null, "code": null, "fclass": "residential", "name": null, "pixel_count": 125, "Var_line": 35.356193542480469, "Edge_contrast": 10.848012924194336, "ROI": 16284.999999999996, "Road_detected": -1, "ROI_norm": 0.35731403633906594, "Pred": 0 }, "geometry": { "type": "LineString", "coordinates": [ [ 144.853794691212215, -37.669109867412878 ], [ 144.853071705170748, -37.668788566729425 ], [ 144.852942098700709, -37.668791268511953 ], [ 144.852790786329251, -37.668848299747083 ], [ 144.852326231969727, -37.668924970953242 ] ] } },
{ "type": "Feature", "properties": { "gid": 264, "osm_id": null, "code": null, "fclass": "residential", "name": null, "pixel_count": 85, "Var_line": 93.075355529785156, "Edge_contrast": 22.148128509521484, "ROI": 5806.166666666667, "Road_detected": -1, "ROI_norm": -0.50810789744552121, "Pred": 0 }, "geometry": { "type": "LineString", "coordinates": [ [ 144.851604475289207, -37.669816665843193 ], [ 144.851537587672368, -37.66996248656671 ], [ 144.851350029413055, -37.670142487793427 ], [ 144.851344550598924, -37.670182532963196 ] ] } },
{ "type": "Feature", "properties": { "gid": 688, "osm_id": null, "code": null, "fclass": "trunk", "name": null, "pixel_count": 69, "Var_line": 113.05047607421875, "Edge_contrast": 24.490484237670898, "ROI": 4717.6666666666661, "Road_detected": -1, "ROI_norm": -0.59800452476642429, "Pred": 0 }, "geometry": { "type": "LineString", "coordinates": [ [ 144.884601532238918, -37.694273142552376 ], [ 144.884658957969691, -37.694400504677112 ], [ 144.884745302875132, -37.694456373908139 ] ] } },
{ "type": "Feature", "properties": { "gid": 1155, "osm_id": null, "code": null, "fclass": "trunk", "name": null, "pixel_count": 50, "Var_line": 109.40057373046875, "Edge_contrast": 34.444721221923828, "ROI": 4849.0, "Road_detected": -1, "ROI_norm": -0.58715801698371539, "Pred": 0 }, "geometry": { "type": "LineString", "coordinates": [ [ 144.879320515398121, -37.681726040455175 ], [ 144.879378527028706, -37.681474344831344 ] ] } },
{ "type": "Feature", "properties": { "gid": 1211, "osm_id": null, "code": null, "fclass": "trunk", "name": null, "pixel_count": 69, "Var_line": 60.22552490234375, "Edge_contrast": 15.626897811889648, "ROI": 3512.333333333333, "Road_detected": -1, "ROI_norm": -0.69755013934072718, "Pred": 0 }, "geometry": { "type": "LineString", "coordinates": [ [ 144.866598008391236, -37.676402819355054 ], [ 144.866517098066595, -37.676346942683274 ], [ 144.866483078657666, -37.676242483822726 ] ] } },
{ "type": "Feature", "properties": { "gid": 1426, "osm_id": null, "code": null, "fclass": "primary", "name": null, "pixel_count": 75, "Var_line": 136.303466796875, "Edge_contrast": 38.274326324462891, "ROI": 6281.0, "Road_detected": -1, "ROI_norm": -0.46889254126159025, "Pred": 0 }, "geometry": { "type": "LineString", "coordinates": [ [ 144.883965186481703, -37.695920364115324 ], [ 144.884127278662959, -37.695899064799512 ], [ 144.884368744015319, -37.695783434641882 ] ] } },
{ "type": "Feature", "properties": { "gid": 1434, "osm_id": null, "code": null, "fclass": "primary", "name": null, "pixel_count": 30, "Var_line": 88.843414306640625, "Edge_contrast": 4.8369183540344238, "ROI": 2106.666666666667, "Road_detected": -1, "ROI_norm": -0.8136408076647963, "Pred": 0 }, "geometry": { "type": "LineString", "coordinates": [ [ 144.874538445311714, -37.681972881255248 ], [ 144.874538407360802, -37.681995767945978 ] ] } },
{ "type": "Feature", "properties": { "gid": 1465, "osm_id": null, "code": null, "fclass": "primary", "name": null, "pixel_count": 50, "Var_line": 0.0, "Edge_contrast": 15.693117141723633, "ROI": 3529.3333333333335, "Road_detected": -1, "ROI_norm": -0.69614614975464029, "Pred": 0 }, "geometry": { "type": "LineString", "coordinates": [ [ 144.876210234618128, -37.681310905349264 ], [ 144.876268293704214, -37.681036324493199 ] ] } },
{ "type": "Feature", "properties": { "gid": 1511, "osm_id": null, "code": null, "fclass": "primary", "name": null, "pixel_count": 30, "Var_line": 86.8499755859375, "Edge_contrast": 31.373571395874023, "ROI": 2088.333333333333, "Road_detected": -1, "ROI_norm": -0.81515491408116447, "Pred": 0 }, "geometry": { "type": "LineString", "coordinates": [ [ 144.869938270657826, -37.693685955595875 ], [ 144.869938231309305, -37.69370884218349 ] ] } },
{ "type": "Feature", "properties": { "gid": 1520, "osm_id": null, "code": null, "fclass": "primary", "name": null, "pixel_count": 35, "Var_line": 82.961700439453125, "Edge_contrast": 33.014034271240234, "ROI": 2639.8333333333335, "Road_detected": -1, "ROI_norm": -0.7696078401560581, "Pred": 0 }, "geometry": { "type": "LineString", "coordinates": [ [ 144.878198883518024, -37.680626341852125 ], [ 144.878198957204063, -37.680580568444633 ] ] } },
{ "type": "Feature", "properties": { "gid": 1529, "osm_id": null, "code": null, "fclass": "primary", "name": null, "pixel_count": 50, "Var_line": 144.99740600585938, "Edge_contrast": 80.594322204589844, "ROI": 3215.3333333333339, "Road_detected": -1, "ROI_norm": -0.72207866328588843, "Pred": 0 }, "geometry": { "type": "LineString", "coordinates": [ [ 144.881887102472149, -37.679851886162389 ], [ 144.882232648713909, -37.679920886634712 ] ] } },
{ "type": "Feature", "properties": { "gid": 1533, "osm_id": null, "code": null, "fclass": "primary", "name": null, "pixel_count": 66, "Var_line": 86.228042602539062, "Edge_contrast": 34.075695037841797, "ROI": 4508.333333333333, "Road_detected": -1, "ROI_norm": -0.61529286712058973, "Pred": 0 }, "geometry": { "type": "LineString", "coordinates": [ [ 144.88443181988913, -37.6733545246517 ], [ 144.884399223203445, -37.673481801025645 ], [ 144.884345134185054, -37.673537535383659 ] ] } },
{ "type": "Feature", "properties": { "gid": 1569, "osm_id": null, "code": null, "fclass": "primary", "name": null, "pixel_count": 72, "Var_line": 107.0748291015625, "Edge_contrast": 33.729019165039062, "ROI": 2761.333333333333, "Road_detected": -1, "ROI_norm": -0.75957344399667404, "Pred": 0 }, "geometry": { "type": "LineString", "coordinates": [ [ 144.869880218253854, -37.693937645482023 ], [ 144.869853430561761, -37.693808879097766 ], [ 144.869909421612164, -37.693708810903672 ] ] } },
{ "type": "Feature", "properties": { "gid": 1573, "osm_id": null, "code": null, "fclass": "primary", "name": null, "pixel_count": 71, "Var_line": 91.792770385742188, "Edge_contrast": 17.256296157836914, "ROI": 5968.166666666667, "Road_detected": -1, "ROI_norm": -0.49472870256634222, "Pred": 0 }, "geometry": { "type": "LineString", "coordinates": [ [ 144.878032400868562, -37.67668965006979 ], [ 144.878280860859491, -37.676669876889122 ], [ 144.878377965940871, -37.676735775007209 ] ] } },
{ "type": "Feature", "properties": { "gid": 1602, "osm_id": null, "code": null, "fclass": "primary", "name": null, "pixel_count": 30, "Var_line": 101.48403930664062, "Edge_contrast": 33.087615966796875, "ROI": 3107.333333333333, "Road_detected": -1, "ROI_norm": -0.73099812653867458, "Pred": 0 }, "geometry": { "type": "LineString", "coordinates": [ [ 144.869938231309305, -37.69370884218349 ], [ 144.869909421612164, -37.693708810903672 ] ] } },
{ "type": "Feature", "properties": { "gid": 1685, "osm_id": null, "code": null, "fclass": "tertiary", "name": null, "pixel_count": 34, "Var_line": 49.593208312988281, "Edge_contrast": 7.4923100471496582, "ROI": 5259.666666666667, "Road_detected": -1, "ROI_norm": -0.55324203325707244, "Pred": 0 }, "geometry": { "type": "LineString", "coordinates": [ [ 144.870509841708127, -37.696387195721158 ], [ 144.87053869159385, -37.696364340292128 ] ] } },
{ "type": "Feature", "properties": { "gid": 1734, "osm_id": null, "code": null, "fclass": "tertiary", "name": null, "pixel_count": 75, "Var_line": 109.68095397949219, "Edge_contrast": 25.024398803710938, "ROI": 3794.0, "Road_detected": -1, "ROI_norm": -0.67428795894380067, "Pred": 0 }, "geometry": { "type": "LineString", "coordinates": [ [ 144.870198421791315, -37.693182731822489 ], [ 144.869949521841988, -37.693425632375728 ], [ 144.869938270657826, -37.693685955595875 ] ] } },
{ "type": "Feature", "properties": { "gid": 1757, "osm_id": null, "code": null, "fclass": "tertiary", "name": null, "pixel_count": 60, "Var_line": 89.92620849609375, "Edge_contrast": 31.407747268676758, "ROI": 3458.0, "Road_detected": -1, "ROI_norm": -0.70203740017469041, "Pred": 0 }, "geometry": { "type": "LineString", "coordinates": [ [ 144.884569858699592, -37.696149814273362 ], [ 144.884575173389464, -37.696207035904145 ], [ 144.884713667705427, -37.696310158966703 ] ] } },
{ "type": "Feature", "properties": { "gid": 1766, "osm_id": null, "code": null, "fclass": "tertiary", "name": null, "pixel_count": 30, "Var_line": 86.8499755859375, "Edge_contrast": 31.373571395874023, "ROI": 2088.333333333333, "Road_detected": -1, "ROI_norm": -0.81515491408116447, "Pred": 0 }, "geometry": { "type": "LineString", "coordinates": [ [ 144.869938270657826, -37.693685955595875 ], [ 144.869938231309305, -37.69370884218349 ] ] } },
{ "type": "Feature", "properties": { "gid": 1768, "osm_id": null, "code": null, "fclass": "tertiary", "name": null, "pixel_count": 78, "Var_line": 146.75193786621094, "Edge_contrast": 64.639556884765625, "ROI": 3894.3333333333335, "Road_detected": -1, "ROI_norm": -0.66600166746513212, "Pred": 0 }, "geometry": { "type": "LineString", "coordinates": [ [ 144.883826276125205, -37.673811674823824 ], [ 144.883750646368838, -37.673827336115743 ], [ 144.883669693147311, -37.673792927318971 ], [ 144.883682441395933, -37.67369710123144 ] ] } },
{ "type": "Feature", "properties": { "gid": 1822, "osm_id": null, "code": null, "fclass": "tertiary", "name": null, "pixel_count": 75, "Var_line": 0.0, "Edge_contrast": 1.8851509094238281, "ROI": 4040.3333333333335, "Road_detected": -1, "ROI_norm": -0.6539438745493289, "Pred": 0 }, "geometry": { "type": "LineString", "coordinates": [ [ 144.876297173415594, -37.680990580844778 ], [ 144.87625007074044, -37.681170765251032 ], [ 144.876152587197964, -37.68133373249583 ] ] } },
{ "type": "Feature", "properties": { "gid": 1823, "osm_id": null, "code": null, "fclass": "tertiary", "name": null, "pixel_count": 86, "Var_line": 116.95716094970703, "Edge_contrast": 4.6807913780212402, "ROI": 4475.3333333333339, "Road_detected": -1, "ROI_norm": -0.618018258670052, "Pred": 0 }, "geometry": { "type": "LineString", "coordinates": [ [ 144.878344195081695, -37.679825453469242 ], [ 144.87836592256582, -37.679748232759501 ], [ 144.878330013692505, -37.679688118574305 ], [ 144.878085213493733, -37.679664982914936 ] ] } },
{ "type": "Feature", "properties": { "gid": 1827, "osm_id": null, "code": null, "fclass": "tertiary", "name": null, "pixel_count": 65, "Var_line": 98.984359741210938, "Edge_contrast": 20.596052169799805, "ROI": 3880.6666666666665, "Road_detected": -1, "ROI_norm": -0.6671303649755157, "Pred": 0 }, "geometry": { "type": "LineString", "coordinates": [ [ 144.870048359115629, -37.696684221930077 ], [ 144.870064690514255, -37.696611288590844 ], [ 144.870192648906738, -37.696547058719226 ] ] } },
{ "type": "Feature", "properties": { "gid": 1835, "osm_id": null, "code": null, "fclass": "tertiary", "name": null, "pixel_count": 72, "Var_line": 107.0748291015625, "Edge_contrast": 33.729019165039062, "ROI": 2761.333333333333, "Road_detected": -1, "ROI_norm": -0.75957344399667404, "Pred": 0 }, "geometry": { "type": "LineString", "coordinates": [ [ 144.869880218253854, -37.693937645482023 ], [ 144.869853430561761, -37.693808879097766 ], [ 144.869909421612164, -37.693708810903672 ] ] } },
{ "type": "Feature", "properties": { "gid": 1873, "osm_id": null, "code": null, "fclass": "tertiary", "name": null, "pixel_count": 30, "Var_line": 101.48403930664062, "Edge_contrast": 33.087615966796875, "ROI": 3107.333333333333, "Road_detected": -1, "ROI_norm": -0.73099812653867458, "Pred": 0 }, "geometry": { "type": "LineString", "coordinates": [ [ 144.869938231309305, -37.69370884218349 ], [ 144.869909421612164, -37.693708810903672 ] ] } },
{ "type": "Feature", "properties": { "gid": 1884, "osm_id": null, "code": null, "fclass": "tertiary", "name": null, "pixel_count": 75, "Var_line": 74.875045776367188, "Edge_contrast": 26.115333557128906, "ROI": 4256.833333333333, "Road_detected": -1, "ROI_norm": -0.63606365423240152, "Pred": 0 }, "geometry": { "type": "LineString", "coordinates": [ [ 144.870252193960823, -37.695425679315214 ], [ 144.870310035371119, -37.695297004728566 ], [ 144.870512113935433, -37.695059774652826 ] ] } },
{ "type": "Feature", "properties": { "gid": 1932, "osm_id": null, "code": null, "fclass": "unclassified", "name": null, "pixel_count": 174, "Var_line": 58.906398773193359, "Edge_contrast": 24.125225067138672, "ROI": 11621.5, "Road_detected": -1, "ROI_norm": -0.027833342173594847, "Pred": 0 }, "geometry": { "type": "LineString", "coordinates": [ [ 144.867441091884984, -37.68839640144229 ], [ 144.867484175613527, -37.688469400391249 ], [ 144.867566930147177, -37.688508113170712 ], [ 144.86786940616679, -37.68851130800779 ], [ 144.867937874433636, -37.688482775161091 ], [ 144.868085947908099, -37.688234045688539 ], [ 144.868333628776895, -37.687650707806263 ], [ 144.868537533340145, -37.687390595708877 ] ] } },
{ "type": "Feature", "properties": { "gid": 1954, "osm_id": null, "code": null, "fclass": "unclassified", "name": null, "pixel_count": 99, "Var_line": 56.423412322998047, "Edge_contrast": 22.34429931640625, "ROI": 7774.0, "Road_detected": -1, "ROI_norm": -0.34558922055409524, "Pred": 0 }, "geometry": { "type": "LineString", "coordinates": [ [ 144.850072421193858, -37.672652724832773 ], [ 144.850515328846313, -37.672611796084496 ], [ 144.850644843130851, -37.672659161725576 ], [ 144.850763480773907, -37.672745135179433 ] ] } },
{ "type": "Feature", "properties": { "gid": 2234, "osm_id": null, "code": null, "fclass": "unclassified", "name": null, "pixel_count": 734, "Var_line": 32.094772338867188, "Edge_contrast": 27.461936950683594, "ROI": 27238.666666666668, "Road_detected": -1, "ROI_norm": 1.2619513263075848, "Pred": 0 }, "geometry": { "type": "LineString", "coordinates": [ [ 144.862268861026934, -37.665343580601892 ], [ 144.862286657303457, -37.665455174591578 ], [ 144.862458826994413, -37.665798675571047 ], [ 144.862582087907157, -37.666313771668406 ], [ 144.862783952457363, -37.668150673714713 ], [ 144.862925219514125, -37.668665789629316 ], [ 144.862884997263421, -37.669009046293901 ], [ 144.862655678421618, -37.669403581593258 ], [ 144.862358083273307, -37.66972794700434 ], [ 144.861211849449631, -37.670496194082205 ], [ 144.860757806943923, -37.670728826674917 ], [ 144.860606536113124, -37.67076441138471 ], [ 144.860455333722712, -37.670762804881775 ], [ 144.859829461383185, -37.67046597561712 ], [ 144.859591968548415, -37.670404189059809 ], [ 144.859483912349788, -37.670432670874916 ], [ 144.859069106538243, -37.670858450750401 ], [ 144.858616296772624, -37.671390035846308 ], [ 144.857345507530454, -37.672309723602517 ], [ 144.857303943465098, -37.672395499660858 ], [ 144.857312652654173, -37.672549996058727 ], [ 144.857510114421814, -37.672842038046383 ], [ 144.857928734179978, -37.673271663084641 ], [ 144.858678261972926, -37.673873328536608 ], [ 144.859174465312918, -37.674214354199364 ], [ 144.859908205536186, -37.674602859849827 ], [ 144.863577721150023, -37.676156245321749 ], [ 144.863880011242884, -37.676235262562642 ], [ 144.864247162771164, -37.676284313666002 ], [ 144.866338618719823, -37.676494077298997 ] ] } },
{ "type": "Feature", "properties": { "gid": 2251, "osm_id": null, "code": null, "fclass": "unclassified", "name": null, "pixel_count": 150, "Var_line": 16.287294387817383, "Edge_contrast": 12.750795364379883, "ROI": 8521.3333333333339, "Road_detected": -1, "ROI_norm": -0.28386873718142186, "Pred": 0 }, "geometry": { "type": "LineString", "coordinates": [ [ 144.876733347790605, -37.678473488087995 ], [ 144.876597223718363, -37.679151368103625 ], [ 144.87667249889418, -37.6793574264113 ], [ 144.876639870245413, -37.679494713323095 ], [ 144.876482938699013, -37.679683367291119 ], [ 144.876442916922116, -37.679937941092511 ] ] } },
{ "type": "Feature", "properties": { "gid": 2255, "osm_id": null, "code": null, "fclass": "unclassified", "name": null, "pixel_count": 50, "Var_line": 83.557205200195312, "Edge_contrast": 26.308425903320312, "ROI": 5293.833333333333, "Road_detected": -1, "ROI_norm": -0.55042028948111399, "Pred": 0 }, "geometry": { "type": "LineString", "coordinates": [ [ 144.885735628183795, -37.6873166877496 ], [ 144.886138895509646, -37.687339958404934 ] ] } },
{ "type": "Feature", "properties": { "gid": 61, "osm_id": null, "code": null, "fclass": "residential", "name": null, "pixel_count": 65, "Var_line": 17.62078857421875, "Edge_contrast": 8.6524314880371094, "ROI": 7510.833333333333, "Road_detected": -1, "ROI_norm": -0.36732352993086848, "Pred": 0 }, "geometry": { "type": "LineString", "coordinates": [ [ 144.851821121673282, -37.676843185586186 ], [ 144.851658940644427, -37.676925949423762 ], [ 144.851561712673629, -37.676934411512697 ] ] } },
{ "type": "Feature", "properties": { "gid": 65, "osm_id": null, "code": null, "fclass": "residential", "name": null, "pixel_count": 72, "Var_line": 8.5356273651123047, "Edge_contrast": 1.7668453454971313, "ROI": 2830.0, "Road_detected": -1, "ROI_norm": -0.75390242723718659, "Pred": 0 }, "geometry": { "type": "LineString", "coordinates": [ [ 144.857463242923416, -37.678612314223862 ], [ 144.857322710412348, -37.67867222466721 ], [ 144.857203964239147, -37.678634892168979 ] ] } },
{ "type": "Feature", "properties": { "gid": 131, "osm_id": null, "code": null, "fclass": "residential", "name": null, "pixel_count": 106, "Var_line": 58.837818145751953, "Edge_contrast": 15.838606834411621, "ROI": 8953.6666666666661, "Road_detected": -1, "ROI_norm": -0.24816335496270772, "Pred": 0 }, "geometry": { "type": "LineString", "coordinates": [ [ 144.849813569547479, -37.672469305963503 ], [ 144.849691032038947, -37.672534951852853 ], [ 144.849685444198798, -37.672629352972287 ], [ 144.849915778061956, -37.672669693760071 ], [ 144.849986016181532, -37.672652616640853 ] ] } },
{ "type": "Feature", "properties": { "gid": 156, "osm_id": null, "code": null, "fclass": "residential", "name": null, "pixel_count": 180, "Var_line": 6.6850838661193848, "Edge_contrast": 5.1640210151672363, "ROI": 4069.1666666666661, "Road_detected": -1, "ROI_norm": -0.65156259809449568, "Pred": 0 }, "geometry": { "type": "LineString", "coordinates": [ [ 144.864224654770879, -37.682808443709362 ], [ 144.864311009835632, -37.682842871649683 ], [ 144.864582398889098, -37.683102084838794 ], [ 144.864614667034488, -37.683179364005724 ], [ 144.864880779869964, -37.683369910355914 ], [ 144.864907637132859, -37.683452905012324 ], [ 144.865047789805885, -37.683607548351326 ], [ 144.865029372764639, -37.683839255626616 ] ] } },
{ "type": "Feature", "properties": { "gid": 206, "osm_id": null, "code": null, "fclass": "residential", "name": null, "pixel_count": 96, "Var_line": 87.243293762207031, "Edge_contrast": 34.772480010986328, "ROI": 8565.0, "Road_detected": -1, "ROI_norm": -0.28026241098970905, "Pred": 0 }, "geometry": { "type": "LineString", "coordinates": [ [ 144.850879815154258, -37.67217310956584 ], [ 144.850390616879167, -37.671956505081226 ], [ 144.850361982361562, -37.671872074140275 ], [ 144.850391185323105, -37.671668990036487 ] ] } },
{ "type": "Feature", "properties": { "gid": 257, "osm_id": null, "code": null, "fclass": "residential", "name": null, "pixel_count": 158, "Var_line": 20.415042877197266, "Edge_contrast": 55.551494598388672, "ROI": 9342.3333333333321, "Road_detected": -1, "ROI_norm": -0.21606429893570639, "Pred": 0 }, "geometry": { "type": "LineString", "coordinates": [ [ 144.851903231355891, -37.693756565472363 ], [ 144.851977047834396, -37.693760947942543 ], [ 144.852101163859743, -37.693825469891664 ], [ 144.852317368109624, -37.693758507108967 ], [ 144.855234972581002, -37.693437363959106 ], [ 144.855472804714168, -37.69335754787496 ], [ 144.85559166052056, -37.693349108710407 ] ] } },
{ "type": "Feature", "properties": { "gid": 328, "osm_id": null, "code": null, "fclass": "residential", "name": null, "pixel_count": 90, "Var_line": 38.140266418457031, "Edge_contrast": 41.594928741455078, "ROI": 6277.9999999999991, "Road_detected": -1, "ROI_norm": -0.4691403041297233, "Pred": 0 }, "geometry": { "type": "LineString", "coordinates": [ [ 144.848806610995013, -37.671918755277041 ], [ 144.84896841612084, -37.67202051971497 ], [ 144.849070969862595, -37.672046396671917 ], [ 144.849151817080838, -37.672125171984618 ] ] } },
{ "type": "Feature", "properties": { "gid": 386, "osm_id": null, "code": null, "fclass": "residential", "name": null, "pixel_count": 65, "Var_line": 21.539913177490234, "Edge_contrast": 33.984996795654297, "ROI": 3508.0, "Road_detected": -1, "ROI_norm": -0.69790801903914124, "Pred": 0 }, "geometry": { "type": "LineString", "coordinates": [ [ 144.850669126496314, -37.67677309453321 ], [ 144.850485333424359, -37.676860121110423 ], [ 144.850409716348111, -37.676864317967258 ] ] } },
{ "type": "Feature", "properties": { "gid": 412, "osm_id": null, "code": null, "fclass": "residential", "name": null, "pixel_count": 77, "Var_line": 5.624779224395752, "Edge_contrast": 12.529441833496094, "ROI": 1035.1666666666665, "Road_detected": -1, "ROI_norm": -0.90213344539961282, "Pred": 0 }, "geometry": { "type": "LineString", "coordinates": [ [ 144.861895561308785, -37.664748091820883 ], [ 144.862211367415028, -37.665286297273063 ], [ 144.862283312538381, -37.665314988625511 ], [ 144.862326542092177, -37.665297873171795 ] ] } },
{ "type": "Feature", "properties": { "gid": 474, "osm_id": null, "code": null, "fclass": "residential", "name": null, "pixel_count": 75, "Var_line": 82.3829345703125, "Edge_contrast": 29.109823226928711, "ROI": 5141.9999999999991, "Road_detected": -1, "ROI_norm": -0.56295984352939799, "Pred": 0 }, "geometry": { "type": "LineString", "coordinates": [ [ 144.849351103613657, -37.673292650586482 ], [ 144.849352647434813, -37.673421390853825 ], [ 144.849522185613409, -37.674162564439612 ] ] } },
{ "type": "Feature", "properties": { "gid": 479, "osm_id": null, "code": null, "fclass": "residential", "name": null, "pixel_count": 100, "Var_line": 89.494842529296875, "Edge_contrast": 17.851314544677734, "ROI": 8064.3333333333339, "Road_detected": -1, "ROI_norm": -0.32161128076034029, "Pred": 0 }, "geometry": { "type": "LineString", "coordinates": [ [ 144.849444840701779, -37.669607988869288 ], [ 144.84939238924818, -37.669733800568878 ], [ 144.849143915977947, -37.669767818116412 ], [ 144.849069840623599, -37.669905045850257 ] ] } },
{ "type": "Feature", "properties": { "gid": 495, "osm_id": null, "code": null, "fclass": "residential", "name": null, "pixel_count": 100, "Var_line": 34.306999206542969, "Edge_contrast": 35.797023773193359, "ROI": 12810.5, "Road_detected": -1, "ROI_norm": 0.070363341229761719, "Pred": 0 }, "geometry": { "type": "LineString", "coordinates": [ [ 144.852027757350726, -37.674280120170195 ], [ 144.851887301379179, -37.674302833366873 ], [ 144.851736207016387, -37.674242568563542 ], [ 144.849780815171897, -37.674460417559601 ] ] } },
{ "type": "Feature", "properties": { "gid": 691, "osm_id": null, "code": null, "fclass": "trunk", "name": null, "pixel_count": 45, "Var_line": 138.45802307128906, "Edge_contrast": 18.933345794677734, "ROI": 2288.6666666666665, "Road_detected": -1, "ROI_norm": -0.7986098603313978, "Pred": 0 }, "geometry": { "type": "LineString", "coordinates": [ [ 144.877795700371848, -37.698408869211093 ], [ 144.877910946333486, -37.698408986702916 ] ] } },
{ "type": "Feature", "properties": { "gid": 810, "osm_id": null, "code": null, "fclass": "trunk", "name": null, "pixel_count": 71, "Var_line": 90.628395080566406, "Edge_contrast": 18.662294387817383, "ROI": 5412.666666666667, "Road_detected": -1, "ROI_norm": -0.54060612698229227, "Pred": 0 }, "geometry": { "type": "LineString", "coordinates": [ [ 144.883182630282391, -37.68028800477785 ], [ 144.883279956112091, -37.68021657858408 ], [ 144.883298131054687, -37.680105023418484 ] ] } },
{ "type": "Feature", "properties": { "gid": 858, "osm_id": null, "code": null, "fclass": "primary", "name": null, "pixel_count": 72, "Var_line": 144.93051147460938, "Edge_contrast": 31.448335647583008, "ROI": 5173.166666666667, "Road_detected": -1, "ROI_norm": -0.56038586262157231, "Pred": 0 }, "geometry": { "type": "LineString", "coordinates": [ [ 144.887104187060743, -37.677522467934494 ], [ 144.887212127843924, -37.677571204000053 ], [ 144.88727673554007, -37.677705724558734 ] ] } },
{ "type": "Feature", "properties": { "gid": 889, "osm_id": null, "code": null, "fclass": "primary", "name": null, "pixel_count": 61, "Var_line": 61.792083740234375, "Edge_contrast": 21.217153549194336, "ROI": 3216.5, "Road_detected": -1, "ROI_norm": -0.72198231105939237, "Pred": 0 }, "geometry": { "type": "LineString", "coordinates": [ [ 144.876768218002923, -37.692434410782212 ], [ 144.876778867685005, -37.69252882912113 ], [ 144.876825612846602, -37.692571789637633 ] ] } },
{ "type": "Feature", "properties": { "gid": 903, "osm_id": null, "code": null, "fclass": "primary", "name": null, "pixel_count": 75, "Var_line": 137.78132629394531, "Edge_contrast": 13.958437919616699, "ROI": 4421.166666666667, "Road_detected": -1, "ROI_norm": -0.62249175490023023, "Pred": 0 }, "geometry": { "type": "LineString", "coordinates": [ [ 144.886892709253118, -37.684113648610342 ], [ 144.886948841580164, -37.683899138699644 ], [ 144.886950902706587, -37.683724629474078 ] ] } },
{ "type": "Feature", "properties": { "gid": 907, "osm_id": null, "code": null, "fclass": "primary", "name": null, "pixel_count": 70, "Var_line": 96.105415344238281, "Edge_contrast": 18.563333511352539, "ROI": 4806.8333333333339, "Road_detected": -1, "ROI_norm": -0.59064046174136176, "Pred": 0 }, "geometry": { "type": "LineString", "coordinates": [ [ 144.885506936445665, -37.686149248407645 ], [ 144.885625790546413, -37.686132196927019 ], [ 144.885737563868872, -37.686035035153886 ] ] } },
{ "type": "Feature", "properties": { "gid": 949, "osm_id": null, "code": null, "fclass": "primary", "name": null, "pixel_count": 30, "Var_line": 164.4034423828125, "Edge_contrast": 25.024419784545898, "ROI": 3052.0, "Road_detected": -1, "ROI_norm": -0.73556797499534876, "Pred": 0 }, "geometry": { "type": "LineString", "coordinates": [ [ 144.88727670144425, -37.677728611290028 ], [ 144.88727673554007, -37.677705724558734 ] ] } },
{ "type": "Feature", "properties": { "gid": 1016, "osm_id": null, "code": null, "fclass": "primary", "name": null, "pixel_count": 69, "Var_line": 95.496849060058594, "Edge_contrast": 38.090641021728516, "ROI": 6344.6666666666661, "Road_detected": -1, "ROI_norm": -0.46363446261565783, "Pred": 0 }, "geometry": { "type": "LineString", "coordinates": [ [ 144.884606690795664, -37.672004371623487 ], [ 144.884588519727885, -37.672115927326765 ], [ 144.884491240487961, -37.672164468022963 ] ] } },
{ "type": "Feature", "properties": { "gid": 1027, "osm_id": null, "code": null, "fclass": "primary", "name": null, "pixel_count": 69, "Var_line": 111.24750518798828, "Edge_contrast": 20.635837554931641, "ROI": 4887.5, "Road_detected": -1, "ROI_norm": -0.58397839350934255, "Pred": 0 }, "geometry": { "type": "LineString", "coordinates": [ [ 144.871316580402322, -37.679429034957487 ], [ 144.871386674078394, -37.679497770499786 ], [ 144.871546820214434, -37.679543715852837 ] ] } },
{ "type": "Feature", "properties": { "gid": 1028, "osm_id": null, "code": null, "fclass": "primary", "name": null, "pixel_count": 88, "Var_line": 124.63767242431641, "Edge_contrast": 6.3983769416809082, "ROI": 3585.166666666667, "Road_detected": -1, "ROI_norm": -0.69153500748661045, "Pred": 0 }, "geometry": { "type": "LineString", "coordinates": [ [ 144.880280588111731, -37.693925603267196 ], [ 144.88018881129716, -37.693891181582558 ], [ 144.880061147102595, -37.693778051127616 ], [ 144.87993512497718, -37.693765051170246 ] ] } },
{ "type": "Feature", "properties": { "gid": 1044, "osm_id": null, "code": null, "fclass": "primary", "name": null, "pixel_count": 71, "Var_line": 78.051017761230469, "Edge_contrast": 34.453125, "ROI": 4043.333333333333, "Road_detected": -1, "ROI_norm": -0.65369611168119601, "Pred": 0 }, "geometry": { "type": "LineString", "coordinates": [ [ 144.866857880694226, -37.676036919988469 ], [ 144.867012495522687, -37.676151525676268 ], [ 144.867116866245198, -37.676174528297175 ] ] } },
{ "type": "Feature", "properties": { "gid": 1065, "osm_id": null, "code": null, "fclass": "primary", "name": null, "pixel_count": 75, "Var_line": 90.35540771484375, "Edge_contrast": 38.933479309082031, "ROI": 2847.5, "Road_detected": -1, "ROI_norm": -0.75245714383974438, "Pred": 0 }, "geometry": { "type": "LineString", "coordinates": [ [ 144.859107155979729, -37.67749280748049 ], [ 144.859150089661341, -37.677638761157326 ], [ 144.859308355054026, -37.677721911711728 ] ] } },
{ "type": "Feature", "properties": { "gid": 1100, "osm_id": null, "code": null, "fclass": "tertiary", "name": null, "pixel_count": 34, "Var_line": 29.082660675048828, "Edge_contrast": 28.182769775390625, "ROI": 3021.5, "Road_detected": -1, "ROI_norm": -0.73808689748803369, "Pred": 0 }, "geometry": { "type": "LineString", "coordinates": [ [ 144.887092917122942, -37.685075079056794 ], [ 144.887064144870266, -37.685052165234268 ] ] } },
{ "type": "Feature", "properties": { "gid": 1101, "osm_id": null, "code": null, "fclass": "tertiary", "name": null, "pixel_count": 30, "Var_line": 29.082660675048828, "Edge_contrast": 29.788032531738281, "ROI": 2729.3333333333335, "Road_detected": -1, "ROI_norm": -0.76221624792342535, "Pred": 0 }, "geometry": { "type": "LineString", "coordinates": [ [ 144.887092917122942, -37.685075079056794 ], [ 144.887092951277651, -37.685052192388945 ] ] } },
{ "type": "Feature", "properties": { "gid": 1115, "osm_id": null, "code": null, "fclass": "tertiary", "name": null, "pixel_count": 90, "Var_line": 131.96826171875, "Edge_contrast": 29.011831283569336, "ROI": 3991.333333333333, "Road_detected": -1, "ROI_norm": -0.65799066806216699, "Pred": 0 }, "geometry": { "type": "LineString", "coordinates": [ [ 144.88030943410655, -37.693902745464037 ], [ 144.880212214705779, -37.693894065813161 ], [ 144.880066533052059, -37.693788069418481 ], [ 144.87993512497718, -37.693765051170246 ] ] } },
{ "type": "Feature", "properties": { "gid": 1145, "osm_id": null, "code": null, "fclass": "tertiary", "name": null, "pixel_count": 65, "Var_line": 65.986221313476562, "Edge_contrast": 22.688760757446289, "ROI": 2575.6666666666665, "Road_detected": -1, "ROI_norm": -0.77490721261334616, "Pred": 0 }, "geometry": { "type": "LineString", "coordinates": [ [ 144.860889818380855, -37.679211398606455 ], [ 144.86087888268176, -37.679284337448543 ], [ 144.86109098540561, -37.679463386403157 ] ] } },
{ "type": "Feature", "properties": { "gid": 1163, "osm_id": null, "code": null, "fclass": "tertiary", "name": null, "pixel_count": 75, "Var_line": 78.059318542480469, "Edge_contrast": 32.917858123779297, "ROI": 6540.0, "Road_detected": -1, "ROI_norm": -0.44750234697944613, "Pred": 0 }, "geometry": { "type": "LineString", "coordinates": [ [ 144.885506936445665, -37.686149248407645 ], [ 144.885647412956246, -37.686120774224008 ], [ 144.885795246526669, -37.685989316775718 ] ] } },
{ "type": "Feature", "properties": { "gid": 1192, "osm_id": null, "code": null, "fclass": "tertiary", "name": null, "pixel_count": 63, "Var_line": 67.058448791503906, "Edge_contrast": 21.196945190429688, "ROI": 2931.5, "Road_detected": -1, "ROI_norm": -0.74551978353202197, "Pred": 0 }, "geometry": { "type": "LineString", "coordinates": [ [ 144.876797101763287, -37.692388667210672 ], [ 144.876768138779454, -37.692483044808469 ], [ 144.876796840852734, -37.692548873414339 ] ] } },
{ "type": "Feature", "properties": { "gid": 1217, "osm_id": null, "code": null, "fclass": "tertiary", "name": null, "pixel_count": 34, "Var_line": 39.844173431396484, "Edge_contrast": 11.15301513671875, "ROI": 3588.6666666666665, "Road_detected": -1, "ROI_norm": -0.69124595080712214, "Pred": 0 }, "geometry": { "type": "LineString", "coordinates": [ [ 144.887092985432361, -37.685029305720903 ], [ 144.887064144870266, -37.685052165234268 ] ] } },
{ "type": "Feature", "properties": { "gid": 1218, "osm_id": null, "code": null, "fclass": "tertiary", "name": null, "pixel_count": 30, "Var_line": 39.844173431396484, "Edge_contrast": 12.812811851501465, "ROI": 2644.166666666667, "Road_detected": -1, "ROI_norm": -0.76924996045764382, "Pred": 0 }, "geometry": { "type": "LineString", "coordinates": [ [ 144.887092985432361, -37.685029305720903 ], [ 144.887092951277651, -37.685052192388945 ] ] } },
{ "type": "Feature", "properties": { "gid": 1273, "osm_id": null, "code": null, "fclass": "tertiary", "name": null, "pixel_count": 73, "Var_line": 110.45680236816406, "Edge_contrast": 17.628135681152344, "ROI": 7592.0, "Road_detected": -1, "ROI_norm": -0.36062016788749385, "Pred": 0 }, "geometry": { "type": "LineString", "coordinates": [ [ 144.871546859069014, -37.679520829141936 ], [ 144.871406462439097, -37.679506374277956 ], [ 144.871287776141827, -37.679429004008952 ] ] } },
{ "type": "Feature", "properties": { "gid": 1276, "osm_id": null, "code": null, "fclass": "tertiary", "name": null, "pixel_count": 116, "Var_line": 89.64111328125, "Edge_contrast": 19.627086639404297, "ROI": 6095.8333333333339, "Road_detected": -1, "ROI_norm": -0.48418501606690689, "Pred": 0 }, "geometry": { "type": "LineString", "coordinates": [ [ 144.88464620311106, -37.664978148831089 ], [ 144.884527399473313, -37.664983756055392 ], [ 144.884455511752236, -37.664912165238668 ], [ 144.884450374074447, -37.664740508722971 ], [ 144.884531531853668, -37.664634735202092 ] ] } },
{ "type": "Feature", "properties": { "gid": 1277, "osm_id": null, "code": null, "fclass": "tertiary", "name": null, "pixel_count": 93, "Var_line": 89.578262329101562, "Edge_contrast": 43.0689697265625, "ROI": 5550.9999999999991, "Road_detected": -1, "ROI_norm": -0.52918150584060664, "Pred": 0 }, "geometry": { "type": "LineString", "coordinates": [ [ 144.867116906438014, -37.676151641558768 ], [ 144.867019711358807, -37.676142951144172 ], [ 144.866933385347579, -37.676095651279212 ], [ 144.866868689357204, -37.676032640730838 ], [ 144.866886764186319, -37.675991178523162 ] ] } },
{ "type": "Feature", "properties": { "gid": 1289, "osm_id": null, "code": null, "fclass": "tertiary", "name": null, "pixel_count": 75, "Var_line": 103.24732971191406, "Edge_contrast": 23.213554382324219, "ROI": 4935.3333333333339, "Road_detected": -1, "ROI_norm": -0.58002795222300063, "Pred": 0 }, "geometry": { "type": "LineString", "coordinates": [ [ 144.886979776985186, -37.683678883296807 ], [ 144.886916238171807, -37.684030706505709 ], [ 144.886863868979503, -37.684136508083455 ] ] } },
{ "type": "Feature", "properties": { "gid": 1303, "osm_id": null, "code": null, "fclass": "tertiary", "name": null, "pixel_count": 92, "Var_line": 67.504585266113281, "Edge_contrast": 15.63498592376709, "ROI": 2477.0, "Road_detected": -1, "ROI_norm": -0.783055858054163, "Pred": 0 }, "geometry": { "type": "LineString", "coordinates": [ [ 144.85930839760951, -37.67769902498933 ], [ 144.859135722493193, -37.677620148758542 ], [ 144.859107076074253, -37.677535720088059 ], [ 144.859136044712926, -37.677447067909405 ] ] } },
{ "type": "Feature", "properties": { "gid": 1343, "osm_id": null, "code": null, "fclass": "unclassified", "name": null, "pixel_count": 119, "Var_line": 28.622062683105469, "Edge_contrast": 39.635902404785156, "ROI": 11862.999999999998, "Road_detected": -1, "ROI_norm": -0.0078884312888930219, "Pred": 0 }, "geometry": { "type": "LineString", "coordinates": [ [ 144.85179747349116, -37.674211175031402 ], [ 144.851700181742075, -37.674253967365679 ], [ 144.850403759526699, -37.674413993204219 ], [ 144.849950029035085, -37.674460629668246 ], [ 144.84963680337421, -37.674460236853299 ] ] } },
{ "type": "Feature", "properties": { "gid": 1356, "osm_id": null, "code": null, "fclass": "unclassified", "name": null, "pixel_count": 123, "Var_line": 23.289707183837891, "Edge_contrast": 4.561622142791748, "ROI": 6761.0, "Road_detected": -1, "ROI_norm": -0.42925048236031926, "Pred": 0 }, "geometry": { "type": "LineString", "coordinates": [ [ 144.860832998768188, -37.663121892587995 ], [ 144.861301367053073, -37.663886286023747 ], [ 144.86188666092491, -37.664693725210398 ], [ 144.862180846761419, -37.66524334925731 ], [ 144.86226886102952, -37.665343580602645 ] ] } },
{ "type": "Feature", "properties": { "gid": 1502, "osm_id": null, "code": null, "fclass": "unclassified", "name": null, "pixel_count": 69, "Var_line": 22.475959777832031, "Edge_contrast": 7.5710930824279785, "ROI": 4288.5, "Road_detected": -1, "ROI_norm": -0.63344837951322053, "Pred": 0 }, "geometry": { "type": "LineString", "coordinates": [ [ 144.852768111391924, -37.678652408568425 ], [ 144.852541235630497, -37.678675016246942 ], [ 144.852451312499539, -37.67862913197677 ] ] } },
{ "type": "Feature", "properties": { "gid": 1532, "osm_id": null, "code": null, "fclass": "unclassified", "name": null, "pixel_count": 75, "Var_line": 59.900310516357422, "Edge_contrast": 16.01922607421875, "ROI": 7166.8333333333321, "Road_detected": -1, "ROI_norm": -0.39573367214344612, "Pred": 0 }, "geometry": { "type": "LineString", "coordinates": [ [ 144.849151862705043, -37.672102285217974 ], [ 144.848795850488443, -37.671898715719927 ], [ 144.848432192904994, -37.67191828203454 ] ] } },
{ "type": "Feature", "properties": { "gid": 1558, "osm_id": null, "code": null, "fclass": "unclassified", "name": null, "pixel_count": 347, "Var_line": 15.385302543640137, "Edge_contrast": 5.4665040969848633, "ROI": 22452.0, "Road_detected": -1, "ROI_norm": 0.86663190559768766, "Pred": 0 }, "geometry": { "type": "LineString", "coordinates": [ [ 144.868633218905018, -37.665465165374947 ], [ 144.868299768093948, -37.665730859035541 ], [ 144.867995039234529, -37.666039496286608 ], [ 144.867800400004171, -37.666179463657826 ], [ 144.867670735998672, -37.666217942044398 ], [ 144.867195546187077, -37.66621884646564 ], [ 144.866504511007719, -37.666135113265696 ], [ 144.865986637119875, -37.665845588134133 ], [ 144.8655118105969, -37.665643365283906 ], [ 144.864777826878793, -37.665423683035378 ], [ 144.864238018929314, -37.665327233512762 ], [ 144.863849323985221, -37.665276727199902 ], [ 144.863395741773644, -37.66527621067123 ], [ 144.86226886102952, -37.665343580602645 ] ] } },
{ "type": "Feature", "properties": { "gid": 1595, "osm_id": null, "code": null, "fclass": "unclassified", "name": null, "pixel_count": 150, "Var_line": 35.791465759277344, "Edge_contrast": 22.98594856262207, "ROI": 26677.333333333332, "Road_detected": -1, "ROI_norm": 1.2155921407591537, "Pred": 0 }, "geometry": { "type": "LineString", "coordinates": [ [ 144.857319568466096, -37.678429049037248 ], [ 144.857434649332106, -37.677545184548393 ], [ 144.857355698480575, -37.677407769900711 ], [ 144.85718849420681, -37.677293136777685 ], [ 144.853192785737406, -37.67689207864084 ], [ 144.852656327310285, -37.676889989492864 ] ] } },
{ "type": "Feature", "properties": { "gid": 1651, "osm_id": null, "code": null, "fclass": "unclassified", "name": null, "pixel_count": 97, "Var_line": 14.313091278076172, "Edge_contrast": 15.111552238464355, "ROI": 3154.3333333333335, "Road_detected": -1, "ROI_norm": -0.72711650827125829, "Pred": 0 }, "geometry": { "type": "LineString", "coordinates": [ [ 144.85714648596479, -37.67856616333561 ], [ 144.857216565968201, -37.678634907191537 ], [ 144.857301137112245, -37.6786564643171 ], [ 144.857382161731749, -37.678649408703798 ], [ 144.8574632860375, -37.678589427509785 ] ] } },
{ "type": "Feature", "properties": { "gid": 1676, "osm_id": null, "code": null, "fclass": "unclassified", "name": null, "pixel_count": 100, "Var_line": 65.93939208984375, "Edge_contrast": 34.618885040283203, "ROI": 9548.8333333333339, "Road_detected": -1, "ROI_norm": -0.19900995484588863, "Pred": 0 }, "geometry": { "type": "LineString", "coordinates": [ [ 144.849608046502368, -37.674437313944395 ], [ 144.849498766718227, -37.674171117567063 ], [ 144.849352556306258, -37.67346716436456 ], [ 144.849351149178233, -37.673269763829737 ] ] } }
]
}
