{
"type": "FeatureCollection",
"crs": { "type": "name", "properties": { "name": "urn:ogc:def:crs:OGC:1.3:CRS84" } },
"features": [
{ "type": "Feature", "properties": { "gid": 77, "fclass": "residential", "length": 54.691195225656315, "status": "disappeared" }, "geometry": { "type": "LineString", "coordinates": [ [ 144.85192074439172, -37.670091699399457 ], [ 144.852080861595567, -37.67013624051534 ], [ 144.852224691982258, -37.670225104572758 ], [ 144.852352129690928, -37.670412647734807 ] ] } },
{ "type": "Feature", "properties": { "gid": 82, "fclass": "residential", "length": 39.439384183980863, "status": "disappeared" }, "geometry": { "type": "LineString", "coordinates": [ [ 144.88323812035145, -37.681661263070964 ], [ 144.883211314272444, -37.681532499075722 ], [ 144.883296260106107, -37.681318018748996 ] ] } },
{ "type": "Feature", "properties": { "gid": 118, "fclass": "residential", "length": 37.329496823906624, "status": "disappeared" }, "geometry": { "type": "LineString", "coordinates": [ [ 144.883005839178679, -37.682851146152196 ], [ 144.882951709242207, -37.682928335952056 ], [ 144.882890120956489, -37.683171447141852 ] ] } },
{ "type": "Feature", "properties": { "gid": 119, "fclass": "residential", "length": 318.26294106138806, "status": "disappeared" }, "geometry": { "type": "LineString", "coordinates": [ [ 144.851952788595241, -37.697876217993759 ], [ 144.851439759117369, -37.695037642974 ] ] } },
{ "type": "Feature", "properties": { "gid": 179, "fclass": "residential", "length": 35.412609403075948, "status": "disappeared" }, "geometry": { "type": "LineString", "coordinates": [ [ 144.875763015121379, -37.690533780822804 ], [ 144.875607986031383, -37.690645192396289 ], [ 144.87541716248063, -37.690624968281732 ] ] } },
{ "type": "Feature", "properties": { "gid": 207, "fclass": "residential", "length": 29.476114462287963, "status": "disappeared" }, "geometry": { "type": "LineString", "coordinates": [ [ 144.883660237871766, -37.688138610585113 ], [ 144.883631575503728, -37.688044175212461 ], [ 144.883649712210968, -37.68795836779551 ], [ 144.883746977130784, -37.687932714713639 ] ] } },
{ "type": "Feature", "properties": { "gid": 217, "fclass": "residential", "length": 167.35020203399787, "status": "disappeared" }, "geometry": { "type": "LineString", "coordinates": [ [ 144.863073924121665, -37.681983211548804 ], [ 144.863095388277031, -37.682060478809447 ], [ 144.863069966220024, -37.682180605100015 ], [ 144.862994181342856, -37.68227492621444 ], [ 144.861833376750553, -37.683034576644779 ] ] } },
{ "type": "Feature", "properties": { "gid": 238, "fclass": "residential", "length": 33.021715663451204, "status": "disappeared" }, "geometry": { "type": "LineString", "coordinates": [ [ 144.881060179508466, -37.692827821545457 ], [ 144.881002385272353, -37.692939336494078 ], [ 144.881088557177407, -37.693102489313944 ] ] } },
{ "type": "Feature", "properties": { "gid": 267, "fclass": "residential", "length": 25.017263129144325, "status": "disappeared" }, "geometry": { "type": "LineString", "coordinates": [ [ 144.883092963156429, -37.682393496767254 ], [ 144.882977422995879, -37.682599364459016 ] ] } },
{ "type": "Feature", "properties": { "gid": 280, "fclass": "residential", "length": 48.887068039266843, "status": "disappeared" }, "geometry": { "type": "LineString", "coordinates": [ [ 144.849202533081325, -37.675581144043214 ], [ 144.849429309478978, -37.67560431613645 ], [ 144.849749831464379, -37.675558945052543 ] ] } },
{ "type": "Feature", "properties": { "gid": 302, "fclass": "residential", "length": 267.23506580966051, "status": "disappeared" }, "geometry": { "type": "LineString", "coordinates": [ [ 144.859451437812879, -37.678225588633033 ], [ 144.86009117801683, -37.677871592672787 ], [ 144.86030032941261, -37.677695894737241 ], [ 144.860938308270249, -37.677316144515551 ], [ 144.861473682035125, -37.676929120108191 ], [ 144.861614174012658, -37.676887800223952 ], [ 144.861787304673669, -37.676717779706642 ] ] } },
{ "type": "Feature", "properties": { "gid": 305, "fclass": "residential", "length": 32.157364267846582, "status": "disappeared" }, "geometry": { "type": "LineString", "coordinates": [ [ 144.851574732008061, -37.67029725264419 ], [ 144.851591083932618, -37.670220029825913 ], [ 144.851776785732028, -37.670068634480778 ] ] } },
{ "type": "Feature", "properties": { "gid": 343, "fclass": "residential", "length": 26.964457711227137, "status": "disappeared" }, "geometry": { "type": "LineString", "coordinates": [ [ 144.86428160899527, -37.683174695854227 ], [ 144.864362435217856, -37.683280638496981 ], [ 144.864511849541941, -37.683289390109721 ] ] } },
{ "type": "Feature", "properties": { "gid": 362, "fclass": "residential", "length": 28.063067356065755, "status": "disappeared" }, "geometry": { "type": "LineString", "coordinates": [ [ 144.850383854610413, -37.675376644359559 ], [ 144.850066979467556, -37.675399134911451 ] ] } },
{ "type": "Feature", "properties": { "gid": 395, "fclass": "residential", "length": 28.063067356065755, "status": "disappeared" }, "geometry": { "type": "LineString", "coordinates": [ [ 144.851247755913306, -37.675469267566648 ], [ 144.850930880639339, -37.675491760403233 ] ] } },
{ "type": "Feature", "properties": { "gid": 411, "fclass": "residential", "length": 112.93044871870374, "status": "disappeared" }, "geometry": { "type": "LineString", "coordinates": [ [ 144.885677598641365, -37.687591272542363 ], [ 144.885706133733834, -37.687771532358099 ], [ 144.885597872219734, -37.687925914084154 ], [ 144.885666030627277, -37.688097629216848 ], [ 144.885561430101944, -37.688211962707626 ], [ 144.885647541591339, -37.68841802498833 ], [ 144.885589757485917, -37.688529542336639 ] ] } },
{ "type": "Feature", "properties": { "gid": 423, "fclass": "residential", "length": 28.063067356065755, "status": "disappeared" }, "geometry": { "type": "LineString", "coordinates": [ [ 144.850498929789097, -37.675445448436612 ], [ 144.850815804997552, -37.675422956742388 ] ] } },
{ "type": "Feature", "properties": { "gid": 448, "fclass": "residential", "length": 71.573251816625231, "status": "disappeared" }, "geometry": { "type": "LineString", "coordinates": [ [ 144.856687097014287, -37.677787464413598 ], [ 144.856686365506192, -37.67817367779903 ], [ 144.856628275502175, -37.678428223578081 ] ] } },
{ "type": "Feature", "properties": { "gid": 464, "fclass": "residential", "length": 49.934123384311036, "status": "disappeared" }, "geometry": { "type": "LineString", "coordinates": [ [ 144.87541716248063, -37.690624968281732 ], [ 144.875474991435425, -37.690496290966649 ], [ 144.875593967533746, -37.690410589614388 ], [ 144.875701975694739, -37.690425005888265 ], [ 144.875763052706162, -37.690510894205673 ] ] } },
{ "type": "Feature", "properties": { "gid": 471, "fclass": "residential", "length": 102.73727985734982, "status": "disappeared" }, "geometry": { "type": "LineString", "coordinates": [ [ 144.851211483288012, -37.693915914816721 ], [ 144.851382543395658, -37.694831592377881 ] ] } },
{ "type": "Feature", "properties": { "gid": 573, "fclass": "trunk", "length": 2.5400000000372529, "status": "disappeared" }, "geometry": { "type": "LineString", "coordinates": [ [ 144.849038391881606, -37.671232442783925 ], [ 144.849038346223608, -37.671255329558029 ] ] } },
{ "type": "Feature", "properties": { "gid": 575, "fclass": "trunk", "length": 20.380000130741962, "status": "disappeared" }, "geometry": { "type": "LineString", "coordinates": [ [ 144.876128503388827, -37.678449977347448 ], [ 144.876209387956152, -37.67852730378322 ], [ 144.876214652963029, -37.67861027372706 ] ] } },
{ "type": "Feature", "properties": { "gid": 643, "fclass": "trunk", "length": 27.26050758061761, "status": "disappeared" }, "geometry": { "type": "LineString", "coordinates": [ [ 144.887063495761367, -37.685487011889556 ], [ 144.886940969498909, -37.685552695562883 ], [ 144.88689763557619, -37.685635618927613 ], [ 144.886919189237005, -37.685669969318347 ] ] } },
{ "type": "Feature", "properties": { "gid": 657, "fclass": "trunk", "length": 76.674706504735809, "status": "disappeared" }, "geometry": { "type": "LineString", "coordinates": [ [ 144.870858735110374, -37.694533756513117 ], [ 144.870740025796465, -37.694456386141617 ], [ 144.870459216651795, -37.694404587939587 ], [ 144.870178555177347, -37.694266964394423 ], [ 144.870081336471429, -37.694258276523755 ] ] } },
{ "type": "Feature", "properties": { "gid": 660, "fclass": "trunk", "length": 22.744773823224364, "status": "disappeared" }, "geometry": { "type": "LineString", "coordinates": [ [ 144.856989364854712, -37.670258066889915 ], [ 144.857079529336005, -37.670172348879511 ], [ 144.857191186157905, -37.670143873523735 ] ] } },
{ "type": "Feature", "properties": { "gid": 662, "fclass": "trunk", "length": 22.133962738951205, "status": "disappeared" }, "geometry": { "type": "LineString", "coordinates": [ [ 144.879999097763488, -37.689759952563584 ], [ 144.880009778326126, -37.68983720574294 ], [ 144.880085232141028, -37.689943132097852 ] ] } },
{ "type": "Feature", "properties": { "gid": 663, "fclass": "trunk", "length": 143.98883472839094, "status": "disappeared" }, "geometry": { "type": "LineString", "coordinates": [ [ 144.860112994284975, -37.678729871916865 ], [ 144.859658401431886, -37.678260161456706 ], [ 144.859491085534728, -37.678202748381089 ], [ 144.85940838627198, -37.678142573573652 ], [ 144.859307956094995, -37.677936474724625 ], [ 144.859106687199557, -37.677744561434771 ] ] } },
{ "type": "Feature", "properties": { "gid": 664, "fclass": "trunk", "length": 25.533814647353381, "status": "disappeared" }, "geometry": { "type": "LineString", "coordinates": [ [ 144.887077808588629, -37.675897482250178 ], [ 144.887365803743762, -37.67592064020014 ] ] } },
{ "type": "Feature", "properties": { "gid": 693, "fclass": "trunk", "length": 24.941620492510772, "status": "disappeared" }, "geometry": { "type": "LineString", "coordinates": [ [ 144.848316390941818, -37.672215664153988 ], [ 144.848240964854199, -37.672126882162623 ], [ 144.848230399555064, -37.672009573797297 ] ] } },
{ "type": "Feature", "properties": { "gid": 719, "fclass": "trunk", "length": 20.478223577667311, "status": "disappeared" }, "geometry": { "type": "LineString", "coordinates": [ [ 144.867176802417134, -37.674847161040468 ], [ 144.867205283608797, -37.675030286969125 ] ] } },
{ "type": "Feature", "properties": { "gid": 725, "fclass": "trunk", "length": 55.713901349035538, "status": "disappeared" }, "geometry": { "type": "LineString", "coordinates": [ [ 144.874970221208287, -37.682156426551906 ], [ 144.874538748921111, -37.681789787723361 ] ] } },
{ "type": "Feature", "properties": { "gid": 731, "fclass": "trunk", "length": 57.511876089503446, "status": "disappeared" }, "geometry": { "type": "LineString", "coordinates": [ [ 144.878842335821588, -37.674539114393639 ], [ 144.878723539668641, -37.674530411617738 ], [ 144.878595818529504, -37.674474495665947 ], [ 144.878382012376505, -37.674218232738262 ] ] } },
{ "type": "Feature", "properties": { "gid": 743, "fclass": "primary", "length": 29.32699575679657, "status": "disappeared" }, "geometry": { "type": "LineString", "coordinates": [ [ 144.874397876568452, -37.679890040642668 ], [ 144.874153150672669, -37.679822553950139 ], [ 144.874110022594408, -37.679775304709764 ] ] } },
{ "type": "Feature", "properties": { "gid": 744, "fclass": "primary", "length": 10.160000000149012, "status": "disappeared" }, "geometry": { "type": "LineString", "coordinates": [ [ 144.887114362223116, -37.670702212802368 ], [ 144.887114498790027, -37.670610665635195 ] ] } },
{ "type": "Feature", "properties": { "gid": 750, "fclass": "primary", "length": 2.5400000000372529, "status": "disappeared" }, "geometry": { "type": "LineString", "coordinates": [ [ 144.870222637607412, -37.69586049295593 ], [ 144.870222676871037, -37.695837606386995 ] ] } },
{ "type": "Feature", "properties": { "gid": 751, "fclass": "primary", "length": 2.5407166122458875, "status": "disappeared" }, "geometry": { "type": "LineString", "coordinates": [ [ 144.870222637607412, -37.69586049295593 ], [ 144.870193827090702, -37.695860461744523 ] ] } },
{ "type": "Feature", "properties": { "gid": 755, "fclass": "primary", "length": 24.574794137369111, "status": "disappeared" }, "geometry": { "type": "LineString", "coordinates": [ [ 144.855171303693623, -37.687192088325126 ], [ 144.855189521757637, -37.687080537723276 ], [ 144.855258119395813, -37.686986213016802 ] ] } },
{ "type": "Feature", "properties": { "gid": 757, "fclass": "primary", "length": 25.526755393560435, "status": "disappeared" }, "geometry": { "type": "LineString", "coordinates": [ [ 144.854481867602004, -37.686184238171258 ], [ 144.854511114541765, -37.685955406675902 ] ] } },
{ "type": "Feature", "properties": { "gid": 759, "fclass": "primary", "length": 22.55356587531687, "status": "disappeared" }, "geometry": { "type": "LineString", "coordinates": [ [ 144.887185001433522, -37.68127597090136 ], [ 144.887325438442303, -37.681267520560681 ], [ 144.887386534029588, -37.681344820736513 ] ] } },
{ "type": "Feature", "properties": { "gid": 773, "fclass": "primary", "length": 31.236697863246842, "status": "disappeared" }, "geometry": { "type": "LineString", "coordinates": [ [ 144.885828335964305, -37.683151396937284 ], [ 144.88603355060232, -37.683168757393702 ], [ 144.886116220551372, -37.683266104562335 ] ] } },
{ "type": "Feature", "properties": { "gid": 774, "fclass": "primary", "length": 25.021992591493184, "status": "disappeared" }, "geometry": { "type": "LineString", "coordinates": [ [ 144.88080075096758, -37.692919110241107 ], [ 144.880541321800621, -37.693010398371833 ] ] } },
{ "type": "Feature", "properties": { "gid": 784, "fclass": "primary", "length": 28.968060850402072, "status": "disappeared" }, "geometry": { "type": "LineString", "coordinates": [ [ 144.879074547224974, -37.673417895967212 ], [ 144.878757615485171, -37.673486235969307 ] ] } },
{ "type": "Feature", "properties": { "gid": 793, "fclass": "primary", "length": 37.40458920233894, "status": "disappeared" }, "geometry": { "type": "LineString", "coordinates": [ [ 144.878525984381923, -37.692184452937383 ], [ 144.878702600788984, -37.692084502833829 ], [ 144.878830491494995, -37.692053163120761 ], [ 144.878900686126457, -37.692070399077686 ] ] } },
{ "type": "Feature", "properties": { "gid": 795, "fclass": "primary", "length": 18.496302449875024, "status": "disappeared" }, "geometry": { "type": "LineString", "coordinates": [ [ 144.880185865559298, -37.680971646916824 ], [ 144.879984304207056, -37.680925671658912 ] ] } },
{ "type": "Feature", "properties": { "gid": 798, "fclass": "primary", "length": 2.5407166122458875, "status": "disappeared" }, "geometry": { "type": "LineString", "coordinates": [ [ 144.870222794661771, -37.695768946678932 ], [ 144.870251605143665, -37.695768977883404 ] ] } },
{ "type": "Feature", "properties": { "gid": 799, "fclass": "primary", "length": 2.5400000000372529, "status": "disappeared" }, "geometry": { "type": "LineString", "coordinates": [ [ 144.870222794661771, -37.695768946678932 ], [ 144.870222755398231, -37.695791833248506 ] ] } },
{ "type": "Feature", "properties": { "gid": 809, "fclass": "primary", "length": 56.783373428653924, "status": "disappeared" }, "geometry": { "type": "LineString", "coordinates": [ [ 144.882434742179839, -37.67962355744757 ], [ 144.882602575771188, -37.679360524439794 ], [ 144.882705241873822, -37.679327725314899 ], [ 144.88286726786211, -37.679326453446556 ] ] } },
{ "type": "Feature", "properties": { "gid": 813, "fclass": "primary", "length": 28.427556292395447, "status": "disappeared" }, "geometry": { "type": "LineString", "coordinates": [ [ 144.879068146317053, -37.677423076972197 ], [ 144.879251627103002, -37.677511948305998 ], [ 144.879356071843517, -37.677492027629896 ] ] } },
{ "type": "Feature", "properties": { "gid": 819, "fclass": "primary", "length": 2.5400000000372529, "status": "disappeared" }, "geometry": { "type": "LineString", "coordinates": [ [ 144.871575896439595, -37.679383539758717 ], [ 144.871575935285307, -37.679360653046452 ] ] } },
{ "type": "Feature", "properties": { "gid": 820, "fclass": "primary", "length": 2.5407166122458875, "status": "disappeared" }, "geometry": { "type": "LineString", "coordinates": [ [ 144.871575896439595, -37.679383539758717 ], [ 144.871547092196266, -37.679383508872512 ] ] } },
{ "type": "Feature", "properties": { "gid": 837, "fclass": "primary", "length": 20.945724232236241, "status": "disappeared" }, "geometry": { "type": "LineString", "coordinates": [ [ 144.884020807496142, -37.697224954222932 ], [ 144.883963466268938, -37.697041805933374 ] ] } },
{ "type": "Feature", "properties": { "gid": 842, "fclass": "primary", "length": 27.082180872146992, "status": "disappeared" }, "geometry": { "type": "LineString", "coordinates": [ [ 144.884329670689112, -37.683653466886042 ], [ 144.88446995079741, -37.683750870790576 ], [ 144.88458874899672, -37.683768150341145 ] ] } },
{ "type": "Feature", "properties": { "gid": 844, "fclass": "primary", "length": 26.772715238538275, "status": "disappeared" }, "geometry": { "type": "LineString", "coordinates": [ [ 144.880822348115885, -37.679210002519632 ], [ 144.880638804954401, -37.679156894144135 ], [ 144.880563291124588, -37.6790953107216 ] ] } },
{ "type": "Feature", "properties": { "gid": 850, "fclass": "primary", "length": 24.59022023397516, "status": "disappeared" }, "geometry": { "type": "LineString", "coordinates": [ [ 144.854857845045103, -37.670392823732911 ], [ 144.854739025213405, -37.670401262242493 ], [ 144.854598505794456, -37.670461169673978 ] ] } },
{ "type": "Feature", "properties": { "gid": 857, "fclass": "primary", "length": 10.472862115835762, "status": "disappeared" }, "geometry": { "type": "LineString", "coordinates": [ [ 144.871547286468314, -37.679269075309307 ], [ 144.871575935285307, -37.679360653046452 ] ] } },
{ "type": "Feature", "properties": { "gid": 860, "fclass": "primary", "length": 20.945724232123272, "status": "disappeared" }, "geometry": { "type": "LineString", "coordinates": [ [ 144.869373181876909, -37.687254189724506 ], [ 144.869431112343875, -37.687071159381276 ] ] } },
{ "type": "Feature", "properties": { "gid": 864, "fclass": "primary", "length": 47.739968955699126, "status": "disappeared" }, "geometry": { "type": "LineString", "coordinates": [ [ 144.872873128322908, -37.695909107906338 ], [ 144.873035264415563, -37.695863506617151 ], [ 144.873165041261728, -37.695786401765005 ], [ 144.873292940520258, -37.695755068007628 ], [ 144.87336313732493, -37.695772307184818 ] ] } },
{ "type": "Feature", "properties": { "gid": 875, "fclass": "primary", "length": 3.5926092055679342, "status": "disappeared" }, "geometry": { "type": "LineString", "coordinates": [ [ 144.870164977292916, -37.695883317094939 ], [ 144.870193827090702, -37.695860461744523 ] ] } },
{ "type": "Feature", "properties": { "gid": 879, "fclass": "primary", "length": 5.0800000000745058, "status": "disappeared" }, "geometry": { "type": "LineString", "coordinates": [ [ 144.870222676871037, -37.695837606386995 ], [ 144.870222755398231, -37.695791833248506 ] ] } },
{ "type": "Feature", "properties": { "gid": 880, "fclass": "primary", "length": 3.5926092055679342, "status": "disappeared" }, "geometry": { "type": "LineString", "coordinates": [ [ 144.870222676871037, -37.695837606386995 ], [ 144.870193827090702, -37.695860461744523 ] ] } },
{ "type": "Feature", "properties": { "gid": 883, "fclass": "primary", "length": 3.5926092055679342, "status": "disappeared" }, "geometry": { "type": "LineString", "coordinates": [ [ 144.870222755398231, -37.695791833248506 ], [ 144.870251605143665, -37.695768977883404 ] ] } },
{ "type": "Feature", "properties": { "gid": 892, "fclass": "primary", "length": 37.644886978123907, "status": "disappeared" }, "geometry": { "type": "LineString", "coordinates": [ [ 144.881822380045975, -37.684406280986934 ], [ 144.881912278734376, -37.684483612278363 ], [ 144.882196646308699, -37.684543969873175 ] ] } },
{ "type": "Feature", "properties": { "gid": 895, "fclass": "primary", "length": 25.776127916916732, "status": "disappeared" }, "geometry": { "type": "LineString", "coordinates": [ [ 144.884795164762494, -37.680632867649848 ], [ 144.88489243293381, -37.68059863105232 ], [ 144.8850258112235, -37.680495768821942 ] ] } },
{ "type": "Feature", "properties": { "gid": 899, "fclass": "primary", "length": 19.220187479262933, "status": "disappeared" }, "geometry": { "type": "LineString", "coordinates": [ [ 144.854971759120247, -37.686093285464082 ], [ 144.855041844119938, -37.686162030397185 ], [ 144.855144424585291, -37.686185041184991 ] ] } },
{ "type": "Feature", "properties": { "gid": 900, "fclass": "primary", "length": 3.5926092055679342, "status": "disappeared" }, "geometry": { "type": "LineString", "coordinates": [ [ 144.871575935285307, -37.679360653046452 ], [ 144.871547092196266, -37.679383508872512 ] ] } },
{ "type": "Feature", "properties": { "gid": 904, "fclass": "tertiary", "length": 34.297754848635606, "status": "disappeared" }, "geometry": { "type": "LineString", "coordinates": [ [ 144.854453016747925, -37.686207089821878 ], [ 144.854487637537233, -37.685992569052431 ], [ 144.854540009284904, -37.685909668359272 ] ] } },
{ "type": "Feature", "properties": { "gid": 906, "fclass": "tertiary", "length": 12.951650122994881, "status": "disappeared" }, "geometry": { "type": "LineString", "coordinates": [ [ 144.887114362223116, -37.670702212802368 ], [ 144.88714333383291, -37.670587805985605 ] ] } },
{ "type": "Feature", "properties": { "gid": 913, "fclass": "tertiary", "length": 2.5400000000372529, "status": "disappeared" }, "geometry": { "type": "LineString", "coordinates": [ [ 144.870222637607412, -37.69586049295593 ], [ 144.870222676871037, -37.695837606386995 ] ] } },
{ "type": "Feature", "properties": { "gid": 914, "fclass": "tertiary", "length": 2.5407166122458875, "status": "disappeared" }, "geometry": { "type": "LineString", "coordinates": [ [ 144.870222637607412, -37.69586049295593 ], [ 144.870193827090702, -37.695860461744523 ] ] } },
{ "type": "Feature", "properties": { "gid": 915, "fclass": "tertiary", "length": 2.5400000000372529, "status": "disappeared" }, "geometry": { "type": "LineString", "coordinates": [ [ 144.870222637607412, -37.69586049295593 ], [ 144.870222598343759, -37.695883379524709 ] ] } },
{ "type": "Feature", "properties": { "gid": 918, "fclass": "tertiary", "length": 33.021378266272457, "status": "disappeared" }, "geometry": { "type": "LineString", "coordinates": [ [ 144.855142452663472, -37.687214940133117 ], [ 144.855287014081028, -37.686940474537842 ] ] } },
{ "type": "Feature", "properties": { "gid": 926, "fclass": "tertiary", "length": 37.547810947915735, "status": "disappeared" }, "geometry": { "type": "LineString", "coordinates": [ [ 144.878900722762722, -37.692047512472932 ], [ 144.878673791706916, -37.692084473661559 ], [ 144.878525984381923, -37.692184452937383 ] ] } },
{ "type": "Feature", "properties": { "gid": 929, "fclass": "tertiary", "length": 33.32637409094496, "status": "disappeared" }, "geometry": { "type": "LineString", "coordinates": [ [ 144.885828335964305, -37.683151396937284 ], [ 144.88603355060232, -37.683168757393702 ], [ 144.886082102053479, -37.68320742491035 ], [ 144.886087380366263, -37.683288963855787 ] ] } },
{ "type": "Feature", "properties": { "gid": 932, "fclass": "tertiary", "length": 10.15999999968335, "status": "disappeared" }, "geometry": { "type": "LineString", "coordinates": [ [ 144.87154716990517, -37.679337735447824 ], [ 144.871547325322666, -37.679246188596053 ] ] } },
{ "type": "Feature", "properties": { "gid": 933, "fclass": "tertiary", "length": 2.5400000000372529, "status": "disappeared" }, "geometry": { "type": "LineString", "coordinates": [ [ 144.87154716990517, -37.679337735447824 ], [ 144.871547131050704, -37.679360622160289 ] ] } },
{ "type": "Feature", "properties": { "gid": 934, "fclass": "tertiary", "length": 3.5926092055679342, "status": "disappeared" }, "geometry": { "type": "LineString", "coordinates": [ [ 144.87154716990517, -37.679337735447824 ], [ 144.871575935285307, -37.679360653046452 ] ] } },
{ "type": "Feature", "properties": { "gid": 952, "fclass": "tertiary", "length": 67.981976514775752, "status": "disappeared" }, "geometry": { "type": "LineString", "coordinates": [ [ 144.882924911726974, -37.679303623051318 ], [ 144.882676435429403, -37.679329127524795 ], [ 144.88259176308361, -37.679367665951325 ], [ 144.882405866700879, -37.679669302599187 ] ] } },
{ "type": "Feature", "properties": { "gid": 954, "fclass": "tertiary", "length": 19.02427067613273, "status": "disappeared" }, "geometry": { "type": "LineString", "coordinates": [ [ 144.880185865559298, -37.680971646916824 ], [ 144.880088717195463, -37.680928637071084 ], [ 144.879984304207056, -37.680925671658912 ] ] } },
{ "type": "Feature", "properties": { "gid": 956, "fclass": "tertiary", "length": 20.399567599935793, "status": "disappeared" }, "geometry": { "type": "LineString", "coordinates": [ [ 144.855000653637546, -37.686047547038733 ], [ 144.855016717648709, -37.686120517843555 ], [ 144.855144468405143, -37.686162154537151 ] ] } },
{ "type": "Feature", "properties": { "gid": 958, "fclass": "tertiary", "length": 2.5407166122458875, "status": "disappeared" }, "geometry": { "type": "LineString", "coordinates": [ [ 144.870222794661771, -37.695768946678932 ], [ 144.870251605143665, -37.695768977883404 ] ] } },
{ "type": "Feature", "properties": { "gid": 959, "fclass": "tertiary", "length": 2.5400000000372529, "status": "disappeared" }, "geometry": { "type": "LineString", "coordinates": [ [ 144.870222794661771, -37.695768946678932 ], [ 144.870222755398231, -37.695791833248506 ] ] } },
{ "type": "Feature", "properties": { "gid": 968, "fclass": "tertiary", "length": 31.194391029346654, "status": "disappeared" }, "geometry": { "type": "LineString", "coordinates": [ [ 144.880829632474587, -37.692873365705815 ], [ 144.880645825964791, -37.692966159678278 ], [ 144.880512548514361, -37.69298748304471 ] ] } },
{ "type": "Feature", "properties": { "gid": 979, "fclass": "tertiary", "length": 29.730917484593085, "status": "disappeared" }, "geometry": { "type": "LineString", "coordinates": [ [ 144.869459998492772, -37.687025417485721 ], [ 144.869344335113027, -37.68727704495204 ] ] } },
{ "type": "Feature", "properties": { "gid": 984, "fclass": "tertiary", "length": 24.097235694884535, "status": "disappeared" }, "geometry": { "type": "LineString", "coordinates": [ [ 144.884020807496142, -37.697224954222932 ], [ 144.883934690412588, -37.697018891463387 ] ] } },
{ "type": "Feature", "properties": { "gid": 987, "fclass": "tertiary", "length": 31.174480027632136, "status": "disappeared" }, "geometry": { "type": "LineString", "coordinates": [ [ 144.880822348115885, -37.679210002519632 ], [ 144.880595632573545, -37.679135394784147 ], [ 144.880592167498492, -37.679049566004267 ] ] } },
{ "type": "Feature", "properties": { "gid": 995, "fclass": "tertiary", "length": 39.152730947515593, "status": "disappeared" }, "geometry": { "type": "LineString", "coordinates": [ [ 144.879442518887942, -37.677469227903153 ], [ 144.879215640952651, -37.677500468639089 ], [ 144.879113108364919, -37.677450300396281 ], [ 144.879097022956671, -37.677377332586573 ] ] } },
{ "type": "Feature", "properties": { "gid": 1000, "fclass": "tertiary", "length": 2.5407166122458875, "status": "disappeared" }, "geometry": { "type": "LineString", "coordinates": [ [ 144.871547131050704, -37.679360622160289 ], [ 144.871575935285307, -37.679360653046452 ] ] } },
{ "type": "Feature", "properties": { "gid": 1006, "fclass": "tertiary", "length": 47.406080505743091, "status": "disappeared" }, "geometry": { "type": "LineString", "coordinates": [ [ 144.872873128322908, -37.695909107906338 ], [ 144.873035264415563, -37.695863506617151 ], [ 144.873165041261728, -37.695786401765005 ], [ 144.873363175638389, -37.695749420614064 ] ] } },
{ "type": "Feature", "properties": { "gid": 1009, "fclass": "tertiary", "length": 32.75565071292209, "status": "disappeared" }, "geometry": { "type": "LineString", "coordinates": [ [ 144.884358546525448, -37.683607721339349 ], [ 144.884374631774534, -37.683684979523434 ], [ 144.884455556579894, -37.683745135229074 ], [ 144.88461758981731, -37.683745291412649 ] ] } },
{ "type": "Feature", "properties": { "gid": 1012, "fclass": "tertiary", "length": 37.510853267617783, "status": "disappeared" }, "geometry": { "type": "LineString", "coordinates": [ [ 144.879103422332292, -37.673372151511344 ], [ 144.878728740125268, -37.673531980339874 ] ] } },
{ "type": "Feature", "properties": { "gid": 1017, "fclass": "tertiary", "length": 25.021992591729653, "status": "disappeared" }, "geometry": { "type": "LineString", "coordinates": [ [ 144.854598505794456, -37.670461169673978 ], [ 144.854857888942519, -37.670369936949264 ] ] } },
{ "type": "Feature", "properties": { "gid": 1019, "fclass": "tertiary", "length": 30.262685463394256, "status": "disappeared" }, "geometry": { "type": "LineString", "coordinates": [ [ 144.879531169275339, -37.694153718280383 ], [ 144.879451736984748, -37.694282375634785 ], [ 144.879501958395565, -37.694405441748735 ] ] } },
{ "type": "Feature", "properties": { "gid": 1022, "fclass": "tertiary", "length": 24.102674400752942, "status": "disappeared" }, "geometry": { "type": "LineString", "coordinates": [ [ 144.871835057095581, -37.679429590846773 ], [ 144.871575935285307, -37.679360653046452 ] ] } },
{ "type": "Feature", "properties": { "gid": 1027, "fclass": "tertiary", "length": 5.0800000000745058, "status": "disappeared" }, "geometry": { "type": "LineString", "coordinates": [ [ 144.870222676871037, -37.695837606386995 ], [ 144.870222755398231, -37.695791833248506 ] ] } },
{ "type": "Feature", "properties": { "gid": 1028, "fclass": "tertiary", "length": 3.5926092055679342, "status": "disappeared" }, "geometry": { "type": "LineString", "coordinates": [ [ 144.870222676871037, -37.695837606386995 ], [ 144.870193827090702, -37.695860461744523 ] ] } },
{ "type": "Feature", "properties": { "gid": 1029, "fclass": "tertiary", "length": 2.5407166122458875, "status": "disappeared" }, "geometry": { "type": "LineString", "coordinates": [ [ 144.870193827090702, -37.695860461744523 ], [ 144.870165016574049, -37.695860430526189 ] ] } },
{ "type": "Feature", "properties": { "gid": 1030, "fclass": "tertiary", "length": 3.5926092055679342, "status": "disappeared" }, "geometry": { "type": "LineString", "coordinates": [ [ 144.870193827090702, -37.695860461744523 ], [ 144.870222598343759, -37.695883379524709 ] ] } },
{ "type": "Feature", "properties": { "gid": 1031, "fclass": "tertiary", "length": 3.5926092055679342, "status": "disappeared" }, "geometry": { "type": "LineString", "coordinates": [ [ 144.870222755398231, -37.695791833248506 ], [ 144.870251605143665, -37.695768977883404 ] ] } },
{ "type": "Feature", "properties": { "gid": 1034, "fclass": "tertiary", "length": 33.012521176055145, "status": "disappeared" }, "geometry": { "type": "LineString", "coordinates": [ [ 144.85562872512574, -37.689023575179242 ], [ 144.85553696547737, -37.688989134546958 ], [ 144.855448932619538, -37.688888899144708 ], [ 144.855456314957678, -37.688794500507214 ] ] } },
{ "type": "Feature", "properties": { "gid": 1046, "fclass": "tertiary", "length": 37.304777232580037, "status": "disappeared" }, "geometry": { "type": "LineString", "coordinates": [ [ 144.87442671898944, -37.67986718413448 ], [ 144.874329475533301, -37.679884247211206 ], [ 144.874180119128823, -37.679844038608394 ], [ 144.874122607858425, -37.679785330889111 ], [ 144.87413890312925, -37.679729561560009 ] ] } },
{ "type": "Feature", "properties": { "gid": 1047, "fclass": "tertiary", "length": 32.960877675635899, "status": "disappeared" }, "geometry": { "type": "LineString", "coordinates": [ [ 144.884795164762494, -37.680632867649848 ], [ 144.88489243293381, -37.68059863105232 ], [ 144.885083490088391, -37.680450050690922 ] ] } },
{ "type": "Feature", "properties": { "gid": 1072, "fclass": "unclassified", "length": 71.355363965084962, "status": "disappeared" }, "geometry": { "type": "LineString", "coordinates": [ [ 144.851834431921702, -37.670045818969669 ], [ 144.852017932760702, -37.670098971662071 ], [ 144.852298435269773, -37.6702552345157 ], [ 144.852352302729884, -37.670323961451317 ], [ 144.852352040380339, -37.670458421299287 ] ] } },
{ "type": "Feature", "properties": { "gid": 1084, "fclass": "unclassified", "length": 104.41856524614695, "status": "disappeared" }, "geometry": { "type": "LineString", "coordinates": [ [ 144.885618496012171, -37.688575343120235 ], [ 144.885706336864388, -37.687637073321184 ] ] } },
{ "type": "Feature", "properties": { "gid": 1099, "fclass": "unclassified", "length": 274.87407901631332, "status": "disappeared" }, "geometry": { "type": "LineString", "coordinates": [ [ 144.852624180764252, -37.678606458030131 ], [ 144.852679704319939, -37.678752429469128 ], [ 144.852681170364662, -37.67892408201044 ], [ 144.852591453088991, -37.679696399818333 ], [ 144.852511979017493, -37.679830761685885 ], [ 144.852366089731618, -37.67986491209718 ], [ 144.850980102519401, -37.679748762027039 ] ] } },
{ "type": "Feature", "properties": { "gid": 1107, "fclass": "unclassified", "length": 56.412773356087357, "status": "disappeared" }, "geometry": { "type": "LineString", "coordinates": [ [ 144.886540549911388, -37.688438899929828 ], [ 144.88717421685007, -37.68850815841661 ] ] } },
{ "type": "Feature", "properties": { "gid": 1110, "fclass": "unclassified", "length": 609.06979228684997, "status": "disappeared" }, "geometry": { "type": "LineString", "coordinates": [ [ 144.854812143363574, -37.664190428404396 ], [ 144.854563633002755, -37.664254496238499 ], [ 144.854066735143391, -37.664318261132216 ], [ 144.853942417375009, -37.664382478950131 ], [ 144.853890057108487, -37.664466810478459 ], [ 144.854005395559341, -37.665325209290422 ], [ 144.854258572517807, -37.666578574064459 ], [ 144.854290343847595, -37.666904750594945 ], [ 144.854344045541154, -37.66705930226626 ], [ 144.854455760095789, -37.667934860540932 ], [ 144.854358263189397, -37.66808922830203 ], [ 144.854253731182126, -37.668157761705295 ], [ 144.854037623859824, -37.668213285227644 ], [ 144.853324674551715, -37.668289657326525 ], [ 144.853162593989879, -37.66833094113926 ] ] } },
{ "type": "Feature", "properties": { "gid": 1220, "fclass": "unclassified", "length": 227.56094325552675, "status": "disappeared" }, "geometry": { "type": "LineString", "coordinates": [ [ 144.883151210169331, -37.681981592531365 ], [ 144.882802742261561, -37.68379216382791 ], [ 144.882824240369871, -37.683860844995053 ], [ 144.882946493050866, -37.683972537236166 ] ] } },
{ "type": "Feature", "properties": { "gid": 1244, "fclass": "unclassified", "length": 477.42928828754776, "status": "disappeared" }, "geometry": { "type": "LineString", "coordinates": [ [ 144.851211573316419, -37.693870141658095 ], [ 144.851894065495088, -37.697518542264149 ], [ 144.851981107250538, -37.698128005572805 ] ] } },
{ "type": "Feature", "properties": { "gid": 1257, "fclass": "unclassified", "length": 48.667952701909797, "status": "disappeared" }, "geometry": { "type": "LineString", "coordinates": [ [ 144.877409149506292, -37.670257822227789 ], [ 144.877607386169927, -37.670114982283408 ], [ 144.877870331234874, -37.670029425088075 ] ] } },
{ "type": "Feature", "properties": { "gid": 1260, "fclass": "unclassified", "length": 117.28115558108438, "status": "disappeared" }, "geometry": { "type": "LineString", "coordinates": [ [ 144.845489745903109, -37.688324326774719 ], [ 144.845602827895789, -37.689377259909449 ] ] } },
{ "type": "Feature", "properties": { "gid": 1290, "fclass": "unclassified", "length": 102.83600432477468, "status": "disappeared" }, "geometry": { "type": "LineString", "coordinates": [ [ 144.883667557878965, -37.683378185129222 ], [ 144.883524364880174, -37.684004569747721 ], [ 144.883493313552975, -37.684293484252265 ] ] } },
{ "type": "Feature", "properties": { "gid": 1303, "fclass": "unclassified", "length": 126.88543664176888, "status": "disappeared" }, "geometry": { "type": "LineString", "coordinates": [ [ 144.884641196255728, -37.68715543206217 ], [ 144.884824774696995, -37.687199951651017 ], [ 144.885424240573855, -37.687256312792691 ], [ 144.885476358434289, -37.687319301002518 ], [ 144.885452590847478, -37.687558158000215 ], [ 144.885544334242013, -37.687611171134648 ], [ 144.885677564057318, -37.687614159187817 ] ] } },
{ "type": "Feature", "properties": { "gid": 1332, "fclass": "unclassified", "length": 100.43098715539671, "status": "disappeared" }, "geometry": { "type": "LineString", "coordinates": [ [ 144.8534688470221, -37.673778382151575 ], [ 144.852982811559031, -37.673777786539802 ], [ 144.852766742918561, -37.673804699210322 ], [ 144.852615451036968, -37.673845995474245 ], [ 144.852402767498631, -37.673983054413853 ] ] } },
{ "type": "Feature", "properties": { "gid": 1357, "fclass": "unclassified", "length": 432.41430706721655, "status": "disappeared" }, "geometry": { "type": "LineString", "coordinates": [ [ 144.856821938006362, -37.697859249130893 ], [ 144.853460992269078, -37.6982843092594 ], [ 144.852099864665604, -37.69817392542619 ], [ 144.851981107250538, -37.698128005572805 ] ] } },
{ "type": "Feature", "properties": { "gid": 1358, "fclass": "unclassified", "length": 574.90841049366895, "status": "disappeared" }, "geometry": { "type": "LineString", "coordinates": [ [ 144.853526362621409, -37.673824226119635 ], [ 144.853688333055118, -37.673845880472321 ], [ 144.856105968265183, -37.674765711958365 ], [ 144.856249736090234, -37.674894622832781 ], [ 144.856260308790013, -37.675014791206564 ], [ 144.856196748597341, -37.675306521553019 ], [ 144.856126416943368, -37.675372236623247 ], [ 144.856039951664656, -37.675402171645992 ], [ 144.855780721724017, -37.675404720639172 ], [ 144.854117712058923, -37.675222473169129 ], [ 144.853901694933626, -37.675220779445297 ], [ 144.85362073903184, -37.675287666372668 ], [ 144.853379292109707, -37.675403235449444 ] ] } },
{ "type": "Feature", "properties": { "gid": 1369, "fclass": "unclassified", "length": 140.8454421208574, "status": "disappeared" }, "geometry": { "type": "LineString", "coordinates": [ [ 144.883400722728965, -37.688298564990873 ], [ 144.883519629132081, -37.688250046485173 ], [ 144.883597208082506, -37.688147131859687 ], [ 144.883719435983721, -37.687108767512768 ] ] } },
{ "type": "Feature", "properties": { "gid": 1374, "fclass": "unclassified", "length": 146.72817626997352, "status": "disappeared" }, "geometry": { "type": "LineString", "coordinates": [ [ 144.8618046129248, -37.683011656738323 ], [ 144.861901894554791, -37.682977438841668 ], [ 144.8631023566588, -37.682189224646748 ] ] } },
{ "type": "Feature", "properties": { "gid": 1463, "fclass": "unclassified", "length": 202.5796849448447, "status": "disappeared" }, "geometry": { "type": "LineString", "coordinates": [ [ 144.849807845870657, -37.675353036656951 ], [ 144.850401853475347, -37.675378097266226 ], [ 144.851827276697207, -37.675538646274646 ], [ 144.85208299077027, -37.675493188756896 ] ] } }
]
}
