{
"type": "FeatureCollection",
"crs": { "type": "name", "properties": { "name": "urn:ogc:def:crs:OGC:1.3:CRS84" } },
"features": [
{ "type": "Feature", "properties": { "gid": 3, "fclass": "residential", "length": 145.99479603547292, "status": "disappeared" }, "geometry": { "type": "LineString", "coordinates": [ [ 144.918033597573299, -37.682720029001111 ], [ 144.918260490566524, -37.682674410616954 ], [ 144.918453058049607, -37.682738910745542 ], [ 144.918544732478523, -37.682872002132257 ], [ 144.918472542797105, -37.683035020834254 ], [ 144.91827442979519, -37.683103545962766 ], [ 144.91812324953554, -37.683057669304333 ], [ 144.918036934835527, -37.682963202595879 ], [ 144.918004767241229, -37.682742895982443 ] ] } },
{ "type": "Feature", "properties": { "gid": 5, "fclass": "residential", "length": 36.384710452238998, "status": "disappeared" }, "geometry": { "type": "LineString", "coordinates": [ [ 144.918729601193434, -37.678372024286595 ], [ 144.918556668633585, -37.678473466778314 ], [ 144.918498899028634, -37.678623621771735 ] ] } },
{ "type": "Feature", "properties": { "gid": 56, "fclass": "residential", "length": 23.154478095316932, "status": "disappeared" }, "geometry": { "type": "LineString", "coordinates": [ [ 144.92054446158275, -37.678167261167836 ], [ 144.920663316239086, -37.678130148979982 ], [ 144.920774867991298, -37.678190300537977 ] ] } },
{ "type": "Feature", "properties": { "gid": 80, "fclass": "residential", "length": 156.7695345273064, "status": "disappeared" }, "geometry": { "type": "LineString", "coordinates": [ [ 144.918371742923966, -37.66299184058213 ], [ 144.918512117870506, -37.663006240484798 ], [ 144.918771201843043, -37.663097964024779 ], [ 144.919829322985606, -37.66329464597483 ], [ 144.919937252437649, -37.663354796236391 ], [ 144.920070439389434, -37.663359176494843 ] ] } },
{ "type": "Feature", "properties": { "gid": 139, "fclass": "residential", "length": 72.975442960238809, "status": "disappeared" }, "geometry": { "type": "LineString", "coordinates": [ [ 144.918523932365417, -37.682125308925514 ], [ 144.91850224518663, -37.682202536843512 ], [ 144.918527320467064, -37.682322709163067 ], [ 144.918613635048644, -37.682417175540969 ], [ 144.918808016332974, -37.682468802560763 ], [ 144.919013328541496, -37.68240028140238 ] ] } },
{ "type": "Feature", "properties": { "gid": 178, "fclass": "residential", "length": 23.417953873690539, "status": "disappeared" }, "geometry": { "type": "LineString", "coordinates": [ [ 144.920255989447838, -37.678579030956982 ], [ 144.920198164297517, -37.678784973169243 ] ] } },
{ "type": "Feature", "properties": { "gid": 181, "fclass": "residential", "length": 275.98113863165327, "status": "disappeared" }, "geometry": { "type": "LineString", "coordinates": [ [ 144.908115463291125, -37.690151003593215 ], [ 144.908352747536185, -37.690468737609343 ], [ 144.908674679751954, -37.690769370690461 ], [ 144.90893208077452, -37.690832504908293 ], [ 144.909115814746372, -37.690766845332973 ], [ 144.909151928549136, -37.690681047804951 ], [ 144.90909449706669, -37.690526519376043 ], [ 144.90884455415349, -37.690251689675307 ], [ 144.908740392904207, -37.690028465531221 ], [ 144.908468950607471, -37.689667793659503 ], [ 144.908375403739456, -37.6896019230158 ] ] } },
{ "type": "Feature", "properties": { "gid": 270, "fclass": "residential", "length": 74.638612073510203, "status": "disappeared" }, "geometry": { "type": "LineString", "coordinates": [ [ 144.925370361735219, -37.691490420516537 ], [ 144.925121886644604, -37.69148883505693 ], [ 144.924534995821546, -37.691398350670852 ] ] } },
{ "type": "Feature", "properties": { "gid": 273, "fclass": "residential", "length": 100.3644540979371, "status": "disappeared" }, "geometry": { "type": "LineString", "coordinates": [ [ 144.90556060499577, -37.682871051701234 ], [ 144.905528530923334, -37.682604968344123 ], [ 144.90541530246486, -37.682450393650093 ], [ 144.905359685196998, -37.682295864370978 ], [ 144.905395885066696, -37.682141407607375 ], [ 144.905561576276483, -37.682092904070949 ] ] } },
{ "type": "Feature", "properties": { "gid": 290, "fclass": "residential", "length": 53.301346235584646, "status": "disappeared" }, "geometry": { "type": "LineString", "coordinates": [ [ 144.894795305961082, -37.677117508452547 ], [ 144.89468377644738, -37.677057332677457 ], [ 144.894219398156821, -37.677002567391604 ] ] } },
{ "type": "Feature", "properties": { "gid": 392, "fclass": "residential", "length": 190.84731510065728, "status": "disappeared" }, "geometry": { "type": "LineString", "coordinates": [ [ 144.922543356795984, -37.666999812581558 ], [ 144.922493054281745, -37.666905371792986 ], [ 144.922014828464341, -37.666355776940321 ], [ 144.921813588042994, -37.666012342920681 ], [ 144.921634037602445, -37.665583096993295 ], [ 144.921623359453037, -37.665465794850746 ] ] } },
{ "type": "Feature", "properties": { "gid": 526, "fclass": "residential", "length": 74.686413554836733, "status": "disappeared" }, "geometry": { "type": "LineString", "coordinates": [ [ 144.929766202142048, -37.673298141299071 ], [ 144.929863368932445, -37.673341110972004 ], [ 144.930079381001349, -37.673344098120396 ], [ 144.930446629694387, -37.673318564311813 ], [ 144.930572698610831, -37.673252837930654 ] ] } },
{ "type": "Feature", "properties": { "gid": 564, "fclass": "residential", "length": 37.546534217529377, "status": "disappeared" }, "geometry": { "type": "LineString", "coordinates": [ [ 144.916826004570851, -37.680682278356898 ], [ 144.916869367289991, -37.68054069681002 ], [ 144.917085498152346, -37.680453590946293 ] ] } },
{ "type": "Feature", "properties": { "gid": 631, "fclass": "residential", "length": 33.812861837927258, "status": "disappeared" }, "geometry": { "type": "LineString", "coordinates": [ [ 144.919967441548749, -37.679059460171572 ], [ 144.920025185893451, -37.678930760802871 ], [ 144.920169336118988, -37.67880784070546 ] ] } },
{ "type": "Feature", "properties": { "gid": 727, "fclass": "residential", "length": 215.52736320515876, "status": "disappeared" }, "geometry": { "type": "LineString", "coordinates": [ [ 144.923231179411715, -37.670318846159994 ], [ 144.922883610530505, -37.67224111491312 ] ] } },
{ "type": "Feature", "properties": { "gid": 739, "fclass": "residential", "length": 123.01453854345675, "status": "disappeared" }, "geometry": { "type": "LineString", "coordinates": [ [ 144.922883563882493, -37.672286888486369 ], [ 144.922740646406567, -37.672981982884536 ], [ 144.922709632452609, -37.67338534261529 ] ] } },
{ "type": "Feature", "properties": { "gid": 765, "fclass": "residential", "length": 30.126303485964364, "status": "disappeared" }, "geometry": { "type": "LineString", "coordinates": [ [ 144.920279199018637, -37.683888766620036 ], [ 144.920246873719719, -37.683811502481859 ], [ 144.920020090410446, -37.683751273682581 ] ] } },
{ "type": "Feature", "properties": { "gid": 768, "fclass": "residential", "length": 105.54107169330706, "status": "disappeared" }, "geometry": { "type": "LineString", "coordinates": [ [ 144.921122231474925, -37.676542683199493 ], [ 144.921370657400928, -37.676544276963725 ], [ 144.922303020787297, -37.676680775565792 ] ] } },
{ "type": "Feature", "properties": { "gid": 786, "fclass": "residential", "length": 38.547751996614451, "status": "disappeared" }, "geometry": { "type": "LineString", "coordinates": [ [ 144.920140894413123, -37.678464520534177 ], [ 144.920308522028392, -37.678270094804262 ], [ 144.920429198260535, -37.678212958154802 ] ] } },
{ "type": "Feature", "properties": { "gid": 847, "fclass": "residential", "length": 56.409222313424266, "status": "disappeared" }, "geometry": { "type": "LineString", "coordinates": [ [ 144.910004233040269, -37.676511958754247 ], [ 144.909808241665871, -37.676318704220961 ], [ 144.909687917257855, -37.676076872040291 ] ] } },
{ "type": "Feature", "properties": { "gid": 868, "fclass": "residential", "length": 94.135459676254925, "status": "disappeared" }, "geometry": { "type": "LineString", "coordinates": [ [ 144.92159638625219, -37.663703488401772 ], [ 144.921499200919982, -37.66369484215722 ], [ 144.921353492829098, -37.663614642491595 ], [ 144.920588710217601, -37.663451068800455 ] ] } },
{ "type": "Feature", "properties": { "gid": 881, "fclass": "residential", "length": 90.221547913483604, "status": "disappeared" }, "geometry": { "type": "LineString", "coordinates": [ [ 144.919926163774932, -37.690846079463263 ], [ 144.920934322095434, -37.690984068919086 ] ] } },
{ "type": "Feature", "properties": { "gid": 895, "fclass": "residential", "length": 417.83338042506955, "status": "disappeared" }, "geometry": { "type": "LineString", "coordinates": [ [ 144.913360520831077, -37.663308736264973 ], [ 144.913025744105397, -37.663307063164723 ], [ 144.910434182550404, -37.663076284133659 ], [ 144.909894304267311, -37.66300435762529 ], [ 144.908695912753615, -37.66273309860658 ] ] } },
{ "type": "Feature", "properties": { "gid": 921, "fclass": "residential", "length": 79.343694517740815, "status": "disappeared" }, "geometry": { "type": "LineString", "coordinates": [ [ 144.887881679193242, -37.677660518816765 ], [ 144.887854866629368, -37.677531755666934 ], [ 144.887545840784128, -37.677119504134829 ], [ 144.887508185199749, -37.677019339161674 ] ] } },
{ "type": "Feature", "properties": { "gid": 1020, "fclass": "residential", "length": 75.529270893927901, "status": "disappeared" }, "geometry": { "type": "LineString", "coordinates": [ [ 144.924249883903087, -37.659654216428507 ], [ 144.924825318814356, -37.660158090995772 ] ] } },
{ "type": "Feature", "properties": { "gid": 1023, "fclass": "residential", "length": 38.505940342151327, "status": "disappeared" }, "geometry": { "type": "LineString", "coordinates": [ [ 144.918758380493756, -37.678394930559875 ], [ 144.918742021621057, -37.678540822489403 ], [ 144.918527678354792, -37.678646528098284 ] ] } },
{ "type": "Feature", "properties": { "gid": 1061, "fclass": "residential", "length": 87.859422587992867, "status": "disappeared" }, "geometry": { "type": "LineString", "coordinates": [ [ 144.91873331296145, -37.674916125305913 ], [ 144.918873621148805, -37.675013489235141 ], [ 144.919175906308624, -37.675146722998988 ], [ 144.919625851937667, -37.675237142464553 ] ] } },
{ "type": "Feature", "properties": { "gid": 1219, "fclass": "residential", "length": 33.197830385038159, "status": "disappeared" }, "geometry": { "type": "LineString", "coordinates": [ [ 144.908086682741299, -37.690128094864704 ], [ 144.907967907473989, -37.690079369544222 ], [ 144.907827658577361, -37.689921915987753 ] ] } },
{ "type": "Feature", "properties": { "gid": 1225, "fclass": "residential", "length": 24.103759279997902, "status": "disappeared" }, "geometry": { "type": "LineString", "coordinates": [ [ 144.908957515809732, -37.684658844690823 ], [ 144.908860242972736, -37.684701683280288 ], [ 144.908698204189903, -37.68470442072357 ] ] } },
{ "type": "Feature", "properties": { "gid": 1247, "fclass": "residential", "length": 97.37893954032144, "status": "disappeared" }, "geometry": { "type": "LineString", "coordinates": [ [ 144.920963130771895, -37.690984087928804 ], [ 144.922057742590397, -37.691099238287421 ] ] } },
{ "type": "Feature", "properties": { "gid": 1262, "fclass": "residential", "length": 112.68364074414768, "status": "disappeared" }, "geometry": { "type": "LineString", "coordinates": [ [ 144.890211914457666, -37.679630938258938 ], [ 144.890355242807232, -37.678867224285028 ], [ 144.890357395433398, -37.67862405449781 ] ] } },
{ "type": "Feature", "properties": { "gid": 1301, "fclass": "residential", "length": 95.668115333873629, "status": "disappeared" }, "geometry": { "type": "LineString", "coordinates": [ [ 144.908507935255415, -37.675297826146405 ], [ 144.908410715751472, -37.675306334385802 ], [ 144.908243187286899, -37.675399183699334 ], [ 144.908017917232769, -37.675603561482532 ], [ 144.907924015654402, -37.67584380047245 ], [ 144.907815945496964, -37.675892351740444 ] ] } },
{ "type": "Feature", "properties": { "gid": 1308, "fclass": "residential", "length": 37.272040264731842, "status": "disappeared" }, "geometry": { "type": "LineString", "coordinates": [ [ 144.91685478417358, -37.680705185067623 ], [ 144.917049294725842, -37.680633798892508 ], [ 144.917114277746663, -37.680476497596644 ] ] } },
{ "type": "Feature", "properties": { "gid": 1330, "fclass": "residential", "length": 155.68161634204881, "status": "disappeared" }, "geometry": { "type": "LineString", "coordinates": [ [ 144.918718217963033, -37.688968560659525 ], [ 144.918633068586274, -37.689457705134949 ], [ 144.918647334197516, -37.689586452250246 ], [ 144.918793130897711, -37.689628033228182 ], [ 144.919610460592509, -37.68972442233683 ] ] } },
{ "type": "Feature", "properties": { "gid": 1480, "fclass": "trunk", "length": 70.011946410048239, "status": "disappeared" }, "geometry": { "type": "LineString", "coordinates": [ [ 144.916543637018691, -37.675532562584159 ], [ 144.916486211411183, -37.675369454281224 ], [ 144.916488352582235, -37.675060484276038 ], [ 144.916544318563979, -37.674914620065124 ] ] } },
{ "type": "Feature", "properties": { "gid": 1506, "fclass": "trunk", "length": 27.003873876327589, "status": "disappeared" }, "geometry": { "type": "LineString", "coordinates": [ [ 144.888575177337515, -37.695718760780863 ], [ 144.888373233872016, -37.695901665647064 ] ] } },
{ "type": "Feature", "properties": { "gid": 1518, "fclass": "trunk", "length": 27.35770192264447, "status": "disappeared" }, "geometry": { "type": "LineString", "coordinates": [ [ 144.912843498558061, -37.66214112995717 ], [ 144.912728043857953, -37.662369914764206 ] ] } },
{ "type": "Feature", "properties": { "gid": 1526, "fclass": "trunk", "length": 22.723578457173495, "status": "disappeared" }, "geometry": { "type": "LineString", "coordinates": [ [ 144.929744497429169, -37.665653929288844 ], [ 144.92997480500739, -37.66574561160121 ] ] } },
{ "type": "Feature", "properties": { "gid": 1544, "fclass": "trunk", "length": 33.888310198975823, "status": "disappeared" }, "geometry": { "type": "LineString", "coordinates": [ [ 144.924957707383015, -37.671853356759527 ], [ 144.925043816848984, -37.67215093912646 ] ] } },
{ "type": "Feature", "properties": { "gid": 1548, "fclass": "trunk", "length": 20.320000000298023, "status": "disappeared" }, "geometry": { "type": "LineString", "coordinates": [ [ 144.908932373440251, -37.681614893005502 ], [ 144.908932593815535, -37.681431799372923 ] ] } },
{ "type": "Feature", "properties": { "gid": 1555, "fclass": "trunk", "length": 33.453091830895616, "status": "disappeared" }, "geometry": { "type": "LineString", "coordinates": [ [ 144.913762162223833, -37.689926334989742 ], [ 144.913727728925778, -37.690122277141128 ], [ 144.913617833407017, -37.690177984157607 ] ] } },
{ "type": "Feature", "properties": { "gid": 1560, "fclass": "trunk", "length": 72.862230529528375, "status": "disappeared" }, "geometry": { "type": "LineString", "coordinates": [ [ 144.931013908242619, -37.663182885604918 ], [ 144.930927302457349, -37.663414565309253 ], [ 144.930928883017231, -37.663654878404571 ], [ 144.930984525748812, -37.663823701172163 ] ] } },
{ "type": "Feature", "properties": { "gid": 1569, "fclass": "trunk", "length": 90.367425444531307, "status": "disappeared" }, "geometry": { "type": "LineString", "coordinates": [ [ 144.894483590635389, -37.694099160621171 ], [ 144.894674993646021, -37.693713117311439 ], [ 144.894783197169545, -37.693593057616305 ], [ 144.894830358888584, -37.693344206980143 ] ] } },
{ "type": "Feature", "properties": { "gid": 1570, "fclass": "trunk", "length": 17.779999999795109, "status": "disappeared" }, "geometry": { "type": "LineString", "coordinates": [ [ 144.900533167893059, -37.672567940677283 ], [ 144.90053337848093, -37.672407733219202 ] ] } },
{ "type": "Feature", "properties": { "gid": 1600, "fclass": "trunk", "length": 19.967594275521662, "status": "disappeared" }, "geometry": { "type": "LineString", "coordinates": [ [ 144.921818379143588, -37.671828461832028 ], [ 144.921834500133144, -37.671905715321984 ], [ 144.921760610731098, -37.671988631742842 ] ] } },
{ "type": "Feature", "properties": { "gid": 1623, "fclass": "trunk", "length": 71.261855823890983, "status": "disappeared" }, "geometry": { "type": "LineString", "coordinates": [ [ 144.898022791095229, -37.697375009860892 ], [ 144.898181369612189, -37.69728788960532 ], [ 144.898376184472511, -37.697034872085418 ], [ 144.8985420355896, -37.696894832262281 ] ] } },
{ "type": "Feature", "properties": { "gid": 1636, "fclass": "trunk", "length": 20.478223577725085, "status": "disappeared" }, "geometry": { "type": "LineString", "coordinates": [ [ 144.931101115138091, -37.662290347435622 ], [ 144.931072150624942, -37.66247342584289 ] ] } },
{ "type": "Feature", "properties": { "gid": 1674, "fclass": "trunk", "length": 77.95243442360821, "status": "disappeared" }, "geometry": { "type": "LineString", "coordinates": [ [ 144.899982639056844, -37.675062142695602 ], [ 144.899955988379304, -37.67479606157481 ], [ 144.900098755984402, -37.674375636032202 ] ] } },
{ "type": "Feature", "properties": { "gid": 1676, "fclass": "trunk", "length": 31.110389964716056, "status": "disappeared" }, "geometry": { "type": "LineString", "coordinates": [ [ 144.899879181989007, -37.687947283736555 ], [ 144.899632606840441, -37.687879847803927 ], [ 144.899562451254269, -37.687832585243036 ] ] } },
{ "type": "Feature", "properties": { "gid": 1715, "fclass": "trunk", "length": 110.69042095241004, "status": "disappeared" }, "geometry": { "type": "LineString", "coordinates": [ [ 144.909758986496684, -37.688939260154562 ], [ 144.909761022443661, -37.688741864232703 ], [ 144.909851476406658, -37.688381467378434 ], [ 144.910048208353004, -37.687978237752667 ] ] } },
{ "type": "Feature", "properties": { "gid": 1723, "fclass": "trunk", "length": 22.719732711071394, "status": "disappeared" }, "geometry": { "type": "LineString", "coordinates": [ [ 144.900084401246829, -37.685246826449628 ], [ 144.899969417380277, -37.685063636921576 ] ] } },
{ "type": "Feature", "properties": { "gid": 1726, "fclass": "trunk", "length": 35.14266050529465, "status": "disappeared" }, "geometry": { "type": "LineString", "coordinates": [ [ 144.917631887037913, -37.654820704820594 ], [ 144.917858556924529, -37.654903825724972 ], [ 144.918006146502023, -37.654889622535386 ] ] } },
{ "type": "Feature", "properties": { "gid": 1738, "fclass": "trunk", "length": 85.153301319757247, "status": "disappeared" }, "geometry": { "type": "LineString", "coordinates": [ [ 144.890010417125495, -37.679539206416671 ], [ 144.889983600273268, -37.679410443834378 ], [ 144.890066736735776, -37.679187374362137 ], [ 144.890097927082479, -37.678784023986097 ] ] } },
{ "type": "Feature", "properties": { "gid": 1758, "fclass": "trunk", "length": 21.187113165051251, "status": "disappeared" }, "geometry": { "type": "LineString", "coordinates": [ [ 144.899642558881141, -37.692593075998779 ], [ 144.899577589886263, -37.692704593882596 ], [ 144.899498330035243, -37.692730274877263 ] ] } },
{ "type": "Feature", "properties": { "gid": 1759, "fclass": "trunk", "length": 115.14139917527397, "status": "disappeared" }, "geometry": { "type": "LineString", "coordinates": [ [ 144.920406605812985, -37.672308154825075 ], [ 144.920366832052338, -37.672471196844135 ], [ 144.920236953324263, -37.672728586911212 ], [ 144.920204352272776, -37.672917381273969 ], [ 144.920063744046701, -37.673106103578121 ], [ 144.919955670457995, -37.673168970085406 ], [ 144.919858454977032, -37.673177487623576 ] ] } },
{ "type": "Feature", "properties": { "gid": 1764, "fclass": "trunk", "length": 65.109882186339874, "status": "disappeared" }, "geometry": { "type": "LineString", "coordinates": [ [ 144.901708744272753, -37.676642759157836 ], [ 144.901622290006003, -37.676677018333287 ], [ 144.901575354521555, -37.676777109384254 ], [ 144.901484878736625, -37.6771346407238 ], [ 144.901506436597913, -37.67716898859959 ] ] } },
{ "type": "Feature", "properties": { "gid": 1796, "fclass": "trunk", "length": 27.51515525723125, "status": "disappeared" }, "geometry": { "type": "LineString", "coordinates": [ [ 144.909481806154531, -37.679830144378222 ], [ 144.909389950933218, -37.679864405037662 ], [ 144.909251178593678, -37.679990177044438 ] ] } },
{ "type": "Feature", "properties": { "gid": 1797, "fclass": "trunk", "length": 40.719342343862898, "status": "disappeared" }, "geometry": { "type": "LineString", "coordinates": [ [ 144.913475608723417, -37.663400366991226 ], [ 144.913504825418698, -37.663034198004958 ] ] } },
{ "type": "Feature", "properties": { "gid": 1806, "fclass": "trunk", "length": 21.707137486826038, "status": "disappeared" }, "geometry": { "type": "LineString", "coordinates": [ [ 144.921368117421139, -37.689382289114882 ], [ 144.921598510800379, -37.689451100079772 ] ] } },
{ "type": "Feature", "properties": { "gid": 1834, "fclass": "primary", "length": 2.5407166122458875, "status": "disappeared" }, "geometry": { "type": "LineString", "coordinates": [ [ 144.900160890283928, -37.670942667342089 ], [ 144.900132089243243, -37.670942643329795 ] ] } },
{ "type": "Feature", "properties": { "gid": 1836, "fclass": "primary", "length": 3.5926092055679342, "status": "disappeared" }, "geometry": { "type": "LineString", "coordinates": [ [ 144.900160890283928, -37.670942667342089 ], [ 144.900132059038526, -37.670965530122537 ] ] } },
{ "type": "Feature", "properties": { "gid": 1840, "fclass": "primary", "length": 76.780842990443986, "status": "disappeared" }, "geometry": { "type": "LineString", "coordinates": [ [ 144.916819668452518, -37.660244345345632 ], [ 144.916722464498633, -37.660257151670798 ], [ 144.916646782630806, -37.660338633614082 ], [ 144.916725558896843, -37.660716322319075 ], [ 144.916675028438618, -37.660839304261337 ] ] } },
{ "type": "Feature", "properties": { "gid": 1849, "fclass": "primary", "length": 12.955023064648548, "status": "disappeared" }, "geometry": { "type": "LineString", "coordinates": [ [ 144.893328697733381, -37.655007503253941 ], [ 144.893472704819601, -37.654984744500553 ] ] } },
{ "type": "Feature", "properties": { "gid": 1860, "fclass": "primary", "length": 10.475469177034247, "status": "disappeared" }, "geometry": { "type": "LineString", "coordinates": [ [ 144.923124176916929, -37.690596421258988 ], [ 144.923239434256601, -37.690573608521326 ] ] } },
{ "type": "Feature", "properties": { "gid": 1868, "fclass": "primary", "length": 20.479556988911028, "status": "disappeared" }, "geometry": { "type": "LineString", "coordinates": [ [ 144.913617990202539, -37.69004066437288 ], [ 144.913733406147173, -37.689880540983133 ] ] } },
{ "type": "Feature", "properties": { "gid": 1869, "fclass": "primary", "length": 22.471272835458784, "status": "disappeared" }, "geometry": { "type": "LineString", "coordinates": [ [ 144.921528703948979, -37.673430348304294 ], [ 144.921615123265582, -37.673417531072559 ], [ 144.921672856060468, -37.67329312190779 ] ] } },
{ "type": "Feature", "properties": { "gid": 1875, "fclass": "primary", "length": 22.719732711071394, "status": "disappeared" }, "geometry": { "type": "LineString", "coordinates": [ [ 144.910036451346116, -37.697865251326405 ], [ 144.909920988139248, -37.698048257228272 ] ] } },
{ "type": "Feature", "properties": { "gid": 1880, "fclass": "primary", "length": 22.429860816510001, "status": "disappeared" }, "geometry": { "type": "LineString", "coordinates": [ [ 144.919128990503509, -37.6819883986389 ], [ 144.919037210502381, -37.681954006561547 ], [ 144.918956306088745, -37.681850961612838 ] ] } },
{ "type": "Feature", "properties": { "gid": 1882, "fclass": "primary", "length": 20.348087541638908, "status": "disappeared" }, "geometry": { "type": "LineString", "coordinates": [ [ 144.892404626216745, -37.697370096200139 ], [ 144.892474749577474, -37.697443110163341 ], [ 144.892577330312633, -37.697484684127396 ] ] } },
{ "type": "Feature", "properties": { "gid": 1887, "fclass": "primary", "length": 5.6799331780281905, "status": "disappeared" }, "geometry": { "type": "LineString", "coordinates": [ [ 144.921597538347697, -37.690389452077277 ], [ 144.921626394217753, -37.690343697667068 ] ] } },
{ "type": "Feature", "properties": { "gid": 1889, "fclass": "primary", "length": 27.763079785524727, "status": "disappeared" }, "geometry": { "type": "LineString", "coordinates": [ [ 144.904264710282945, -37.659823001915441 ], [ 144.904426717630741, -37.659803105277447 ], [ 144.904552620661093, -37.659869005566733 ] ] } },
{ "type": "Feature", "properties": { "gid": 1897, "fclass": "primary", "length": 24.171799415859084, "status": "disappeared" }, "geometry": { "type": "LineString", "coordinates": [ [ 144.900321084719423, -37.658652551385508 ], [ 144.900461485806147, -37.658638363848034 ], [ 144.900551575922805, -37.658561195335579 ] ] } },
{ "type": "Feature", "properties": { "gid": 1899, "fclass": "primary", "length": 42.80906345657322, "status": "disappeared" }, "geometry": { "type": "LineString", "coordinates": [ [ 144.900132089243243, -37.670942643329795 ], [ 144.899883795709798, -37.670855180037272 ], [ 144.899671363626851, -37.670873597811969 ] ] } },
{ "type": "Feature", "properties": { "gid": 1900, "fclass": "primary", "length": 2.5400000000372529, "status": "disappeared" }, "geometry": { "type": "LineString", "coordinates": [ [ 144.900132089243243, -37.670942643329795 ], [ 144.900132059038526, -37.670965530122537 ] ] } },
{ "type": "Feature", "properties": { "gid": 1902, "fclass": "primary", "length": 30.908916031216958, "status": "disappeared" }, "geometry": { "type": "LineString", "coordinates": [ [ 144.925197915849282, -37.691078353500515 ], [ 144.925543575361019, -37.691124342105873 ] ] } },
{ "type": "Feature", "properties": { "gid": 1910, "fclass": "primary", "length": 18.920443574160689, "status": "disappeared" }, "geometry": { "type": "LineString", "coordinates": [ [ 144.920268554372001, -37.666655016993381 ], [ 144.920218022690079, -37.666780861013279 ], [ 144.92023958610406, -37.666815205649776 ] ] } },
{ "type": "Feature", "properties": { "gid": 1914, "fclass": "primary", "length": 31.291543351333225, "status": "disappeared" }, "geometry": { "type": "LineString", "coordinates": [ [ 144.916261338071564, -37.696382135537 ], [ 144.916236271233913, -37.696253380917426 ], [ 144.916348048661007, -37.696130443560371 ] ] } },
{ "type": "Feature", "properties": { "gid": 1917, "fclass": "primary", "length": 15.454458015838144, "status": "disappeared" }, "geometry": { "type": "LineString", "coordinates": [ [ 144.916876558569498, -37.660885218120583 ], [ 144.916703800449966, -37.660862211178191 ] ] } },
{ "type": "Feature", "properties": { "gid": 1931, "fclass": "primary", "length": 15.450334653751719, "status": "disappeared" }, "geometry": { "type": "LineString", "coordinates": [ [ 144.891532649113344, -37.682607416799108 ], [ 144.891503646718746, -37.682744710850407 ] ] } },
{ "type": "Feature", "properties": { "gid": 1938, "fclass": "primary", "length": 5.0800000000745058, "status": "disappeared" }, "geometry": { "type": "LineString", "coordinates": [ [ 144.912756736106189, -37.662461483221598 ], [ 144.912756683339239, -37.662507256957461 ] ] } },
{ "type": "Feature", "properties": { "gid": 1968, "fclass": "primary", "length": 20.399567599477223, "status": "disappeared" }, "geometry": { "type": "LineString", "coordinates": [ [ 144.921047189189323, -37.665648511260301 ], [ 144.9210310658585, -37.665575548767166 ], [ 144.920903313634767, -37.665533982026432 ] ] } },
{ "type": "Feature", "properties": { "gid": 1970, "fclass": "primary", "length": 20.945724232236241, "status": "disappeared" }, "geometry": { "type": "LineString", "coordinates": [ [ 144.893105245196068, -37.690893809992055 ], [ 144.893163121031591, -37.690710768430712 ] ] } },
{ "type": "Feature", "properties": { "gid": 1975, "fclass": "primary", "length": 18.496302449875024, "status": "disappeared" }, "geometry": { "type": "LineString", "coordinates": [ [ 144.892245028429414, -37.688055093462722 ], [ 144.892043440878552, -37.688009138620252 ] ] } },
{ "type": "Feature", "properties": { "gid": 2003, "fclass": "primary", "length": 23.80874764997634, "status": "disappeared" }, "geometry": { "type": "LineString", "coordinates": [ [ 144.901419936911793, -37.677237577731212 ], [ 144.901511820480721, -37.677181866831539 ], [ 144.90159296589249, -37.677077512663203 ] ] } },
{ "type": "Feature", "properties": { "gid": 2014, "fclass": "primary", "length": 27.325367762895706, "status": "disappeared" }, "geometry": { "type": "LineString", "coordinates": [ [ 144.912545574133475, -37.695669996282831 ], [ 144.912385417016139, -37.695582624098186 ], [ 144.912315276163952, -37.695509621738253 ] ] } },
{ "type": "Feature", "properties": { "gid": 2019, "fclass": "primary", "length": 24.09723569532629, "status": "disappeared" }, "geometry": { "type": "LineString", "coordinates": [ [ 144.924505593167282, -37.691993384619671 ], [ 144.924419371771421, -37.691787350567722 ] ] } },
{ "type": "Feature", "properties": { "gid": 2026, "fclass": "primary", "length": 22.719732711487875, "status": "disappeared" }, "geometry": { "type": "LineString", "coordinates": [ [ 144.928804119841544, -37.655033851369467 ], [ 144.928688767355851, -37.65521687829775 ] ] } },
{ "type": "Feature", "properties": { "gid": 2028, "fclass": "primary", "length": 25.239493416472961, "status": "disappeared" }, "geometry": { "type": "LineString", "coordinates": [ [ 144.923326926813075, -37.689520878734058 ], [ 144.923409863112084, -37.689409359352069 ], [ 144.923528722457462, -37.689383687798141 ] ] } },
{ "type": "Feature", "properties": { "gid": 2037, "fclass": "primary", "length": 2.5400000000372529, "status": "disappeared" }, "geometry": { "type": "LineString", "coordinates": [ [ 144.916674978042636, -37.660885078026425 ], [ 144.916675003240613, -37.660862191143977 ] ] } },
{ "type": "Feature", "properties": { "gid": 2038, "fclass": "primary", "length": 3.5926092055679342, "status": "disappeared" }, "geometry": { "type": "LineString", "coordinates": [ [ 144.916674978042636, -37.660885078026425 ], [ 144.916703800449966, -37.660862211178191 ] ] } },
{ "type": "Feature", "properties": { "gid": 2045, "fclass": "primary", "length": 29.457511450459197, "status": "disappeared" }, "geometry": { "type": "LineString", "coordinates": [ [ 144.894131722751752, -37.698493077490824 ], [ 144.894041566506615, -37.698578822471511 ], [ 144.893872194229573, -37.698653053949663 ] ] } },
{ "type": "Feature", "properties": { "gid": 2061, "fclass": "primary", "length": 21.851988985322585, "status": "disappeared" }, "geometry": { "type": "LineString", "coordinates": [ [ 144.891580214044183, -37.669516223786005 ], [ 144.891724445747883, -37.669356146436265 ] ] } },
{ "type": "Feature", "properties": { "gid": 2063, "fclass": "primary", "length": 30.664453803591091, "status": "disappeared" }, "geometry": { "type": "LineString", "coordinates": [ [ 144.91857995255242, -37.656835404149611 ], [ 144.918601447777462, -37.656929827363506 ], [ 144.918752480934671, -37.657064390663642 ] ] } },
{ "type": "Feature", "properties": { "gid": 2066, "fclass": "primary", "length": 23.423938893101752, "status": "disappeared" }, "geometry": { "type": "LineString", "coordinates": [ [ 144.911104728475777, -37.695943575068434 ], [ 144.911364077172635, -37.695897994020747 ] ] } },
{ "type": "Feature", "properties": { "gid": 2067, "fclass": "primary", "length": 25.076187487065333, "status": "disappeared" }, "geometry": { "type": "LineString", "coordinates": [ [ 144.900247957138674, -37.670439229846792 ], [ 144.900183283531533, -37.670341906966748 ], [ 144.900046532577591, -37.670301740975468 ] ] } },
{ "type": "Feature", "properties": { "gid": 2077, "fclass": "primary", "length": 18.491872907549801, "status": "disappeared" }, "geometry": { "type": "LineString", "coordinates": [ [ 144.900353617551986, -37.655814598574345 ], [ 144.900410997319995, -37.655974854931621 ] ] } },
{ "type": "Feature", "properties": { "gid": 2086, "fclass": "primary", "length": 17.779999999795109, "status": "disappeared" }, "geometry": { "type": "LineString", "coordinates": [ [ 144.89938427984012, -37.691837600418019 ], [ 144.899384492914663, -37.691677394126373 ] ] } },
{ "type": "Feature", "properties": { "gid": 2091, "fclass": "primary", "length": 14.269922587062529, "status": "disappeared" }, "geometry": { "type": "LineString", "coordinates": [ [ 144.888316592686095, -37.695237901216451 ], [ 144.888296872213971, -37.695179235889348 ], [ 144.888345571874368, -37.695123495168303 ] ] } },
{ "type": "Feature", "properties": { "gid": 2093, "fclass": "primary", "length": 29.781259231696982, "status": "disappeared" }, "geometry": { "type": "LineString", "coordinates": [ [ 144.911385739588695, -37.677405572590679 ], [ 144.91154775595507, -37.677408553189451 ], [ 144.911702498011806, -37.677474466795601 ] ] } },
{ "type": "Feature", "properties": { "gid": 2099, "fclass": "primary", "length": 17.04268384277599, "status": "disappeared" }, "geometry": { "type": "LineString", "coordinates": [ [ 144.901737636647624, -37.676574122556936 ], [ 144.901564728218887, -37.676642640888446 ] ] } },
{ "type": "Feature", "properties": { "gid": 2127, "fclass": "primary", "length": 7.6200000001117587, "status": "disappeared" }, "geometry": { "type": "LineString", "coordinates": [ [ 144.931206757171793, -37.672795467923443 ], [ 144.931206694751353, -37.672864128273353 ] ] } },
{ "type": "Feature", "properties": { "gid": 2128, "fclass": "primary", "length": 31.01052225355005, "status": "disappeared" }, "geometry": { "type": "LineString", "coordinates": [ [ 144.920175444847871, -37.67301749174441 ], [ 144.919887256874006, -37.673177506892145 ] ] } },
{ "type": "Feature", "properties": { "gid": 2143, "fclass": "primary", "length": 22.671446793933413, "status": "disappeared" }, "geometry": { "type": "LineString", "coordinates": [ [ 144.924565584698627, -37.689613211707993 ], [ 144.924722314442562, -37.689527485350268 ], [ 144.924738570239924, -37.689476000595448 ] ] } },
{ "type": "Feature", "properties": { "gid": 2184, "fclass": "primary", "length": 24.102674400605725, "status": "disappeared" }, "geometry": { "type": "LineString", "coordinates": [ [ 144.893629560803305, -37.686797563563843 ], [ 144.893888728173238, -37.686866453460297 ] ] } },
{ "type": "Feature", "properties": { "gid": 2194, "fclass": "primary", "length": 33.491550851576179, "status": "disappeared" }, "geometry": { "type": "LineString", "coordinates": [ [ 144.899946210280063, -37.680829575285252 ], [ 144.89969790916777, -37.680723516481052 ], [ 144.899600704479013, -37.680714852520545 ] ] } },
{ "type": "Feature", "properties": { "gid": 2205, "fclass": "primary", "length": 39.352298602893335, "status": "disappeared" }, "geometry": { "type": "LineString", "coordinates": [ [ 144.908623643544217, -37.674885952428937 ], [ 144.908956733199886, -37.674836141246551 ], [ 144.909027016743778, -37.674771825573792 ] ] } },
{ "type": "Feature", "properties": { "gid": 2213, "fclass": "primary", "length": 3.5926092055679342, "status": "disappeared" }, "geometry": { "type": "LineString", "coordinates": [ [ 144.916703800449966, -37.660862211178191 ], [ 144.916675028438618, -37.660839304261337 ] ] } },
{ "type": "Feature", "properties": { "gid": 2214, "fclass": "primary", "length": 2.5407166122458875, "status": "disappeared" }, "geometry": { "type": "LineString", "coordinates": [ [ 144.916703800449966, -37.660862211178191 ], [ 144.916675003240613, -37.660862191143977 ] ] } },
{ "type": "Feature", "properties": { "gid": 2217, "fclass": "primary", "length": 20.478223578129377, "status": "disappeared" }, "geometry": { "type": "LineString", "coordinates": [ [ 144.893464098608746, -37.681556360865059 ], [ 144.89349316142463, -37.681373292874937 ] ] } },
{ "type": "Feature", "properties": { "gid": 2219, "fclass": "primary", "length": 2.5400000000372529, "status": "disappeared" }, "geometry": { "type": "LineString", "coordinates": [ [ 144.916675028438618, -37.660839304261337 ], [ 144.916675003240613, -37.660862191143977 ] ] } },
{ "type": "Feature", "properties": { "gid": 2228, "fclass": "tertiary", "length": 47.15171843959682, "status": "disappeared" }, "geometry": { "type": "LineString", "coordinates": [ [ 144.916405720513865, -37.696084710620276 ], [ 144.916247160759582, -37.696176146269238 ], [ 144.91620928023255, -37.696236197096994 ], [ 144.916221751831756, -37.696356360443311 ], [ 144.916318959533641, -37.696382175796906 ] ] } },
{ "type": "Feature", "properties": { "gid": 2234, "fclass": "tertiary", "length": 26.635268926441046, "status": "disappeared" }, "geometry": { "type": "LineString", "coordinates": [ [ 144.92982263862649, -37.674556947615443 ], [ 144.929764914283766, -37.674685651918111 ], [ 144.929678435078955, -37.674762844055543 ] ] } },
{ "type": "Feature", "properties": { "gid": 2244, "fclass": "tertiary", "length": 25.402580037395843, "status": "disappeared" }, "geometry": { "type": "LineString", "coordinates": [ [ 144.913791048736016, -37.689857695826035 ], [ 144.913617990202539, -37.69004066437288 ] ] } },
{ "type": "Feature", "properties": { "gid": 2251, "fclass": "tertiary", "length": 24.257766582578824, "status": "disappeared" }, "geometry": { "type": "LineString", "coordinates": [ [ 144.918927525413949, -37.681828055416922 ], [ 144.919039026135948, -37.681939703589222 ], [ 144.919129014966217, -37.681965511936525 ] ] } },
{ "type": "Feature", "properties": { "gid": 2263, "fclass": "tertiary", "length": 28.405818936120308, "status": "disappeared" }, "geometry": { "type": "LineString", "coordinates": [ [ 144.911702524719374, -37.677451580055909 ], [ 144.911385739588695, -37.677405572590679 ] ] } },
{ "type": "Feature", "properties": { "gid": 2266, "fclass": "tertiary", "length": 27.316595052268074, "status": "disappeared" }, "geometry": { "type": "LineString", "coordinates": [ [ 144.921528703948979, -37.673430348304294 ], [ 144.921625937345283, -37.673404664328856 ], [ 144.921665645209572, -37.673303130163802 ], [ 144.921644101517501, -37.673247329513067 ] ] } },
{ "type": "Feature", "properties": { "gid": 2269, "fclass": "tertiary", "length": 20.029043232868041, "status": "disappeared" }, "geometry": { "type": "LineString", "coordinates": [ [ 144.896252134491903, -37.68597594287781 ], [ 144.896244803331456, -37.68607034412139 ], [ 144.896338366628868, -37.68611333766394 ] ] } },
{ "type": "Feature", "properties": { "gid": 2278, "fclass": "tertiary", "length": 23.423938892647172, "status": "disappeared" }, "geometry": { "type": "LineString", "coordinates": [ [ 144.9175288355909, -37.696543220887378 ], [ 144.917269488397068, -37.696588815268626 ] ] } },
{ "type": "Feature", "properties": { "gid": 2288, "fclass": "tertiary", "length": 23.564097648193567, "status": "disappeared" }, "geometry": { "type": "LineString", "coordinates": [ [ 144.892577362813597, -37.697461797565921 ], [ 144.892422594503785, -37.697397290162534 ], [ 144.892433502405822, -37.697324348945436 ] ] } },
{ "type": "Feature", "properties": { "gid": 2293, "fclass": "tertiary", "length": 3.5926092055679342, "status": "disappeared" }, "geometry": { "type": "LineString", "coordinates": [ [ 144.914777051901552, -37.684068072119146 ], [ 144.914748220071516, -37.684090938305033 ] ] } },
{ "type": "Feature", "properties": { "gid": 2294, "fclass": "tertiary", "length": 29.559435297446889, "status": "disappeared" }, "geometry": { "type": "LineString", "coordinates": [ [ 144.900321084719423, -37.658652551385508 ], [ 144.900499309234903, -37.658616938792306 ], [ 144.900580432380337, -37.65851544545005 ] ] } },
{ "type": "Feature", "properties": { "gid": 2297, "fclass": "tertiary", "length": 39.178989931589655, "status": "disappeared" }, "geometry": { "type": "LineString", "coordinates": [ [ 144.925601260346014, -37.691055718027535 ], [ 144.925482356807663, -37.691124304042525 ], [ 144.925197938478931, -37.691055466875682 ] ] } },
{ "type": "Feature", "properties": { "gid": 2314, "fclass": "tertiary", "length": 44.991461801883936, "status": "disappeared" }, "geometry": { "type": "LineString", "coordinates": [ [ 144.909055874258911, -37.674726073922287 ], [ 144.909027001266111, -37.674784699377497 ], [ 144.908951337889874, -37.674831845873555 ], [ 144.908623643544217, -37.674885952428937 ] ] } },
{ "type": "Feature", "properties": { "gid": 2320, "fclass": "tertiary", "length": 30.957926496749067, "status": "disappeared" }, "geometry": { "type": "LineString", "coordinates": [ [ 144.923269287360711, -37.689543728482278 ], [ 144.92339724364615, -37.689425085857771 ], [ 144.923528745591568, -37.689360801158877 ] ] } },
{ "type": "Feature", "properties": { "gid": 2333, "fclass": "tertiary", "length": 31.8281679110158, "status": "disappeared" }, "geometry": { "type": "LineString", "coordinates": [ [ 144.928832957875784, -37.654988094618098 ], [ 144.92865995071935, -37.655239748078152 ] ] } },
{ "type": "Feature", "properties": { "gid": 2337, "fclass": "tertiary", "length": 27.607230751307846, "status": "disappeared" }, "geometry": { "type": "LineString", "coordinates": [ [ 144.92476742386188, -37.689430245412858 ], [ 144.92470611272077, -37.689524614336854 ], [ 144.924565584698627, -37.689613211707993 ] ] } },
{ "type": "Feature", "properties": { "gid": 2341, "fclass": "tertiary", "length": 2.5400000000372529, "status": "disappeared" }, "geometry": { "type": "LineString", "coordinates": [ [ 144.894094510714211, -37.68391425187145 ], [ 144.894094478677971, -37.683937138551109 ] ] } },
{ "type": "Feature", "properties": { "gid": 2365, "fclass": "tertiary", "length": 16.793111661352114, "status": "disappeared" }, "geometry": { "type": "LineString", "coordinates": [ [ 144.888432070111662, -37.695077802524693 ], [ 144.888359983328826, -37.69511921735846 ], [ 144.888316660264252, -37.695192128056455 ] ] } },
{ "type": "Feature", "properties": { "gid": 2370, "fclass": "tertiary", "length": 26.518996363664435, "status": "disappeared" }, "geometry": { "type": "LineString", "coordinates": [ [ 144.893105245196068, -37.690893809992055 ], [ 144.893191994220075, -37.690665020877148 ] ] } },
{ "type": "Feature", "properties": { "gid": 2374, "fclass": "tertiary", "length": 23.417953873337016, "status": "disappeared" }, "geometry": { "type": "LineString", "coordinates": [ [ 144.902112018834117, -37.676620202646433 ], [ 144.902054145798928, -37.6768261362473 ] ] } },
{ "type": "Feature", "properties": { "gid": 2383, "fclass": "tertiary", "length": 23.993532970993463, "status": "disappeared" }, "geometry": { "type": "LineString", "coordinates": [ [ 144.892043506195449, -37.687963365332415 ], [ 144.892075804463587, -37.688040636956615 ], [ 144.892245061026898, -37.688032206819209 ] ] } },
{ "type": "Feature", "properties": { "gid": 2390, "fclass": "tertiary", "length": 30.589459260853246, "status": "disappeared" }, "geometry": { "type": "LineString", "coordinates": [ [ 144.901419936911793, -37.677237577731212 ], [ 144.901650632140758, -37.677031786496528 ] ] } },
{ "type": "Feature", "properties": { "gid": 2391, "fclass": "tertiary", "length": 2.5399999995715916, "status": "disappeared" }, "geometry": { "type": "LineString", "coordinates": [ [ 144.894094478677971, -37.683937138551109 ], [ 144.894094446641702, -37.683960025230505 ] ] } },
{ "type": "Feature", "properties": { "gid": 2392, "fclass": "tertiary", "length": 3.5926092052387086, "status": "disappeared" }, "geometry": { "type": "LineString", "coordinates": [ [ 144.894094478677971, -37.683937138551109 ], [ 144.894123252635723, -37.683960050694587 ] ] } },
{ "type": "Feature", "properties": { "gid": 2405, "fclass": "tertiary", "length": 26.518996363664435, "status": "disappeared" }, "geometry": { "type": "LineString", "coordinates": [ [ 144.899326631392739, -37.691860438625653 ], [ 144.899413362709822, -37.691631645090297 ] ] } },
{ "type": "Feature", "properties": { "gid": 2428, "fclass": "tertiary", "length": 18.491872907549801, "status": "disappeared" }, "geometry": { "type": "LineString", "coordinates": [ [ 144.891561520195324, -37.682561669498178 ], [ 144.891503679538204, -37.682721824161185 ] ] } },
{ "type": "Feature", "properties": { "gid": 2431, "fclass": "tertiary", "length": 25.910046129662422, "status": "disappeared" }, "geometry": { "type": "LineString", "coordinates": [ [ 144.893917567364838, -37.68684359231959 ], [ 144.893629560803305, -37.686797563563843 ] ] } },
{ "type": "Feature", "properties": { "gid": 2432, "fclass": "tertiary", "length": 28.961021531321304, "status": "disappeared" }, "geometry": { "type": "LineString", "coordinates": [ [ 144.893435261295423, -37.681579221942265 ], [ 144.893522030850278, -37.68132754508018 ] ] } },
{ "type": "Feature", "properties": { "gid": 2433, "fclass": "tertiary", "length": 2.5400000000372529, "status": "disappeared" }, "geometry": { "type": "LineString", "coordinates": [ [ 144.916674978042636, -37.660885078026425 ], [ 144.916675003240613, -37.660862191143977 ] ] } },
{ "type": "Feature", "properties": { "gid": 2434, "fclass": "tertiary", "length": 3.5926092055679342, "status": "disappeared" }, "geometry": { "type": "LineString", "coordinates": [ [ 144.916674978042636, -37.660885078026425 ], [ 144.916703800449966, -37.660862211178191 ] ] } },
{ "type": "Feature", "properties": { "gid": 2439, "fclass": "tertiary", "length": 17.96547812658169, "status": "disappeared" }, "geometry": { "type": "LineString", "coordinates": [ [ 144.894324862627883, -37.683983115428482 ], [ 144.894123252635723, -37.683960050694587 ] ] } },
{ "type": "Feature", "properties": { "gid": 2441, "fclass": "tertiary", "length": 30.394881495489159, "status": "disappeared" }, "geometry": { "type": "LineString", "coordinates": [ [ 144.924361776687817, -37.691764427585113 ], [ 144.924430126558036, -37.691835991446574 ], [ 144.924476761257466, -37.6920162530783 ] ] } },
{ "type": "Feature", "properties": { "gid": 2451, "fclass": "tertiary", "length": 38.106879828273755, "status": "disappeared" }, "geometry": { "type": "LineString", "coordinates": [ [ 144.920233096771909, -37.672971756562504 ], [ 144.919887256874006, -37.673177506892145 ] ] } },
{ "type": "Feature", "properties": { "gid": 2493, "fclass": "tertiary", "length": 23.087245606231463, "status": "disappeared" }, "geometry": { "type": "LineString", "coordinates": [ [ 144.920903313634767, -37.665533982026432 ], [ 144.920977106561025, -37.665538322027793 ], [ 144.921025664552502, -37.665576975634096 ], [ 144.921018366271483, -37.665671379113206 ] ] } },
{ "type": "Feature", "properties": { "gid": 2497, "fclass": "tertiary", "length": 15.244299674406648, "status": "disappeared" }, "geometry": { "type": "LineString", "coordinates": [ [ 144.916876583706539, -37.66086233123805 ], [ 144.916703800449966, -37.660862211178191 ] ] } },
{ "type": "Feature", "properties": { "gid": 2502, "fclass": "tertiary", "length": 31.057825201778947, "status": "disappeared" }, "geometry": { "type": "LineString", "coordinates": [ [ 144.912344139601259, -37.695463869653217 ], [ 144.912333251166274, -37.695536812733266 ], [ 144.912475390015516, -37.695634184715757 ], [ 144.912545600592381, -37.695647109700602 ] ] } },
{ "type": "Feature", "properties": { "gid": 2511, "fclass": "tertiary", "length": 30.079917204809746, "status": "disappeared" }, "geometry": { "type": "LineString", "coordinates": [ [ 144.90423591347249, -37.659822978889935 ], [ 144.904419516623506, -37.65980452996201 ], [ 144.904552620661093, -37.659869005566733 ] ] } },
{ "type": "Feature", "properties": { "gid": 2525, "fclass": "tertiary", "length": 2.5407166122458875, "status": "disappeared" }, "geometry": { "type": "LineString", "coordinates": [ [ 144.894123252635723, -37.683960050694587 ], [ 144.894094446641702, -37.683960025230505 ] ] } },
{ "type": "Feature", "properties": { "gid": 2532, "fclass": "tertiary", "length": 27.408642321450849, "status": "disappeared" }, "geometry": { "type": "LineString", "coordinates": [ [ 144.900410997319995, -37.655974854931621 ], [ 144.900353530923326, -37.65588039847286 ], [ 144.900411298463041, -37.655745985720351 ] ] } },
{ "type": "Feature", "properties": { "gid": 2535, "fclass": "tertiary", "length": 75.357972369716023, "status": "disappeared" }, "geometry": { "type": "LineString", "coordinates": [ [ 144.916675053636595, -37.660816417378498 ], [ 144.916721952956692, -37.660722041536793 ], [ 144.916628740378769, -37.660378673136833 ], [ 144.916699043336934, -37.660278591854293 ], [ 144.916819693606584, -37.660221458457734 ] ] } },
{ "type": "Feature", "properties": { "gid": 2536, "fclass": "tertiary", "length": 2.5407166127115488, "status": "disappeared" }, "geometry": { "type": "LineString", "coordinates": [ [ 144.916675053636595, -37.660816417378498 ], [ 144.916646256444665, -37.660816397337356 ] ] } },
{ "type": "Feature", "properties": { "gid": 2537, "fclass": "tertiary", "length": 2.5400000000372529, "status": "disappeared" }, "geometry": { "type": "LineString", "coordinates": [ [ 144.916675053636595, -37.660816417378498 ], [ 144.916675028438618, -37.660839304261337 ] ] } },
{ "type": "Feature", "properties": { "gid": 2541, "fclass": "tertiary", "length": 50.125928773566628, "status": "disappeared" }, "geometry": { "type": "LineString", "coordinates": [ [ 144.899642592965336, -37.670850686888528 ], [ 144.899912596717115, -37.670855204109294 ], [ 144.900189691324641, -37.670942691347463 ] ] } },
{ "type": "Feature", "properties": { "gid": 2553, "fclass": "tertiary", "length": 3.592609205897253, "status": "disappeared" }, "geometry": { "type": "LineString", "coordinates": [ [ 144.916646256444665, -37.660816397337356 ], [ 144.916675028438618, -37.660839304261337 ] ] } },
{ "type": "Feature", "properties": { "gid": 2556, "fclass": "tertiary", "length": 10.777827616703803, "status": "disappeared" }, "geometry": { "type": "LineString", "coordinates": [ [ 144.921511065507559, -37.690435168744536 ], [ 144.921597562066353, -37.690366565447178 ] ] } },
{ "type": "Feature", "properties": { "gid": 2570, "fclass": "tertiary", "length": 27.943969012475119, "status": "disappeared" }, "geometry": { "type": "LineString", "coordinates": [ [ 144.900046532577591, -37.670301740975468 ], [ 144.900219261913037, -37.670359102064097 ], [ 144.900219126111381, -37.670462092652492 ] ] } },
{ "type": "Feature", "properties": { "gid": 2574, "fclass": "tertiary", "length": 30.972894743808482, "status": "disappeared" }, "geometry": { "type": "LineString", "coordinates": [ [ 144.891551380749945, -37.669539084512913 ], [ 144.891679391833833, -37.669393296800621 ], [ 144.891782079345575, -37.669333311693315 ] ] } },
{ "type": "Feature", "properties": { "gid": 2591, "fclass": "tertiary", "length": 16.064823796344246, "status": "disappeared" }, "geometry": { "type": "LineString", "coordinates": [ [ 144.931264423048304, -37.672726840643996 ], [ 144.931206694751353, -37.672864128273353 ] ] } },
{ "type": "Feature", "properties": { "gid": 2593, "fclass": "tertiary", "length": 3.5926092055679342, "status": "disappeared" }, "geometry": { "type": "LineString", "coordinates": [ [ 144.916703800449966, -37.660862211178191 ], [ 144.916675028438618, -37.660839304261337 ] ] } },
{ "type": "Feature", "properties": { "gid": 2594, "fclass": "tertiary", "length": 2.5407166122458875, "status": "disappeared" }, "geometry": { "type": "LineString", "coordinates": [ [ 144.916703800449966, -37.660862211178191 ], [ 144.916675003240613, -37.660862191143977 ] ] } },
{ "type": "Feature", "properties": { "gid": 2596, "fclass": "tertiary", "length": 2.5400000000372529, "status": "disappeared" }, "geometry": { "type": "LineString", "coordinates": [ [ 144.916675028438618, -37.660839304261337 ], [ 144.916675003240613, -37.660862191143977 ] ] } }
]
}
