{
"type": "FeatureCollection",
"crs": { "type": "name", "properties": { "name": "urn:ogc:def:crs:OGC:1.3:CRS84" } },
"features": [
{ "type": "Feature", "properties": { "gid": 174541, "osm_id": "292009608", "code": 5122.0, "fclass": "residential", "name": "Grogan Road", "pixel_count": 121, "Var_line": 0.0, "Edge_contrast": 7.2378973960876465, "ROI": 10716.0, "Road_detected": -1, "ROI_norm": -0.08987171454980282, "Pred": 0 }, "geometry": { "type": "LineString", "coordinates": [ [ 144.790567619392533, -37.683507375128272 ], [ 144.790579619399978, -37.683557275127121 ], [ 144.790579619402337, -37.68357947512699 ], [ 144.790575619404706, -37.683608175127077 ], [ 144.790558219405483, -37.683643175128026 ], [ 144.790523319405679, -37.683701575130044 ], [ 144.790318119397227, -37.683954175142347 ], [ 144.790111619387545, -37.68419717515485 ], [ 144.789989619382908, -37.684351075162077 ], [ 144.789901019380324, -37.684469975167346 ], [ 144.789823319380559, -37.684597375171819 ], [ 144.789764219382363, -37.684709875175109 ], [ 144.789703919386341, -37.68484467517839 ], [ 144.789650319390717, -37.684971975181192 ], [ 144.789591219397124, -37.685126975184232 ], [ 144.789549719404363, -37.685261775186206 ], [ 144.789512119415122, -37.685423075187728 ], [ 144.789490719427789, -37.685575875188242 ], [ 144.789481319440966, -37.685713875188021 ], [ 144.789477219454, -37.685842275187497 ], [ 144.789488019474106, -37.686013175185714 ], [ 144.789496019486705, -37.686117175184513 ], [ 144.789508119500226, -37.686224375183045 ], [ 144.78953631952092, -37.686371875180207 ], [ 144.789588619549392, -37.686553375175556 ], [ 144.789623419566453, -37.686656275172588 ], [ 144.789665019585442, -37.686766675169061 ], [ 144.789703919602431, -37.686862175165828 ], [ 144.789758919623409, -37.686969375161446 ], [ 144.789823319647155, -37.68708717515635 ], [ 144.789903719674811, -37.687215575150127 ], [ 144.789990919704366, -37.68735037514341 ], [ 144.790064719727241, -37.687444875137821 ], [ 144.790155819754006, -37.687547775131009 ], [ 144.790221619773718, -37.687625275126095 ], [ 144.790306119797037, -37.687706975119838 ], [ 144.790387919818926, -37.687779175113874 ], [ 144.790476419842093, -37.687852375107425 ], [ 144.790589019871334, -37.687943675099248 ], [ 144.790693619897723, -37.68802107509169 ], [ 144.790851919935108, -37.688114575080405 ], [ 144.791355620054389, -37.688414575044455 ], [ 144.792188420253837, -37.688931774984944 ], [ 144.795433821030059, -37.690936674752912 ], [ 144.796071121181711, -37.691323074707384 ], [ 144.797116221432134, -37.691972674632687 ], [ 144.800381922212949, -37.693986274399165 ], [ 144.800511422243375, -37.69406117438993 ], [ 144.800624822269441, -37.694121174381877 ], [ 144.801082722372342, -37.69434197434952 ], [ 144.801916222557963, -37.694728274290703 ] ] } },
{ "type": "Feature", "properties": { "gid": 268203, "osm_id": "590895583", "code": 5122.0, "fclass": "residential", "name": "Grogan Road", "pixel_count": 92, "Var_line": 56.821678161621094, "Edge_contrast": 9.2307844161987305, "ROI": 3638.3333333333339, "Road_detected": -1, "ROI_norm": -0.74857910090624169, "Pred": 0 }, "geometry": { "type": "LineString", "coordinates": [ [ 144.802242822625118, -37.694827774267971 ], [ 144.802269722633753, -37.694864874265939 ], [ 144.802252522640515, -37.694955974266549 ], [ 144.802252522644153, -37.694989874266298 ], [ 144.802257222649104, -37.695028074265743 ], [ 144.802265922653675, -37.695056774264977 ], [ 144.802278722658286, -37.695079074264001 ], [ 144.802296822664033, -37.695103474262595 ] ] } },
{ "type": "Feature", "properties": { "gid": 268204, "osm_id": "590895584", "code": 5122.0, "fclass": "residential", "name": "Grogan Road", "pixel_count": 101, "Var_line": 65.520675659179688, "Edge_contrast": 10.248801231384277, "ROI": 2459.5, "Road_detected": -1, "ROI_norm": -0.85829127873554267, "Pred": 0 }, "geometry": { "type": "LineString", "coordinates": [ [ 144.802296822664033, -37.695103474262595 ], [ 144.802260622656149, -37.695088574265114 ], [ 144.802236422650395, -37.695073774266874 ], [ 144.802220322645894, -37.695057874268052 ], [ 144.80221362264308, -37.695041874268668 ], [ 144.802206922638135, -37.695006874269289 ], [ 144.802205622631419, -37.694946374269733 ], [ 144.802208122626837, -37.694899274269858 ], [ 144.802214722624115, -37.69486387426965 ], [ 144.802242822625118, -37.694827774267971 ] ] } },
{ "type": "Feature", "properties": { "gid": 268205, "osm_id": "590895585", "code": 5122.0, "fclass": "residential", "name": "Grogan Road", "pixel_count": 125, "Var_line": 59.888397216796875, "Edge_contrast": 12.825047492980957, "ROI": 22659.0, "Road_detected": -1, "ROI_norm": 1.0216446489299151, "Pred": 0 }, "geometry": { "type": "LineString", "coordinates": [ [ 144.804428823172316, -37.696403774110216 ], [ 144.803972623059252, -37.696085474143082 ], [ 144.803665322985381, -37.695892374165076 ], [ 144.803263022889297, -37.695645574193826 ], [ 144.802296822664033, -37.695103474262595 ] ] } },
{ "type": "Feature", "properties": { "gid": 268209, "osm_id": "590895589", "code": 5122.0, "fclass": "residential", "name": "Grogan Road", "pixel_count": 105, "Var_line": 49.276828765869141, "Edge_contrast": 20.704685211181641, "ROI": 6010.8333333333339, "Road_detected": -1, "ROI_norm": -0.52777423007348356, "Pred": 0 }, "geometry": { "type": "LineString", "coordinates": [ [ 144.804428823172316, -37.696403774110216 ], [ 144.804562623203225, -37.696476074100701 ], [ 144.804664523227189, -37.696535474093437 ], [ 144.804699423235064, -37.696552474090979 ], [ 144.804728923241328, -37.696563074088907 ], [ 144.804769123249287, -37.696572674086134 ], [ 144.804818723258563, -37.69657897408274 ] ] } },
{ "type": "Feature", "properties": { "gid": 87, "osm_id": null, "code": null, "fclass": "trunk", "name": null, "pixel_count": 116, "Var_line": 92.008216857910156, "Edge_contrast": 33.251598358154297, "ROI": 5372.666666666667, "Road_detected": -1, "ROI_norm": -0.58716740537510848, "Pred": 0 }, "geometry": { "type": "LineString", "coordinates": [ [ 144.802193784297913, -37.698559657728651 ], [ 144.802377595939703, -37.698507035755746 ], [ 144.802447950957912, -37.698458517721363 ], [ 144.802419853100474, -37.698185262387618 ], [ 144.80236784925367, -37.698102212621521 ] ] } },
{ "type": "Feature", "properties": { "gid": 98, "osm_id": null, "code": null, "fclass": "primary", "name": null, "pixel_count": 50, "Var_line": 81.468215942382812, "Edge_contrast": 35.312480926513672, "ROI": 2301.0, "Road_detected": -1, "ROI_norm": -0.8730426262706289, "Pred": 0 }, "geometry": { "type": "LineString", "coordinates": [ [ 144.841567498307882, -37.690424778113474 ], [ 144.84179782219698, -37.690493742498916 ] ] } },
{ "type": "Feature", "properties": { "gid": 101, "osm_id": null, "code": null, "fclass": "primary", "name": null, "pixel_count": 71, "Var_line": 91.054779052734375, "Edge_contrast": 31.525060653686523, "ROI": 3992.5, "Road_detected": -1, "ROI_norm": -0.71561736219745276, "Pred": 0 }, "geometry": { "type": "LineString", "coordinates": [ [ 144.832825786827499, -37.670112341724959 ], [ 144.832852503121643, -37.670241117529613 ], [ 144.832940534878247, -37.670318483462403 ] ] } },
{ "type": "Feature", "properties": { "gid": 103, "osm_id": null, "code": null, "fclass": "primary", "name": null, "pixel_count": 64, "Var_line": 85.136337280273438, "Edge_contrast": 16.786491394042969, "ROI": 2622.8333333333335, "Road_detected": -1, "ROI_norm": -0.84309010041337162, "Pred": 0 }, "geometry": { "type": "LineString", "coordinates": [ [ 144.834148662617395, -37.67100676784073 ], [ 144.834191704325974, -37.671079779236621 ], [ 144.834292417215323, -37.671121401018475 ] ] } },
{ "type": "Feature", "properties": { "gid": 110, "osm_id": null, "code": null, "fclass": "tertiary", "name": null, "pixel_count": 71, "Var_line": 67.549980163574219, "Edge_contrast": 20.719051361083984, "ROI": 3955.5, "Road_detected": -1, "ROI_norm": -0.71906089442961796, "Pred": 0 }, "geometry": { "type": "LineString", "coordinates": [ [ 144.800379323644165, -37.698304895568576 ], [ 144.800332029366842, -37.698485048880471 ], [ 144.800234601746922, -37.698556407155458 ] ] } },
{ "type": "Feature", "properties": { "gid": 111, "osm_id": null, "code": null, "fclass": "tertiary", "name": null, "pixel_count": 89, "Var_line": 80.342803955078125, "Edge_contrast": 24.693429946899414, "ROI": 4057.9999999999995, "Road_detected": -1, "ROI_norm": -0.70952137946213323, "Pred": 0 }, "geometry": { "type": "LineString", "coordinates": [ [ 144.832969386170276, -37.670295636856949 ], [ 144.832883012303341, -37.670282642514245 ], [ 144.832836429096432, -37.670183877977905 ], [ 144.832883539849462, -37.670043761780974 ] ] } },
{ "type": "Feature", "properties": { "gid": 112, "osm_id": null, "code": null, "fclass": "tertiary", "name": null, "pixel_count": 80, "Var_line": 72.4608154296875, "Edge_contrast": 13.748720169067383, "ROI": 2780.6666666666665, "Road_detected": -1, "ROI_norm": -0.82840079850409032, "Pred": 0 }, "geometry": { "type": "LineString", "coordinates": [ [ 144.834177563959543, -37.670961034179655 ], [ 144.83415763159249, -37.67102108453517 ], [ 144.834184519731735, -37.671072617152703 ], [ 144.834321268405375, -37.6710985540942 ] ] } },
{ "type": "Feature", "properties": { "gid": 117, "osm_id": null, "code": null, "fclass": "tertiary", "name": null, "pixel_count": 50, "Var_line": 77.691932678222656, "Edge_contrast": 34.586696624755859, "ROI": 1570.6666666666667, "Road_detected": -1, "ROI_norm": -0.94101360933976463, "Pred": 0 }, "geometry": { "type": "LineString", "coordinates": [ [ 144.841769061605874, -37.690470817846681 ], [ 144.841567546237542, -37.690401891507584 ] ] } }
]
}
