{
"type": "FeatureCollection",
"crs": { "type": "name", "properties": { "name": "urn:ogc:def:crs:OGC:1.3:CRS84" } },
"features": [
{ "type": "Feature", "properties": { "gid": 17, "fclass": "residential", "length": 142.63631364827063, "status": "disappeared" }, "geometry": { "type": "LineString", "coordinates": [ [ 144.832514753817776, -37.667502805230292 ], [ 144.83230317382214, -37.667133458341382 ], [ 144.832115166781875, -37.666686900862778 ], [ 144.831854954142017, -37.666334650038728 ] ] } },
{ "type": "Feature", "properties": { "gid": 39, "fclass": "residential", "length": 371.43323982643528, "status": "disappeared" }, "geometry": { "type": "LineString", "coordinates": [ [ 144.817719759357317, -37.664139714591371 ], [ 144.817438644882117, -37.663529922448554 ], [ 144.817178556771211, -37.662413788537464 ], [ 144.817205969262801, -37.662242178475729 ], [ 144.81711981123243, -37.662144777511287 ], [ 144.817149272441185, -37.661870179413654 ], [ 144.817122689516992, -37.661698486878208 ], [ 144.817207696716707, -37.661526964711925 ], [ 144.817152316425648, -37.661355228200563 ], [ 144.817237323172606, -37.661183705991398 ], [ 144.81718038511471, -37.660911836763034 ] ] } },
{ "type": "Feature", "properties": { "gid": 49, "fclass": "residential", "length": 570.68431818544286, "status": "disappeared" }, "geometry": { "type": "LineString", "coordinates": [ [ 144.825751092963657, -37.690654570447222 ], [ 144.825641016549866, -37.690760261154047 ], [ 144.82438545790842, -37.695664753257418 ] ] } },
{ "type": "Feature", "properties": { "gid": 89, "fclass": "residential", "length": 780.47902042977785, "status": "disappeared" }, "geometry": { "type": "LineString", "coordinates": [ [ 144.817690905808803, -37.664162557575317 ], [ 144.817269791038399, -37.664136167987358 ], [ 144.817118737636832, -37.664078720141617 ], [ 144.816643706278313, -37.664019346072571 ], [ 144.816147254132545, -37.663886985213615 ], [ 144.811745154075425, -37.662255174923544 ], [ 144.809932623771516, -37.661565704018358 ], [ 144.809605459637282, -37.661403545347994 ] ] } },
{ "type": "Feature", "properties": { "gid": 126, "fclass": "trunk", "length": 31.226192997440553, "status": "disappeared" }, "geometry": { "type": "LineString", "coordinates": [ [ 144.835330031987127, -37.697236586099123 ], [ 144.835279967777979, -37.697073450160936 ], [ 144.835231433402441, -37.697034762262646 ], [ 144.835157614700591, -37.697030369480288 ] ] } },
{ "type": "Feature", "properties": { "gid": 128, "fclass": "primary", "length": 5.6808946137727787, "status": "disappeared" }, "geometry": { "type": "LineString", "coordinates": [ [ 144.83672292896776, -37.679272440892554 ], [ 144.836665271192629, -37.679295249050909 ] ] } },
{ "type": "Feature", "properties": { "gid": 139, "fclass": "primary", "length": 2.5407166127115488, "status": "disappeared" }, "geometry": { "type": "LineString", "coordinates": [ [ 144.836665271192629, -37.679295249050909 ], [ 144.836636466999124, -37.679295209769634 ] ] } },
{ "type": "Feature", "properties": { "gid": 140, "fclass": "primary", "length": 3.592609205897253, "status": "disappeared" }, "geometry": { "type": "LineString", "coordinates": [ [ 144.836665271192629, -37.679295249050909 ], [ 144.836636417584913, -37.679318096469601 ] ] } },
{ "type": "Feature", "properties": { "gid": 150, "fclass": "primary", "length": 25.40458655184101, "status": "disappeared" }, "geometry": { "type": "LineString", "coordinates": [ [ 144.836636466999124, -37.679295209769634 ], [ 144.836406330354976, -37.679157575066633 ] ] } },
{ "type": "Feature", "properties": { "gid": 151, "fclass": "primary", "length": 2.5400000000372529, "status": "disappeared" }, "geometry": { "type": "LineString", "coordinates": [ [ 144.836636466999124, -37.679295209769634 ], [ 144.836636417584913, -37.679318096469601 ] ] } },
{ "type": "Feature", "properties": { "gid": 153, "fclass": "primary", "length": 39.673631918634698, "status": "disappeared" }, "geometry": { "type": "LineString", "coordinates": [ [ 144.829772192436167, -37.670428456326967 ], [ 144.829689061720131, -37.670574241783847 ], [ 144.829685017329751, -37.670771635065293 ] ] } },
{ "type": "Feature", "properties": { "gid": 166, "fclass": "tertiary", "length": 2.5407166127115488, "status": "disappeared" }, "geometry": { "type": "LineString", "coordinates": [ [ 144.836665271192629, -37.679295249050909 ], [ 144.836636466999124, -37.679295209769634 ] ] } },
{ "type": "Feature", "properties": { "gid": 167, "fclass": "tertiary", "length": 13.681645463956903, "status": "disappeared" }, "geometry": { "type": "LineString", "coordinates": [ [ 144.836665271192629, -37.679295249050909 ], [ 144.836809390884326, -37.679249671952846 ] ] } },
{ "type": "Feature", "properties": { "gid": 168, "fclass": "tertiary", "length": 3.592609205897253, "status": "disappeared" }, "geometry": { "type": "LineString", "coordinates": [ [ 144.836665271192629, -37.679295249050909 ], [ 144.836636417584913, -37.679318096469601 ] ] } },
{ "type": "Feature", "properties": { "gid": 177, "fclass": "tertiary", "length": 2.5407166122458875, "status": "disappeared" }, "geometry": { "type": "LineString", "coordinates": [ [ 144.836636466999124, -37.679295209769634 ], [ 144.836607662805648, -37.679295170481417 ] ] } },
{ "type": "Feature", "properties": { "gid": 178, "fclass": "tertiary", "length": 2.5400000000372529, "status": "disappeared" }, "geometry": { "type": "LineString", "coordinates": [ [ 144.836636466999124, -37.679295209769634 ], [ 144.836636417584913, -37.679318096469601 ] ] } },
{ "type": "Feature", "properties": { "gid": 180, "fclass": "tertiary", "length": 26.825366760028917, "status": "disappeared" }, "geometry": { "type": "LineString", "coordinates": [ [ 144.836435233445854, -37.679111841000548 ], [ 144.836451268803842, -37.679189105740981 ], [ 144.836607662805648, -37.679295170481417 ] ] } },
{ "type": "Feature", "properties": { "gid": 186, "fclass": "tertiary", "length": 3.5926092055679342, "status": "disappeared" }, "geometry": { "type": "LineString", "coordinates": [ [ 144.836607662805648, -37.679295170481417 ], [ 144.836636417584913, -37.679318096469601 ] ] } },
{ "type": "Feature", "properties": { "gid": 214, "fclass": "unclassified", "length": 1671.8981319471266, "status": "disappeared" }, "geometry": { "type": "LineString", "coordinates": [ [ 144.827504913080219, -37.679557048816648 ], [ 144.823001870928863, -37.679025514040198 ], [ 144.821835524508202, -37.678930807332421 ], [ 144.821727593588747, -37.678894886154751 ], [ 144.821619561603939, -37.678901877436545 ], [ 144.821382066758275, -37.678842876147954 ], [ 144.821209259580968, -37.67883546621205 ], [ 144.821079743009875, -37.678792360108424 ], [ 144.819395095257931, -37.678628193947596 ], [ 144.809784539976022, -37.677517612422676 ], [ 144.808758650246432, -37.67742300123718 ] ] } },
{ "type": "Feature", "properties": { "gid": 215, "fclass": "unclassified", "length": 660.09250295742117, "status": "disappeared" }, "geometry": { "type": "LineString", "coordinates": [ [ 144.817719704232246, -37.664162601412798 ], [ 144.817701973978501, -37.664051000758981 ], [ 144.817574594929852, -37.663879154986525 ], [ 144.817467222260746, -37.663621513651471 ], [ 144.817148442998615, -37.662213481999878 ], [ 144.817150143347817, -37.6615097116511 ], [ 144.817329740796936, -37.659432996234941 ], [ 144.817589834191722, -37.658303349545257 ] ] } },
{ "type": "Feature", "properties": { "gid": 216, "fclass": "unclassified", "length": 783.03303929986237, "status": "disappeared" }, "geometry": { "type": "LineString", "coordinates": [ [ 144.817719704232246, -37.664162601412798 ], [ 144.81755766137502, -37.664183811131842 ], [ 144.817017919057804, -37.664088579158872 ], [ 144.816089713115105, -37.663864009952476 ], [ 144.812291799383758, -37.662462015325069 ], [ 144.809875086405725, -37.661542725751474 ], [ 144.809605459637282, -37.661403545347994 ] ] } },
{ "type": "Feature", "properties": { "gid": 220, "fclass": "unclassified", "length": 138.22377756929933, "status": "disappeared" }, "geometry": { "type": "LineString", "coordinates": [ [ 144.831912501823496, -37.66635761770344 ], [ 144.832267466052969, -37.667001808809928 ], [ 144.832446512878903, -37.667431188306033 ], [ 144.832514753817776, -37.667502805230292 ] ] } },
{ "type": "Feature", "properties": { "gid": 230, "fclass": "unclassified", "length": 1376.3652343769734, "status": "disappeared" }, "geometry": { "type": "LineString", "coordinates": [ [ 144.815484993556026, -37.6948503439314 ], [ 144.816770363872422, -37.694968180273413 ], [ 144.816964728557792, -37.695011389824003 ], [ 144.824286059927886, -37.695820522685594 ], [ 144.824345611078627, -37.695764823850773 ], [ 144.824409112074022, -37.695558937258184 ], [ 144.825639229202466, -37.690754536884434 ], [ 144.825751145678339, -37.690631683850015 ] ] } }
]
}
