{
"type": "FeatureCollection",
"crs": { "type": "name", "properties": { "name": "urn:ogc:def:crs:OGC:1.3:CRS84" } },
"features": [
{ "type": "Feature", "properties": { "gid": 10, "fclass": "residential", "length": 29.272116255801187, "status": "disappeared" }, "geometry": { "type": "LineString", "coordinates": [ [ 144.915009325615017, -37.682443280825765 ], [ 144.914933693689278, -37.682458961756417 ], [ 144.914804112748385, -37.682420248331155 ], [ 144.914692465964094, -37.682443055587932 ] ] } },
{ "type": "Feature", "properties": { "gid": 289, "fclass": "residential", "length": 121.13520497883725, "status": "disappeared" }, "geometry": { "type": "LineString", "coordinates": [ [ 144.909035707073002, -37.69150201789958 ], [ 144.908852145312494, -37.691423205559694 ], [ 144.908627323305041, -37.691218484950426 ], [ 144.908316244615662, -37.690874947643941 ], [ 144.9082300859383, -37.690654597715444 ] ] } },
{ "type": "Feature", "properties": { "gid": 387, "fclass": "residential", "length": 48.751757751851585, "status": "disappeared" }, "geometry": { "type": "LineString", "coordinates": [ [ 144.929323805392016, -37.684397951839081 ], [ 144.929694565210866, -37.684526907677188 ], [ 144.929842189129062, -37.684535576738583 ] ] } },
{ "type": "Feature", "properties": { "gid": 562, "fclass": "residential", "length": 36.152806969492516, "status": "disappeared" }, "geometry": { "type": "LineString", "coordinates": [ [ 144.920256278895664, -37.678304390160179 ], [ 144.920412987087843, -37.678221529916044 ], [ 144.920450933460046, -37.678087095458046 ], [ 144.920429366737807, -37.678052751004451 ] ] } },
{ "type": "Feature", "properties": { "gid": 822, "fclass": "residential", "length": 112.23563886853121, "status": "disappeared" }, "geometry": { "type": "LineString", "coordinates": [ [ 144.908257617783505, -37.691707404312282 ], [ 144.90830074277946, -37.691780388483402 ], [ 144.908448291843172, -37.691860604556588 ], [ 144.908815522199859, -37.691930974950168 ], [ 144.909049693622904, -37.691849619318603 ], [ 144.909208450427997, -37.691593695491015 ] ] } },
{ "type": "Feature", "properties": { "gid": 933, "fclass": "residential", "length": 24.661535735135661, "status": "disappeared" }, "geometry": { "type": "LineString", "coordinates": [ [ 144.89090810247464, -37.676244333793953 ], [ 144.890832333482734, -37.676355837785501 ], [ 144.890850199234848, -37.676450262008998 ] ] } },
{ "type": "Feature", "properties": { "gid": 984, "fclass": "residential", "length": 61.456715085912961, "status": "disappeared" }, "geometry": { "type": "LineString", "coordinates": [ [ 144.888895887675687, -37.673518956477238 ], [ 144.888759418753267, -37.673287100956102 ], [ 144.888613859551839, -37.673116745087427 ], [ 144.888522135794801, -37.673060873167941 ] ] } },
{ "type": "Feature", "properties": { "gid": 1171, "fclass": "residential", "length": 34.085367685551979, "status": "disappeared" }, "geometry": { "type": "LineString", "coordinates": [ [ 144.931263799362711, -37.673413444081874 ], [ 144.931609299125682, -37.673550962602036 ] ] } },
{ "type": "Feature", "properties": { "gid": 1207, "fclass": "residential", "length": 53.718888104941279, "status": "disappeared" }, "geometry": { "type": "LineString", "coordinates": [ [ 144.890356698976717, -37.679104675665748 ], [ 144.890328031673107, -37.679010241573323 ], [ 144.890357395433398, -37.67862405449781 ] ] } },
{ "type": "Feature", "properties": { "gid": 1303, "fclass": "residential", "length": 69.323089786988504, "status": "disappeared" }, "geometry": { "type": "LineString", "coordinates": [ [ 144.920253649667671, -37.680799043022795 ], [ 144.920567307310222, -37.680413037855622 ], [ 144.920772567412627, -37.68038742622236 ] ] } },
{ "type": "Feature", "properties": { "gid": 1333, "fclass": "motorway", "length": 33.027938025510572, "status": "disappeared" }, "geometry": { "type": "LineString", "coordinates": [ [ 144.896955190269296, -37.698541312254576 ], [ 144.896609295290801, -37.698655447165564 ] ] } },
{ "type": "Feature", "properties": { "gid": 1371, "fclass": "motorway", "length": 489.89938168026526, "status": "disappeared" }, "geometry": { "type": "LineString", "coordinates": [ [ 144.925511814583359, -37.694122470281926 ], [ 144.925695521077557, -37.694078241548191 ], [ 144.931043644190083, -37.693759596154578 ] ] } },
{ "type": "Feature", "properties": { "gid": 1374, "fclass": "motorway", "length": 174.36281897620989, "status": "disappeared" }, "geometry": { "type": "LineString", "coordinates": [ [ 144.88756436169021, -37.697365651635181 ], [ 144.887812789514754, -37.697411657699575 ], [ 144.888007023114938, -37.697574906383252 ], [ 144.888143114744253, -37.698089981763232 ], [ 144.888193407792926, -37.698175853404372 ], [ 144.888282678694679, -37.698693745626649 ] ] } },
{ "type": "Feature", "properties": { "gid": 1421, "fclass": "trunk", "length": 36.903934940664129, "status": "disappeared" }, "geometry": { "type": "LineString", "coordinates": [ [ 144.88823465822955, -37.672694416375464 ], [ 144.888050996581569, -37.672728575056965 ], [ 144.887917568295279, -37.672877214502243 ] ] } },
{ "type": "Feature", "properties": { "gid": 1463, "fclass": "trunk", "length": 53.641124133364158, "status": "disappeared" }, "geometry": { "type": "LineString", "coordinates": [ [ 144.905951265172831, -37.669848786862438 ], [ 144.90594034759161, -37.669943186444044 ], [ 144.905788780824082, -37.670234874318261 ], [ 144.905720318395225, -37.670283454942115 ] ] } },
{ "type": "Feature", "properties": { "gid": 1520, "fclass": "trunk", "length": 151.02171151488446, "status": "disappeared" }, "geometry": { "type": "LineString", "coordinates": [ [ 144.899054879689601, -37.67961583030182 ], [ 144.899346379033148, -37.679724787637582 ], [ 144.899670177976333, -37.679913874912621 ], [ 144.89992931591587, -37.679991334437531 ], [ 144.900102003070543, -37.680097329755014 ], [ 144.900296350681032, -37.68016043021543 ], [ 144.9003862707373, -37.680232026086742 ], [ 144.900436524400504, -37.680349362398992 ] ] } },
{ "type": "Feature", "properties": { "gid": 1526, "fclass": "trunk", "length": 12.955023064648548, "status": "disappeared" }, "geometry": { "type": "LineString", "coordinates": [ [ 144.915341110784539, -37.694848086534144 ], [ 144.915485187086659, -37.694825301648443 ] ] } },
{ "type": "Feature", "properties": { "gid": 1550, "fclass": "trunk", "length": 44.825737949778826, "status": "disappeared" }, "geometry": { "type": "LineString", "coordinates": [ [ 144.92900070909522, -37.691034894299953 ], [ 144.928838662861665, -37.691031937323991 ], [ 144.928511047744848, -37.690943056545855 ] ] } },
{ "type": "Feature", "properties": { "gid": 1560, "fclass": "trunk", "length": 2.5400000000372529, "status": "disappeared" }, "geometry": { "type": "LineString", "coordinates": [ [ 144.922649642198223, -37.67571975565874 ], [ 144.922649665594065, -37.675696868901703 ] ] } },
{ "type": "Feature", "properties": { "gid": 1561, "fclass": "trunk", "length": 2.5407166127115488, "status": "disappeared" }, "geometry": { "type": "LineString", "coordinates": [ [ 144.922649642198223, -37.67571975565874 ], [ 144.922620839332893, -37.675719737054472 ] ] } },
{ "type": "Feature", "properties": { "gid": 1562, "fclass": "trunk", "length": 2.5400000000372529, "status": "disappeared" }, "geometry": { "type": "LineString", "coordinates": [ [ 144.922649642198223, -37.67571975565874 ], [ 144.922649618802382, -37.675742642415592 ] ] } },
{ "type": "Feature", "properties": { "gid": 1565, "fclass": "trunk", "length": 56.468139629951892, "status": "disappeared" }, "geometry": { "type": "LineString", "coordinates": [ [ 144.922419594722669, -37.675353418494986 ], [ 144.922538397180773, -37.675362077927652 ], [ 144.92268954720393, -37.675425114216274 ], [ 144.922705643548028, -37.67552811508844 ], [ 144.922649665594065, -37.675696868901703 ] ] } },
{ "type": "Feature", "properties": { "gid": 1566, "fclass": "trunk", "length": 17.785016286652535, "status": "disappeared" }, "geometry": { "type": "LineString", "coordinates": [ [ 144.916944464462176, -37.677729970677483 ], [ 144.916742839059026, -37.677729830698496 ] ] } },
{ "type": "Feature", "properties": { "gid": 1712, "fclass": "trunk", "length": 3.592609205897253, "status": "disappeared" }, "geometry": { "type": "LineString", "coordinates": [ [ 144.922649618802382, -37.675742642415592 ], [ 144.922620839332893, -37.675719737054472 ] ] } },
{ "type": "Feature", "properties": { "gid": 1718, "fclass": "trunk", "length": 3.592609205897253, "status": "disappeared" }, "geometry": { "type": "LineString", "coordinates": [ [ 144.922620839332893, -37.675719737054472 ], [ 144.922649665594065, -37.675696868901703 ] ] } },
{ "type": "Feature", "properties": { "gid": 1772, "fclass": "primary", "length": 3.592609205897253, "status": "disappeared" }, "geometry": { "type": "LineString", "coordinates": [ [ 144.919078625479841, -37.675213887222519 ], [ 144.919049798323528, -37.675236754519972 ] ] } },
{ "type": "Feature", "properties": { "gid": 1773, "fclass": "primary", "length": 2.5400000000372529, "status": "disappeared" }, "geometry": { "type": "LineString", "coordinates": [ [ 144.919078625479841, -37.675213887222519 ], [ 144.919078601004088, -37.675236773982988 ] ] } },
{ "type": "Feature", "properties": { "gid": 1804, "fclass": "primary", "length": 44.158893991583668, "status": "disappeared" }, "geometry": { "type": "LineString", "coordinates": [ [ 144.914390324156471, -37.694893184120623 ], [ 144.914489509465909, -37.694760226543067 ], [ 144.91479384689552, -37.694733265526615 ] ] } },
{ "type": "Feature", "properties": { "gid": 1858, "fclass": "primary", "length": 2.5407166122458875, "status": "disappeared" }, "geometry": { "type": "LineString", "coordinates": [ [ 144.923197430935062, -37.67519371235997 ], [ 144.923168628269877, -37.675193693887422 ] ] } },
{ "type": "Feature", "properties": { "gid": 1859, "fclass": "primary", "length": 3.5926092055679342, "status": "disappeared" }, "geometry": { "type": "LineString", "coordinates": [ [ 144.923197430935062, -37.67519371235997 ], [ 144.923168605031179, -37.675216580648879 ] ] } },
{ "type": "Feature", "properties": { "gid": 1866, "fclass": "primary", "length": 57.201051438502724, "status": "disappeared" }, "geometry": { "type": "LineString", "coordinates": [ [ 144.922057630345535, -37.663246051953266 ], [ 144.921933146305435, -37.66352919597788 ], [ 144.921740401378344, -37.663680695726583 ] ] } },
{ "type": "Feature", "properties": { "gid": 1896, "fclass": "primary", "length": 30.556386749702739, "status": "disappeared" }, "geometry": { "type": "LineString", "coordinates": [ [ 144.924973115181928, -37.65631318101417 ], [ 144.92492650129887, -37.656132917164093 ], [ 144.924829365085856, -37.656084221479979 ] ] } },
{ "type": "Feature", "properties": { "gid": 1932, "fclass": "primary", "length": 15.454458015838144, "status": "disappeared" }, "geometry": { "type": "LineString", "coordinates": [ [ 144.899975226876904, -37.68066939238205 ], [ 144.899802428726701, -37.680646361227645 ] ] } },
{ "type": "Feature", "properties": { "gid": 1933, "fclass": "primary", "length": 2.5407166122458875, "status": "disappeared" }, "geometry": { "type": "LineString", "coordinates": [ [ 144.899975226876904, -37.68066939238205 ], [ 144.900004031620057, -37.680669416431989 ] ] } },
{ "type": "Feature", "properties": { "gid": 1934, "fclass": "primary", "length": 3.5926092055679342, "status": "disappeared" }, "geometry": { "type": "LineString", "coordinates": [ [ 144.899975226876904, -37.68066939238205 ], [ 144.900004001372707, -37.680692303141186 ] ] } },
{ "type": "Feature", "properties": { "gid": 1938, "fclass": "primary", "length": 49.821770047210535, "status": "disappeared" }, "geometry": { "type": "LineString", "coordinates": [ [ 144.898855299120783, -37.678082249655766 ], [ 144.898850254086284, -37.677816186830732 ], [ 144.898711831800256, -37.677670166761246 ] ] } },
{ "type": "Feature", "properties": { "gid": 1948, "fclass": "primary", "length": 2.5400000000372529, "status": "disappeared" }, "geometry": { "type": "LineString", "coordinates": [ [ 144.900004001372707, -37.680692303141186 ], [ 144.900004031620057, -37.680669416431989 ] ] } },
{ "type": "Feature", "properties": { "gid": 1949, "fclass": "primary", "length": 3.5926092055679342, "status": "disappeared" }, "geometry": { "type": "LineString", "coordinates": [ [ 144.900004001372707, -37.680692303141186 ], [ 144.900032836363238, -37.680669440474979 ] ] } },
{ "type": "Feature", "properties": { "gid": 1968, "fclass": "primary", "length": 2.5400000000372529, "status": "disappeared" }, "geometry": { "type": "LineString", "coordinates": [ [ 144.923168628269877, -37.675193693887422 ], [ 144.923168605031179, -37.675216580648879 ] ] } },
{ "type": "Feature", "properties": { "gid": 1989, "fclass": "primary", "length": 196.42588565184002, "status": "disappeared" }, "geometry": { "type": "LineString", "coordinates": [ [ 144.888114104650811, -37.676310416756849 ], [ 144.888272103387692, -37.676593788071401 ], [ 144.888584946297073, -37.67686013820299 ], [ 144.888736102567719, -37.676901760982425 ], [ 144.889708034815953, -37.677025676277012 ], [ 144.889927566741562, -37.677090247258981 ] ] } },
{ "type": "Feature", "properties": { "gid": 2009, "fclass": "primary", "length": 117.55074478309, "status": "disappeared" }, "geometry": { "type": "LineString", "coordinates": [ [ 144.897416011093725, -37.677417309581458 ], [ 144.897664439384357, -37.677418952513719 ], [ 144.898463609968502, -37.677514040537595 ], [ 144.898683058844966, -37.677647255665683 ] ] } },
{ "type": "Feature", "properties": { "gid": 2024, "fclass": "primary", "length": 16.06844960050196, "status": "disappeared" }, "geometry": { "type": "LineString", "coordinates": [ [ 144.919040414103137, -37.657087472613753 ], [ 144.91886759039329, -37.657133129505354 ] ] } },
{ "type": "Feature", "properties": { "gid": 2061, "fclass": "primary", "length": 31.408914729641687, "status": "disappeared" }, "geometry": { "type": "LineString", "coordinates": [ [ 144.888254712326329, -37.698121554955819 ], [ 144.888199105908683, -37.697975601089361 ], [ 144.888226306754092, -37.697846889411153 ] ] } },
{ "type": "Feature", "properties": { "gid": 2068, "fclass": "primary", "length": 2.5407166122458875, "status": "disappeared" }, "geometry": { "type": "LineString", "coordinates": [ [ 144.898711862437239, -37.677647280026392 ], [ 144.898683058844966, -37.677647255665683 ] ] } },
{ "type": "Feature", "properties": { "gid": 2069, "fclass": "primary", "length": 2.5400000000372529, "status": "disappeared" }, "geometry": { "type": "LineString", "coordinates": [ [ 144.898711862437239, -37.677647280026392 ], [ 144.898711831800256, -37.677670166761246 ] ] } },
{ "type": "Feature", "properties": { "gid": 2156, "fclass": "primary", "length": 24.224950288333456, "status": "disappeared" }, "geometry": { "type": "LineString", "coordinates": [ [ 144.89632662071179, -37.673662939758998 ], [ 144.896218589389179, -37.673680011295936 ], [ 144.896153619808445, -37.673800110656856 ] ] } },
{ "type": "Feature", "properties": { "gid": 2171, "fclass": "primary", "length": 3.5926092055679342, "status": "disappeared" }, "geometry": { "type": "LineString", "coordinates": [ [ 144.898683058844966, -37.677647255665683 ], [ 144.898711831800256, -37.677670166761246 ] ] } },
{ "type": "Feature", "properties": { "gid": 2211, "fclass": "primary", "length": 73.150981857477944, "status": "disappeared" }, "geometry": { "type": "LineString", "coordinates": [ [ 144.929058412337696, -37.690943381928165 ], [ 144.929119550334349, -37.691029243012508 ], [ 144.929421916197413, -37.691163880525558 ], [ 144.929778395231523, -37.691195559134457 ] ] } },
{ "type": "Feature", "properties": { "gid": 2235, "fclass": "primary", "length": 2.5407166127115488, "status": "disappeared" }, "geometry": { "type": "LineString", "coordinates": [ [ 144.919078601004088, -37.675236773982988 ], [ 144.919049798323528, -37.675236754519972 ] ] } },
{ "type": "Feature", "properties": { "gid": 2236, "fclass": "primary", "length": 2.5400000000372529, "status": "disappeared" }, "geometry": { "type": "LineString", "coordinates": [ [ 144.919078601004088, -37.675236773982988 ], [ 144.919078576528307, -37.675259660743265 ] ] } },
{ "type": "Feature", "properties": { "gid": 2244, "fclass": "primary", "length": 5.6808946143975048, "status": "disappeared" }, "geometry": { "type": "LineString", "coordinates": [ [ 144.91820516888464, -37.683887368368168 ], [ 144.918262805557134, -37.683864521007614 ] ] } },
{ "type": "Feature", "properties": { "gid": 2261, "fclass": "primary", "length": 27.47966726942543, "status": "disappeared" }, "geometry": { "type": "LineString", "coordinates": [ [ 144.898659527533169, -37.673710709975175 ], [ 144.898918929814386, -37.673573608406812 ] ] } },
{ "type": "Feature", "properties": { "gid": 2268, "fclass": "primary", "length": 60.380115964734372, "status": "disappeared" }, "geometry": { "type": "LineString", "coordinates": [ [ 144.89940718495879, -37.696277623664272 ], [ 144.899336867544775, -37.696346224401104 ], [ 144.89917653169752, -37.69640330607578 ], [ 144.899104336970396, -37.696529121586721 ], [ 144.898888194923614, -37.696574712564122 ] ] } },
{ "type": "Feature", "properties": { "gid": 2305, "fclass": "primary", "length": 26.93211072268296, "status": "disappeared" }, "geometry": { "type": "LineString", "coordinates": [ [ 144.91479384689552, -37.694733265526615 ], [ 144.914855164963228, -37.69464748433488 ], [ 144.915024481969084, -37.694596109674642 ] ] } },
{ "type": "Feature", "properties": { "gid": 2307, "fclass": "primary", "length": 23.007088326120304, "status": "disappeared" }, "geometry": { "type": "LineString", "coordinates": [ [ 144.919049798323528, -37.675236754519972 ], [ 144.918790549636185, -37.67525946580124 ] ] } },
{ "type": "Feature", "properties": { "gid": 2308, "fclass": "primary", "length": 3.592609205897253, "status": "disappeared" }, "geometry": { "type": "LineString", "coordinates": [ [ 144.919049798323528, -37.675236754519972 ], [ 144.919078576528307, -37.675259660743265 ] ] } },
{ "type": "Feature", "properties": { "gid": 2318, "fclass": "primary", "length": 25.404586552213576, "status": "disappeared" }, "geometry": { "type": "LineString", "coordinates": [ [ 144.924553415380188, -37.672928782374775 ], [ 144.924783693311014, -37.673066247981545 ] ] } },
{ "type": "Feature", "properties": { "gid": 2331, "fclass": "primary", "length": 20.478223577667311, "status": "disappeared" }, "geometry": { "type": "LineString", "coordinates": [ [ 144.923168605031179, -37.675216580648879 ], [ 144.923197221864683, -37.675399693206131 ] ] } },
{ "type": "Feature", "properties": { "gid": 2367, "fclass": "primary", "length": 25.402580037395843, "status": "disappeared" }, "geometry": { "type": "LineString", "coordinates": [ [ 144.922403841350842, -37.662628330989548 ], [ 144.922230865906499, -37.662811313847975 ] ] } },
{ "type": "Feature", "properties": { "gid": 2369, "fclass": "primary", "length": 33.687129909447563, "status": "disappeared" }, "geometry": { "type": "LineString", "coordinates": [ [ 144.906088338008573, -37.675433274119094 ], [ 144.905971145522187, -37.675579085381081 ], [ 144.905943982866688, -37.675707802170884 ] ] } },
{ "type": "Feature", "properties": { "gid": 2376, "fclass": "primary", "length": 22.699484091926887, "status": "disappeared" }, "geometry": { "type": "LineString", "coordinates": [ [ 144.91457768929186, -37.656535085760403 ], [ 144.914410203471903, -37.656633666077767 ], [ 144.914404760619163, -37.656672283892078 ] ] } },
{ "type": "Feature", "properties": { "gid": 2442, "fclass": "primary", "length": 2.5407166122458875, "status": "disappeared" }, "geometry": { "type": "LineString", "coordinates": [ [ 144.900032836363238, -37.680669440474979 ], [ 144.900004031620057, -37.680669416431989 ] ] } },
{ "type": "Feature", "properties": { "gid": 2486, "fclass": "primary", "length": 7.6200000001117587, "status": "disappeared" }, "geometry": { "type": "LineString", "coordinates": [ [ 144.919078576528307, -37.675259660743265 ], [ 144.91907850310082, -37.675328321022945 ] ] } },
{ "type": "Feature", "properties": { "gid": 2522, "fclass": "tertiary", "length": 28.005084494059091, "status": "disappeared" }, "geometry": { "type": "LineString", "coordinates": [ [ 144.896326652068552, -37.673640052990329 ], [ 144.896218577618129, -37.673688593834079 ], [ 144.896124786263584, -37.673822972448178 ] ] } },
{ "type": "Feature", "properties": { "gid": 2534, "fclass": "tertiary", "length": 20.717938407962531, "status": "disappeared" }, "geometry": { "type": "LineString", "coordinates": [ [ 144.919069258822418, -37.657041718248756 ], [ 144.918910794807772, -37.657123145738076 ], [ 144.918867614927024, -37.657110242590669 ] ] } },
{ "type": "Feature", "properties": { "gid": 2583, "fclass": "tertiary", "length": 40.48209115595624, "status": "disappeared" }, "geometry": { "type": "LineString", "coordinates": [ [ 144.92220199737244, -37.662879955743392 ], [ 144.922324573766502, -37.662699801112012 ], [ 144.922461484013979, -37.66258259455789 ] ] } },
{ "type": "Feature", "properties": { "gid": 2605, "fclass": "tertiary", "length": 2.5407166122458875, "status": "disappeared" }, "geometry": { "type": "LineString", "coordinates": [ [ 144.923197430935062, -37.67519371235997 ], [ 144.923168628269877, -37.675193693887422 ] ] } },
{ "type": "Feature", "properties": { "gid": 2607, "fclass": "tertiary", "length": 3.5926092055679342, "status": "disappeared" }, "geometry": { "type": "LineString", "coordinates": [ [ 144.923197430935062, -37.67519371235997 ], [ 144.923168605031179, -37.675216580648879 ] ] } },
{ "type": "Feature", "properties": { "gid": 2610, "fclass": "tertiary", "length": 2.5407166127115488, "status": "disappeared" }, "geometry": { "type": "LineString", "coordinates": [ [ 144.888139636006912, -37.698007014638243 ], [ 144.888168447348079, -37.698007041534169 ] ] } },
{ "type": "Feature", "properties": { "gid": 2637, "fclass": "tertiary", "length": 3.5926092055679342, "status": "disappeared" }, "geometry": { "type": "LineString", "coordinates": [ [ 144.919049822808006, -37.675213867759496 ], [ 144.919020995642967, -37.675236735050021 ] ] } },
{ "type": "Feature", "properties": { "gid": 2638, "fclass": "tertiary", "length": 2.5400000000372529, "status": "disappeared" }, "geometry": { "type": "LineString", "coordinates": [ [ 144.919049822808006, -37.675213867759496 ], [ 144.919049798323528, -37.675236754519972 ] ] } },
{ "type": "Feature", "properties": { "gid": 2702, "fclass": "tertiary", "length": 2.5400000000372529, "status": "disappeared" }, "geometry": { "type": "LineString", "coordinates": [ [ 144.923168628269877, -37.675193693887422 ], [ 144.923168605031179, -37.675216580648879 ] ] } },
{ "type": "Feature", "properties": { "gid": 2731, "fclass": "tertiary", "length": 21.7025244645402, "status": "disappeared" }, "geometry": { "type": "LineString", "coordinates": [ [ 144.91811852804301, -37.684093289491322 ], [ 144.918205144141837, -37.683910255053739 ] ] } },
{ "type": "Feature", "properties": { "gid": 2803, "fclass": "tertiary", "length": 65.246780001385062, "status": "disappeared" }, "geometry": { "type": "LineString", "coordinates": [ [ 144.922086475587918, -37.663200296965883 ], [ 144.921942139849449, -37.663534923559403 ], [ 144.921711603095218, -37.663680676903581 ] ] } },
{ "type": "Feature", "properties": { "gid": 2813, "fclass": "tertiary", "length": 198.02687930375151, "status": "disappeared" }, "geometry": { "type": "LineString", "coordinates": [ [ 144.888085301571039, -37.676310389847657 ], [ 144.888171596652654, -37.676387713313126 ], [ 144.888272103387692, -37.676593788071401 ], [ 144.888584946297073, -37.67686013820299 ], [ 144.888736102567719, -37.676901760982425 ], [ 144.889708034815953, -37.677025676277012 ], [ 144.889927566741562, -37.677090247258981 ] ] } },
{ "type": "Feature", "properties": { "gid": 2817, "fclass": "tertiary", "length": 66.043598676173403, "status": "disappeared" }, "geometry": { "type": "LineString", "coordinates": [ [ 144.899436056495887, -37.696231874702853 ], [ 144.899342292393698, -37.696329064009859 ], [ 144.899162116796617, -37.696410446006141 ], [ 144.899075495653818, -37.696551983891872 ], [ 144.898888194923614, -37.696574712564122 ] ] } },
{ "type": "Feature", "properties": { "gid": 2824, "fclass": "tertiary", "length": 26.156538633005539, "status": "disappeared" }, "geometry": { "type": "LineString", "coordinates": [ [ 144.927213242064738, -37.662471142551901 ], [ 144.927472532149238, -37.66235686544524 ] ] } },
{ "type": "Feature", "properties": { "gid": 2876, "fclass": "tertiary", "length": 11.361789228378488, "status": "disappeared" }, "geometry": { "type": "LineString", "coordinates": [ [ 144.918233974858197, -37.683887388034236 ], [ 144.918349248151003, -37.683841693257484 ] ] } },
{ "type": "Feature", "properties": { "gid": 2877, "fclass": "tertiary", "length": 2.5407166122458875, "status": "disappeared" }, "geometry": { "type": "LineString", "coordinates": [ [ 144.918233974858197, -37.683887388034236 ], [ 144.91820516888464, -37.683887368368168 ] ] } },
{ "type": "Feature", "properties": { "gid": 2878, "fclass": "tertiary", "length": 3.5926092055679342, "status": "disappeared" }, "geometry": { "type": "LineString", "coordinates": [ [ 144.918233974858197, -37.683887388034236 ], [ 144.918205144141837, -37.683910255053739 ] ] } },
{ "type": "Feature", "properties": { "gid": 2908, "fclass": "tertiary", "length": 10.15999999968335, "status": "disappeared" }, "geometry": { "type": "LineString", "coordinates": [ [ 144.919049675900823, -37.675351188319361 ], [ 144.919049773838992, -37.675259641280242 ] ] } },
{ "type": "Feature", "properties": { "gid": 2973, "fclass": "tertiary", "length": 2.5400000000372529, "status": "disappeared" }, "geometry": { "type": "LineString", "coordinates": [ [ 144.91820516888464, -37.683887368368168 ], [ 144.918205144141837, -37.683910255053739 ] ] } },
{ "type": "Feature", "properties": { "gid": 2990, "fclass": "tertiary", "length": 33.155317385647081, "status": "disappeared" }, "geometry": { "type": "LineString", "coordinates": [ [ 144.898659527533169, -37.673710709975175 ], [ 144.898843247966084, -37.673630761500185 ], [ 144.898947792983989, -37.673527859170385 ] ] } },
{ "type": "Feature", "properties": { "gid": 3013, "fclass": "tertiary", "length": 51.241833305382698, "status": "disappeared" }, "geometry": { "type": "LineString", "coordinates": [ [ 144.888886645752194, -37.679812810189695 ], [ 144.888934963441301, -37.680010253168184 ], [ 144.888799593426, -37.680247577523083 ] ] } },
{ "type": "Feature", "properties": { "gid": 3028, "fclass": "tertiary", "length": 2.5407166122458875, "status": "disappeared" }, "geometry": { "type": "LineString", "coordinates": [ [ 144.919049798323528, -37.675236754519972 ], [ 144.919020995642967, -37.675236735050021 ] ] } },
{ "type": "Feature", "properties": { "gid": 3029, "fclass": "tertiary", "length": 2.5400000000372529, "status": "disappeared" }, "geometry": { "type": "LineString", "coordinates": [ [ 144.919049798323528, -37.675236754519972 ], [ 144.919049773838992, -37.675259641280242 ] ] } },
{ "type": "Feature", "properties": { "gid": 3044, "fclass": "tertiary", "length": 79.169395121611856, "status": "disappeared" }, "geometry": { "type": "LineString", "coordinates": [ [ 144.9297784164755, -37.691172672509815 ], [ 144.929594744717406, -37.691189729686563 ], [ 144.929421916197413, -37.691163880525558 ], [ 144.929099756421351, -37.691016357565431 ], [ 144.929029646615646, -37.690897591611517 ] ] } },
{ "type": "Feature", "properties": { "gid": 3055, "fclass": "tertiary", "length": 20.478223577667311, "status": "disappeared" }, "geometry": { "type": "LineString", "coordinates": [ [ 144.923168605031179, -37.675216580648879 ], [ 144.923197221864683, -37.675399693206131 ] ] } },
{ "type": "Feature", "properties": { "gid": 3067, "fclass": "tertiary", "length": 22.454637171006226, "status": "disappeared" }, "geometry": { "type": "LineString", "coordinates": [ [ 144.888197292515684, -37.697984181867454 ], [ 144.888215464475536, -37.697872626707685 ], [ 144.888283996914794, -37.697801170039945 ] ] } },
{ "type": "Feature", "properties": { "gid": 3068, "fclass": "tertiary", "length": 3.5926092055679342, "status": "disappeared" }, "geometry": { "type": "LineString", "coordinates": [ [ 144.888197292515684, -37.697984181867454 ], [ 144.888168447348079, -37.698007041534169 ] ] } },
{ "type": "Feature", "properties": { "gid": 3069, "fclass": "tertiary", "length": 2.5400000000372529, "status": "disappeared" }, "geometry": { "type": "LineString", "coordinates": [ [ 144.888197292515684, -37.697984181867454 ], [ 144.888197258689274, -37.698007068423152 ] ] } },
{ "type": "Feature", "properties": { "gid": 3106, "fclass": "tertiary", "length": 81.651267677016037, "status": "disappeared" }, "geometry": { "type": "LineString", "coordinates": [ [ 144.914361436265125, -37.694961823297355 ], [ 144.914471493441908, -37.694768796161277 ], [ 144.914725421289319, -37.694734647255743 ], [ 144.91505334341926, -37.69455035692102 ] ] } },
{ "type": "Feature", "properties": { "gid": 3137, "fclass": "tertiary", "length": 31.10018285424762, "status": "disappeared" }, "geometry": { "type": "LineString", "coordinates": [ [ 144.914375939112773, -37.65669515022239 ], [ 144.914419215036219, -37.656622229050456 ], [ 144.914606536498411, -37.656489332461135 ] ] } },
{ "type": "Feature", "properties": { "gid": 3152, "fclass": "tertiary", "length": 42.346343713123922, "status": "disappeared" }, "geometry": { "type": "LineString", "coordinates": [ [ 144.906117197552788, -37.675387523186963 ], [ 144.906000005192851, -37.675533334479731 ], [ 144.905915151553046, -37.675730666302641 ] ] } },
{ "type": "Feature", "properties": { "gid": 3186, "fclass": "tertiary", "length": 33.358891260468184, "status": "disappeared" }, "geometry": { "type": "LineString", "coordinates": [ [ 144.924829365085856, -37.656084221479979 ], [ 144.92492650129887, -37.656132917164093 ], [ 144.924965992888445, -37.656235933138142 ], [ 144.924944297005311, -37.656336049891088 ] ] } },
{ "type": "Feature", "properties": { "gid": 3206, "fclass": "tertiary", "length": 37.343129840975571, "status": "disappeared" }, "geometry": { "type": "LineString", "coordinates": [ [ 144.898481095925376, -37.677898839019129 ], [ 144.898544368674436, -37.677701494327906 ], [ 144.898654316561476, -37.677601457827748 ] ] } },
{ "type": "Feature", "properties": { "gid": 3213, "fclass": "tertiary", "length": 115.98657999989018, "status": "disappeared" }, "geometry": { "type": "LineString", "coordinates": [ [ 144.897387238626976, -37.677394398172432 ], [ 144.898261992872023, -37.677508147765359 ], [ 144.898499616314155, -37.67751264063233 ], [ 144.898654316561476, -37.677601457827748 ] ] } },
{ "type": "Feature", "properties": { "gid": 3216, "fclass": "tertiary", "length": 20.483823321771521, "status": "disappeared" }, "geometry": { "type": "LineString", "coordinates": [ [ 144.919020995642967, -37.675236735050021 ], [ 144.918790549636185, -37.67525946580124 ] ] } },
{ "type": "Feature", "properties": { "gid": 3217, "fclass": "tertiary", "length": 3.5926092055679342, "status": "disappeared" }, "geometry": { "type": "LineString", "coordinates": [ [ 144.919020995642967, -37.675236735050021 ], [ 144.919049773838992, -37.675259641280242 ] ] } },
{ "type": "Feature", "properties": { "gid": 3226, "fclass": "tertiary", "length": 2.5407166122458875, "status": "disappeared" }, "geometry": { "type": "LineString", "coordinates": [ [ 144.888197258689274, -37.698007068423152 ], [ 144.888168447348079, -37.698007041534169 ] ] } },
{ "type": "Feature", "properties": { "gid": 3227, "fclass": "tertiary", "length": 39.800340099806945, "status": "disappeared" }, "geometry": { "type": "LineString", "coordinates": [ [ 144.888197258689274, -37.698007068423152 ], [ 144.888283451885258, -37.698170215752143 ], [ 144.888254374234094, -37.698350420491785 ] ] } },
{ "type": "Feature", "properties": { "gid": 3373, "fclass": "unclassified", "length": 198.6479718695096, "status": "disappeared" }, "geometry": { "type": "LineString", "coordinates": [ [ 144.909237369166817, -37.691502170851322 ], [ 144.909186757893735, -37.69166519979116 ], [ 144.908981225774284, -37.691888188517026 ], [ 144.908851528321804, -37.69193529359417 ], [ 144.908657075968591, -37.691927993417742 ], [ 144.908333116479554, -37.691810451968742 ], [ 144.908097468794608, -37.691624317504413 ], [ 144.907863730833242, -37.691349498302188 ], [ 144.907797344066779, -37.69115777160863 ] ] } },
{ "type": "Feature", "properties": { "gid": 3418, "fclass": "unclassified", "length": 25.533814647353381, "status": "disappeared" }, "geometry": { "type": "LineString", "coordinates": [ [ 144.888722469751372, -37.673930757833659 ], [ 144.889010457924456, -37.673953911846162 ] ] } },
{ "type": "Feature", "properties": { "gid": 3431, "fclass": "unclassified", "length": 48.014931496094619, "status": "disappeared" }, "geometry": { "type": "LineString", "coordinates": [ [ 144.890791139548071, -37.677457226008492 ], [ 144.89092454139751, -37.677328609511079 ], [ 144.890993324685411, -37.677068335156534 ] ] } },
{ "type": "Feature", "properties": { "gid": 3488, "fclass": "unclassified", "length": 215.26321406601929, "status": "disappeared" }, "geometry": { "type": "LineString", "coordinates": [ [ 144.909150970039519, -37.691479218724368 ], [ 144.908924117473731, -37.691464742329991 ], [ 144.9087316239156, -37.691327275998923 ], [ 144.90840255966765, -37.690966560245542 ], [ 144.907927968738875, -37.690348256993097 ], [ 144.907802057368741, -37.690245170235144 ], [ 144.907650900619132, -37.690173533026766 ], [ 144.907539212264908, -37.690219220177951 ] ] } },
{ "type": "Feature", "properties": { "gid": 3530, "fclass": "unclassified", "length": 110.27872447844904, "status": "disappeared" }, "geometry": { "type": "LineString", "coordinates": [ [ 144.903433519571337, -37.679321912676855 ], [ 144.903607598700546, -37.678337922663786 ] ] } },
{ "type": "Feature", "properties": { "gid": 3557, "fclass": "unclassified", "length": 58.445064768780675, "status": "disappeared" }, "geometry": { "type": "LineString", "coordinates": [ [ 144.922577635431225, -37.661644307289244 ], [ 144.922221464723066, -37.661450968326463 ], [ 144.922088431207129, -37.661300686601649 ] ] } },
{ "type": "Feature", "properties": { "gid": 3559, "fclass": "unclassified", "length": 37.429550471183887, "status": "disappeared" }, "geometry": { "type": "LineString", "coordinates": [ [ 144.920169843203212, -37.678327219334115 ], [ 144.92023484188266, -37.678147029473358 ], [ 144.920400538908126, -37.678075618602648 ] ] } },
{ "type": "Feature", "properties": { "gid": 3632, "fclass": "unclassified", "length": 44.332914376224529, "status": "disappeared" }, "geometry": { "type": "LineString", "coordinates": [ [ 144.914349858098973, -37.679742177256465 ], [ 144.914164191268327, -37.67995231625904 ], [ 144.914003893220382, -37.680016570230244 ] ] } },
{ "type": "Feature", "properties": { "gid": 3815, "fclass": "unclassified", "length": 82.98115652584255, "status": "disappeared" }, "geometry": { "type": "LineString", "coordinates": [ [ 144.927826037364895, -37.68423685190551 ], [ 144.928614514177468, -37.68433316241989 ], [ 144.928747703535663, -37.68437472385439 ] ] } },
{ "type": "Feature", "properties": { "gid": 3945, "fclass": "unclassified", "length": 48.378547847648079, "status": "disappeared" }, "geometry": { "type": "LineString", "coordinates": [ [ 144.922895340712302, -37.660729036428926 ], [ 144.922911460436893, -37.660806290093156 ], [ 144.923211761158228, -37.66107254322317 ] ] } },
{ "type": "Feature", "properties": { "gid": 4073, "fclass": "unclassified", "length": 59.807769511122686, "status": "disappeared" }, "geometry": { "type": "LineString", "coordinates": [ [ 144.920632049308239, -37.677045868181644 ], [ 144.92055603496533, -37.677432031853222 ], [ 144.920494741821074, -37.677513525257446 ], [ 144.920429920300876, -37.677526356013999 ] ] } },
{ "type": "Feature", "properties": { "gid": 4199, "fclass": "unclassified", "length": 92.433188251676341, "status": "disappeared" }, "geometry": { "type": "LineString", "coordinates": [ [ 144.928776509697343, -37.684374740985263 ], [ 144.929370592718612, -37.684422296549116 ], [ 144.929813425368934, -37.684489786498958 ] ] } },
{ "type": "Feature", "properties": { "gid": 4307, "fclass": "unclassified", "length": 134.69131202310123, "status": "disappeared" }, "geometry": { "type": "LineString", "coordinates": [ [ 144.917436648456231, -37.675418747610038 ], [ 144.917544736703491, -37.675347300894103 ], [ 144.917732197008263, -37.675124283721487 ], [ 144.917750366579781, -37.674969810443031 ], [ 144.917701835348993, -37.674902547190754 ], [ 144.917512958934708, -37.67477367912096 ], [ 144.91709196838022, -37.674548811897111 ] ] } },
{ "type": "Feature", "properties": { "gid": 4360, "fclass": "unclassified", "length": 37.437180777155305, "status": "disappeared" }, "geometry": { "type": "LineString", "coordinates": [ [ 144.920198622922499, -37.678350125261694 ], [ 144.920371528913392, -37.678271567129379 ], [ 144.920429318601521, -37.678098524476951 ] ] } },
{ "type": "Feature", "properties": { "gid": 4380, "fclass": "unclassified", "length": 78.161095641788492, "status": "disappeared" }, "geometry": { "type": "LineString", "coordinates": [ [ 144.889185147969982, -37.672672412762999 ], [ 144.88880710049682, -37.672689227489826 ], [ 144.888644909896726, -37.672812093384614 ], [ 144.888522203228831, -37.673015099624337 ] ] } },
{ "type": "Feature", "properties": { "gid": 4424, "fclass": "unclassified", "length": 60.996315057413867, "status": "disappeared" }, "geometry": { "type": "LineString", "coordinates": [ [ 144.888895921279868, -37.67349606970933 ], [ 144.8887810033807, -37.673298564401961 ], [ 144.888522169511816, -37.673037986396224 ] ] } }
]
}
